division,place_name,address1,address2,supplier,longitude,latitude
강남구,KT강남지사,역삼동675-3,23-279,과기부WiFi,127.041466,37.504757
강남구,강남YMCA앞,논현동261-1,23-139,과기부WiFi,127.03633,37.51128
강남구,강남YMCA앞,논현동225-5,23-142,과기부WiFi,127.036095,37.510906
강남구,강남한양수자인아파트,자곡동 50-2,23-393,과기부WiFi,127.1138,37.478252
강남구,강남한양수자인아파트,자곡동 32-7,23-394,과기부WiFi,127.11348,37.477818
강남구,개포1단지,개포동660-1,23-336,과기부WiFi,127.06061,37.48259
강남구,개포4단지6단지,개포동 185,23-492,과기부WiFi,127.07221,37.486977
강남구,개포4단지7단지,개포동185,23-508,과기부WiFi,127.07297,37.487545
강남구,개포고등학교,개포동173,23-343,과기부WiFi,127.05865,37.484375
강남구,개포동역,개포동 180,23-479,과기부WiFi,127.065414,37.488968
강남구,개포시영아파트후문,개포동656,23-444,과기부WiFi,127.05387,37.480602
강남구,개포우성아파트,개포동658-1,23-445,과기부WiFi,127.05786,37.476566
강남구,개포주공1단지,개포동660-12,23-337,과기부WiFi,127.06192,37.481388
강남구,개포주공1단지,개포동141,23-338,과기부WiFi,127.05836,37.47675
강남구,개포주공1단지아파트,개포동660-12,23-459,과기부WiFi,127.0563,37.47882
강남구,개포주공7단지앞,개포동 185,23-361,과기부WiFi,127.07373,37.488953
강남구,개포중학교,개포동141,23-457,과기부WiFi,127.063515,37.480167
강남구,경기여고,개포동152,23-351,과기부WiFi,127.067245,37.48653
강남구,경남아파트,도곡동967,23-481,과기부WiFi,127.04132,37.488976
강남구,고속철도수서역,수서동 206-6,23-150,과기부WiFi,127.104675,37.48455
강남구,공무원아파트,일원동611-1,23-359,과기부WiFi,127.07579,37.492226
강남구,광연자동차학원앞,세곡동 39-23,23-417,과기부WiFi,127.11636,37.46569
강남구,광연자동차학원앞,세곡동 33-6,23-420,과기부WiFi,127.11884,37.467022
강남구,교보타워,논현동 199-2,23-122,과기부WiFi,127.02415,37.505775
강남구,구룡중학교앞,개포동 650,23-334,과기부WiFi,127.05724,37.4858
강남구,국민은행논현동지점,논현동237-12,23-143,과기부WiFi,127.03766,37.50858
강남구,노블발렌티웨딩홀,삼성동162-12,23-194,과기부WiFi,127.06476,37.51483
강남구,능인선원앞,개포동1055,23-367,과기부WiFi,127.052216,37.47177
강남구,단대부고.대치아이파크아파트,대치동 888,23-221,과기부WiFi,127.05378,37.494675
강남구,대왕초등학교,세곡동122-12,23-414,과기부WiFi,127.10684,37.464672
강남구,대청역,일원동 700-4,23-397,과기부WiFi,127.078896,37.493233
강남구,대치동우성아파트,대치1 500-3,23-229,과기부WiFi,127.05961,37.492577
강남구,대치역6번출구.강남구민회관,대치동511,23-239,과기부WiFi,127.06428,37.492786
강남구,대치역7번출구,대치동506,23-231,과기부WiFi,127.06408,37.49246
강남구,도곡교회.인바디빌딩,개포동1274-1,23-468,과기부WiFi,127.05546,37.474434
강남구,도곡렉슬아파트정문,도곡동 527-5,23-332,과기부WiFi,127.05344,37.49475
강남구,도곡역,대치동670,23-219,과기부WiFi,127.056526,37.491585
강남구,도곡역,대치동500,23-228,과기부WiFi,127.05655,37.49118
강남구,도산공원.호림아트센터앞,신사동629-21,23-152,과기부WiFi,127.03333,37.522114
강남구,도성초교사거리,대치동907-13,23-257,과기부WiFi,127.05177,37.500908
강남구,래미안.대치.팰리스,대치동630,23-227,과기부WiFi,127.05858,37.49256
강남구,래미안강남힐즈,자곡동558,23-471,과기부WiFi,127.09538,37.472443
강남구,래미안포레아파트,자곡동626,23-427,과기부WiFi,127.10617,37.475124
강남구,래미안포레아파트,자곡동366-1,23-526,과기부WiFi,127.10729,37.47566
강남구,래미안포레아파트,자곡동358,23-527,과기부WiFi,127.10768,37.476097
강남구,럭키아파트,도곡동963,23-488,과기부WiFi,127.04104,37.49154
강남구,매봉삼성아파트SK리더스뷰,도곡동 168,23-316,과기부WiFi,127.04896,37.488144
강남구,못골마을.LH강남아이파크,자곡동 408-3,23-463,과기부WiFi,127.10164,37.47341
강남구,봉은사.코엑스북문,삼성동77-21,23-190,과기부WiFi,127.05901,37.51414
강남구,봉은사역5번출구.광동한방병원,삼성동 161-1,23-193,과기부WiFi,127.06236,37.51439
강남구,삼성서울병원사거리,일원동 687-8,23-392,과기부WiFi,127.08265,37.489147
강남구,삼성중앙역.플래티넘아파트,삼성동 117,23-211,과기부WiFi,127.05183,37.51238
강남구,삼익아파트앞,도곡동869,23-525,과기부WiFi,127.041794,37.490055
강남구,삼정호텔앞,역삼동 605-3,23-267,과기부WiFi,127.03111,37.50624
강남구,센트럴아이파크.강남구도시관리공단,삼성동66,23-204,과기부WiFi,127.05205,37.51578
강남구,서울세관,논현동71-2,23-131,과기부WiFi,127.035164,37.517326
강남구,서울세관사거리,논현동90-7,23-147,과기부WiFi,127.03478,37.515358
강남구,선릉역,삼성동 142-38,23-241,과기부WiFi,127.051216,37.505447
강남구,세곡동,세곡동 138-12,23-416,과기부WiFi,127.10996,37.464657
강남구,세곡동사거리,세곡동129-2,23-415,과기부WiFi,127.10783,37.463577
강남구,세곡문화복지회관,율현동277-1,23-411,과기부WiFi,127.107864,37.468945
강남구,세곡중학교.세명초등학교,자곡동577-2,23-447,과기부WiFi,127.09156,37.470394
강남구,세관앞,논현동115-14,23-129,과기부WiFi,127.036064,37.51576
강남구,수서119.안전센터앞,수서동749,23-385,과기부WiFi,127.093765,37.48432
강남구,숙명여고,도곡동 91,23-329,과기부WiFi,127.05247,37.489735
강남구,스포월드.라움아트센터,역삼동653-4,23-271,과기부WiFi,127.03884,37.507988
강남구,시립개포도서관,개포동139,23-346,과기부WiFi,127.06408,37.4837
강남구,시립개포도서관,개포동156,23-466,과기부WiFi,127.06356,37.483555
강남구,시립수서청소년수련관,수서동 748,23-450,과기부WiFi,127.0891,37.483864
강남구,신구중학교,신사동634-10,23-163,과기부WiFi,127.03354,37.525646
강남구,신논현역,논현동201-12,23-121,과기부WiFi,127.02609,37.505135
강남구,아크로힐스논현,논현동277-27,23-138,과기부WiFi,127.03975,37.509224
강남구,역삼동개나리아파트,역삼동713-12,23-301,과기부WiFi,127.04735,37.49945
강남구,역삼자이아파트,역삼동711-1,23-298,과기부WiFi,127.04426,37.499805
강남구,연금매점,일원동 688,23-362,과기부WiFi,127.0746,37.488476
강남구,영동시장,논현동54-6,23-116,과기부WiFi,127.02347,37.511852
강남구,영희초등학교,일원동615-1,23-462,과기부WiFi,127.08049,37.49119
강남구,우성3차아파트,개포동660-2,23-341,과기부WiFi,127.05689,37.483173
강남구,우성3차아파트,개포동 652,23-515,과기부WiFi,127.05708,37.483715
강남구,우성6차아파트,개포동656,23-516,과기부WiFi,127.05499,37.476982
강남구,우성캐릭터빌아파트,도곡동 467-18,23-326,과기부WiFi,127.050804,37.48701
강남구,은곡마을진입로,세곡동274-8,23-434,과기부WiFi,127.09858,37.465767
강남구,은마아파트,대치동990,23-235,과기부WiFi,127.06326,37.499447
강남구,은마아파트,대치동316,23-237,과기부WiFi,127.06697,37.495766
강남구,일원동한솔아파트,일원동 731,23-449,과기부WiFi,127.07958,37.48247
강남구,일원본동주민센터,일원동 735-1,23-384,과기부WiFi,127.085976,37.483383
강남구,일원역,일원동 718,23-388,과기부WiFi,127.08328,37.48512
강남구,일원주유소.삼성서울병원후문,일원동 645-14,23-994,과기부WiFi,127.087685,37.490654
강남구,임페리얼팰리스호텔.워터게이트빌딩,논현동248-7,23-140,과기부WiFi,127.0356,37.514328
강남구,쟁골마을,자곡동213-2,23-426,과기부WiFi,127.1044,37.482655
강남구,코원에너지서비스,대치3 32-24,23-521,과기부WiFi,127.076164,37.49849
강남구,태화기독교.사회복지관,수서동 741,23-465,과기부WiFi,127.09335,37.484528
강남구,포스코사거리,삼성동144-17,23-453,과기부WiFi,127.05579,37.507835
강남구,하나은행사거리,개포동660-3,23-339,과기부WiFi,127.05422,37.480858
강남구,학여울역,대치동 5-3,23-500,과기부WiFi,127.07196,37.49725
강남구,학여울역,대치동 514-4,23-501,과기부WiFi,127.071396,37.496677
강남구,한국토지주택공사앞,삼성동34-21,23-216,과기부WiFi,127.043045,37.51281
강남구,한별구립어린이집,삼성동127-13,23-209,과기부WiFi,127.0546,37.510227
강남구,현대아파트,개포동 654,23-363,과기부WiFi,127.052826,37.482265
강남구,휘문중고등학교,대치동952-1,23-249,과기부WiFi,127.06149,37.504074
강동구,GS강동자이아파트.둔촌동프라자아파트,길동 176-3,25-117,과기부WiFi,127.14903,37.537003
강동구,강동공영차고지,강일동565-1,25-102,과기부WiFi,127.17398,37.564034
강동구,강동첨단업무단지.상일여고입구,상일동352-4,25-310,과기부WiFi,127.17325,37.549404
강동구,강명초등학교,상일동108-13,25-110,과기부WiFi,127.17237,37.55337
강동구,강일동주민센터,강일동320,25-318,과기부WiFi,127.17393,37.566013
강동구,강일동주민센터,강일동 675-2,25-319,과기부WiFi,127.17381,37.565884
강동구,강일리버파크6단지,강일동 693,25-317,과기부WiFi,127.17543,37.56403
강동구,강일리버파크8단지,강일동447-1,25-332,과기부WiFi,127.17772,37.56227
강동구,고덕리엔파크2단지.3단지,강일동506,25-342,과기부WiFi,127.17374,37.55734
강동구,상일동주민센터.고덕사회체육센터,상일동131,25-252,과기부WiFi,127.16832,37.550438
강동구,고덕삼환.주공9단지아파트,명일동257,25-263,과기부WiFi,127.15219,37.549053
강동구,고덕아이파크아파트,고덕동499,25-174,과기부WiFi,127.15378,37.55937
강동구,고덕역,명일동 46-5,25-140,과기부WiFi,127.15508,37.555
강동구,고덕초등학교,고덕동 229,25-167,과기부WiFi,127.165764,37.560146
강동구,고덕평생학습관.온조대왕체육관,고덕동 296,25-137,과기부WiFi,127.15814,37.555687
강동구,광문고.서울컨벤션고,고덕동499,25-172,과기부WiFi,127.15652,37.560448
강동구,길동자연생태공원,길동 산25-1,25-182,과기부WiFi,127.152596,37.53904
강동구,길동자연생태공원,길동 12-5,25-183,과기부WiFi,127.153015,37.53918
강동구,둔촌2동주민센터.서울양병원,둔촌동 64-1,25-122,과기부WiFi,127.14203,37.53365
강동구,둔촌동역2번출구,둔촌동 529-7,25-247,과기부WiFi,127.13652,37.527588
강동구,둔촌동프라자아파트.GS강동자이아파트,길동 176-3,25-118,과기부WiFi,127.14818,37.536102
강동구,명일동신동아아파트,고덕동313,25-289,과기부WiFi,127.152176,37.55485
강동구,명일여자고등학교,명일동 257,25-195,과기부WiFi,127.1493,37.54835
강동구,배재중고등학교,고덕동 313-1,25-141,과기부WiFi,127.14945,37.55479
강동구,배재중고등학교,명일동15,25-142,과기부WiFi,127.14947,37.554523
강동구,보훈병원,둔촌동94-3,25-190,과기부WiFi,127.14359,37.528843
강동구,상일동동아아파트,상일동473,25-295,과기부WiFi,127.16755,37.545788
강동구,상일동역1번출구,고덕동217,25-133,과기부WiFi,127.164444,37.556587
강동구,상일동주몽재활원,상일동179,25-297,과기부WiFi,127.16332,37.54598
강동구,상일초등학교,상일동 440-3,25-722,과기부WiFi,127.17236,37.54664
강동구,서울장애인종합복지관,고덕동 317-23,25-143,과기부WiFi,127.14658,37.55479
강동구,신암중학교,암사동460-15,25-152,과기부WiFi,127.13132,37.554615
강동구,십자성마을,길동 336-1,25-239,과기부WiFi,127.14212,37.54298
강동구,아남.대우아파트,고덕동 469,25-372,과기부WiFi,127.14465,37.55772
강동구,암사3동주민센터프라이어팰리스,암사동 산48-10,25-148,과기부WiFi,127.13932,37.554558
강동구,한양수자인아파트,성내동 547-1,25-286,과기부WiFi,127.12846,37.527172
강동구,한영중고한영외고,명일동60,25-180,과기부WiFi,127.15591,37.547817
강동구,해뜨는주유소,강일동638,25-106,과기부WiFi,127.17099,37.559757
강북구,SK아파트벽산아파트상가,미아동1353,09-225,과기부WiFi,127.0112,37.61973
강북구,강북노인종합복지관,수유동 605-128,09-142,과기부WiFi,127.019,37.634434
강북구,강북보건소,번동 362-2,09-176,과기부WiFi,127.03919,37.632107
강북구,강북보건소,번동 612-3,09-179,과기부WiFi,127.03923,37.632477
강북구,대한병원,수유동 230-4,09-205,과기부WiFi,127.023094,37.636974
강북구,도봉세무서.성북시장,미아동 231,09-009,과기부WiFi,127.02872,37.619713
강북구,미아사거리역,미아동 861-1,09-011,과기부WiFi,127.02993,37.61376
강북구,미아사거리역,도봉로 36-1,09-012,과기부WiFi,127.03021,37.612896
강북구,미아역.신일중고,도봉로 131-1,09-007,과기부WiFi,127.02665,37.62487
강북구,미아역.신일중고,도봉로 131-1,09-008,과기부WiFi,127.02714,37.62411
강북구,번동주공1단지,번동 612-2,09-185,과기부WiFi,127.047226,37.627014
강북구,번동주공3단지,번동 612-3,09-183,과기부WiFi,127.04437,37.62865
강북구,번동해모로아파트,번동 148-232,09-233,과기부WiFi,127.03704,37.626625
강북구,북서울꿈의숲,번동 122-4,09-239,과기부WiFi,127.03753,37.622585
강북구,삼각산고.래미안트리베라,미아동 813-8,09-302,과기부WiFi,127.021645,37.61442
강북구,삼각산고.래미안트리베라,미아동 813-8,09-303,과기부WiFi,127.02136,37.61438
강북구,삼각산동삼각산아이원아파트정문,미아동 1357-13,09-295,과기부WiFi,127.016685,37.616177
강북구,삼각산동삼각산아이원아파트후문,미아동 1357-2,09-275,과기부WiFi,127.01883,37.61635
강북구,삼양동사거리입구,미아동 374-45,09-175,과기부WiFi,127.02849,37.61706
강북구,수유(강북구청)역,수유동 191-15,09-013,과기부WiFi,127.0261,37.638477
강북구,수유3동우체국,수유동 140,09-001,과기부WiFi,127.029045,37.641243
강북구,수유3동우체국,번동 386-16,09-002,과기부WiFi,127.02866,37.640675
강북구,수유시장.성신여대미아캠퍼스앞,수유동 45-25,09-005,과기부WiFi,127.02417,37.631226
강북구,수유시장.성신여대미아캠퍼스앞,미아동 194-1,09-006,과기부WiFi,127.024574,37.63053
강북구,수유역,수유동 140,09-003,과기부WiFi,127.02412,37.636658
강북구,수유역.강북구청,번동 386-16,09-004,과기부WiFi,127.02523,37.63749
강북구,수유중앙시장,수유동 220-29,09-203,과기부WiFi,127.02272,37.64036
강북구,우이동도선사입구,우이동 265-24,09-286,과기부WiFi,127.01273,37.663105
강북구,우이동성원아파트,우이동 1,09-104,과기부WiFi,127.01336,37.662045
강북구,인수중학교,수유동 524-4,09-116,과기부WiFi,127.010826,37.6425
강북구,인수중학교,수유동 553-52,09-117,과기부WiFi,127.011055,37.64231
강북구,초안교,번동 289,09-181,과기부WiFi,127.04109,37.63111
강서구,KBS스포츠월드,등촌동 665-13,16-009,과기부WiFi,126.850464,37.556602
강서구,KBS스포츠월드,화곡동 1136-1,16-010,과기부WiFi,126.849236,37.55691
강서구,KT가양지사,강서로 442,16-223,과기부WiFi,126.84044,37.56482
강서구,KT가양지사,가양동 1070답,16-224,과기부WiFi,126.840096,37.564888
강서구,가로공원.나누리병원,가로공원로 184-2,16-199,과기부WiFi,126.83645,37.536827
강서구,가로공원.나누리병원,가로공원로 181,16-200,과기부WiFi,126.836296,37.537178
강서구,가양2단지성지아파트.동양고등학교,허준로 47,16-230,과기부WiFi,126.84764,37.56948
강서구,가양2동강변아파트,가양2 1475-4,16-238,과기부WiFi,126.85564,37.56418
강서구,가양3동도시개발9단지아파트,가양3 1489-1,16-243,과기부WiFi,126.863304,37.55981
강서구,가양도시개발5단지아파트,가양동 1475-3,16-237,과기부WiFi,126.85513,37.564243
강서구,가양도시개발9단지.세현고등학교,가양3 1491학,16-244,과기부WiFi,126.86384,37.55972
강서구,가양동천주교영등포공업고등학교,가양동 26-28,16-232,과기부WiFi,126.84965,37.56848
강서구,가양역.우성아파트,등촌동 73-1,16-259,과기부WiFi,126.85397,37.56145
강서구,가양역.우성아파트,가양동 14-38,16-260,과기부WiFi,126.85339,37.562164
강서구,가양역.현대아파트,양천로 507,16-258,과기부WiFi,126.856606,37.56046
강서구,가양한강타운아파트,허준로 23,16-228,과기부WiFi,126.84381,37.570507
강서구,강서공업고등학교,방화3 834-1잡,16-303,과기부WiFi,126.81652,37.57562
강서구,강서구청사거리.서울디지털대학교,등촌동 666-61,16-007,과기부WiFi,126.85578,37.554756
강서구,강서구청사거리.서울디지털대학교,화곡동 1106-5,16-008,과기부WiFi,126.85409,37.555237
강서구,강서면허시험장.메이필드호텔,외발산동281-2,16-153,과기부WiFi,126.819496,37.549683
강서구,강서소방서.이마트.증미역,양천로 564,16-256,과기부WiFi,126.86172,37.55723
강서구,개화2치안센터,개화동 564-5,16-167,과기부WiFi,126.8026,37.575195
강서구,개화2치안센터,개화동 637-2,16-168,과기부WiFi,126.80222,37.575127
강서구,개화검문소,개화동 477-31,16-169,과기부WiFi,126.80035,37.578457
강서구,겸재정선미술관,가양1 272-30,16-271,과기부WiFi,126.838165,37.56991
강서구,공항동지하도입구,남부순환로 29,16-162,과기부WiFi,126.80818,37.559086
강서구,공항시장역.공항성산교회,방화2 614-97,16-121,과기부WiFi,126.811386,37.564747
강서구,공항중학교,공항동 3-7,16-307,과기부WiFi,126.81631,37.56322
강서구,공항중학교,공항동 2-95,16-308,과기부WiFi,126.81676,37.562458
강서구,공항중학교.공항초등학교,공항동 36-16,16-016,과기부WiFi,126.8158,37.560726
강서구,공항초등학교.공항중학교,마곡동 730-62,16-020,과기부WiFi,126.817154,37.560738
강서구,국민은행방화동지점,금낭화로 80,16-126,과기부WiFi,126.81159,37.57272
강서구,금호.한솔아파트,등촌1 241-14,16-252,과기부WiFi,126.865486,37.555447
강서구,대림경동아파트,허준로 121,16-236,과기부WiFi,126.85322,37.56559
강서구,대원시장,화곡동 1031-1,16-209,과기부WiFi,126.83823,37.544064
강서구,등촌동부영아파트,강서로56나길 110,16-296,과기부WiFi,126.84311,37.56261
강서구,등촌역.강서보건소,염창동 284-53,16-003,과기부WiFi,126.86865,37.549004
강서구,등촌역.강서보건소,목동 603-25,16-004,과기부WiFi,126.8676,37.54941
강서구,등촌중학교 백석초등학교,등촌동 666-80,16-005,과기부WiFi,126.86156,37.552628
강서구,등촌중학교 백석초등학교,등촌동 607-7,16-006,과기부WiFi,126.86053,37.552864
강서구,마곡동로사거리,마곡동 727-1163,16-021,과기부WiFi,126.83187,37.55935
강서구,마곡동로사거리,마곡동 727-1154,16-022,과기부WiFi,126.83171,37.559284
강서구,마곡수명산파크2단지,내발산동 389-1,16-418,과기부WiFi,126.82642,37.55491
강서구,마곡수명산파크2단지,내발산동 739,16-419,과기부WiFi,126.82606,37.554787
강서구,마곡엠밸리14단지아파트,마곡동 721-8,16-427,과기부WiFi,126.82641,37.55747
강서구,마곡엠밸리15단지아파트,마곡동 721-9,16-428,과기부WiFi,126.82675,37.557438
강서구,마곡역,마곡동 727-1091,16-018,과기부WiFi,126.827515,37.559696
강서구,마곡역,마곡동 727-697,16-019,과기부WiFi,126.82604,37.559692
강서구,발산역,등촌동 675-9,16-013,과기부WiFi,126.83916,37.55849
강서구,발산역,용두동 47-1,16-017,과기부WiFi,126.83761,37.558575
강서구,발산역.우장산힐스테이트,내발산동 657-2,16-217,과기부WiFi,126.83762,37.556038
강서구,상사마을,개화동 425-4,16-171,과기부WiFi,126.79856,37.582493
강서구,서남환경공원,마곡동 222-16,16-278,과기부WiFi,126.822624,37.57308
강서구,서울항공비즈니스고등학교,방화1 246-8,16-306,과기부WiFi,126.816376,37.568966
강서구,송정역,공항대로,16-014,과기부WiFi,126.80959,37.56137
강서구,송정역,공항대로,16-015,과기부WiFi,126.81107,37.561348
강서구,송정중학교후문,공항동 1342,16-453,과기부WiFi,126.81621,37.55452
강서구,신방화사거리,방화1 278-15,16-431,과기부WiFi,126.816925,37.57287
강서구,양천향교역.휴먼빌아파트,강서로 490,16-225,과기부WiFi,126.84157,37.568977
강서구,염창동새마을금고,염창동 250-15,16-247,과기부WiFi,126.87332,37.550236
강서구,염창동아3차아파트.나이아가라호텔,염창동 284-66,16-245,과기부WiFi,126.877625,37.54912
강서구,염창동한마음.관음삼성아파트,염창동 244-28,16-249,과기부WiFi,126.86972,37.553047
강서구,염창역.서울도시가스,공항대로,16-001,과기부WiFi,126.875885,37.547096
강서구,염창역.서울도시가스,공항대로,16-002,과기부WiFi,126.87506,37.546856
강서구,외발산신광명마을,외'발산동 234-8,16-151,과기부WiFi,126.821526,37.546066
강서구,외발산신광명마을,발산1 263,16-152,과기부WiFi,126.82113,37.54596
강서구,우장산역,강서로 266,16-213,과기부WiFi,126.8365,37.54924
강서구,한국가스기술공사,공항대로,16-011,과기부WiFi,126.8455,37.557854
강서구,한국가스기술공사,공항대로,16-012,과기부WiFi,126.843254,37.557873
강서구,한국공항공사,공항동 676-1,16-410,과기부WiFi,126.798874,37.56243
강서구,화곡푸르지오,화곡3 1068-31,16-150,과기부WiFi,126.83448,37.54015
관악구,관악구청,봉천동 1571-1,21-185,과기부WiFi,126.95083,37.478687
관악구,구로디지털단지역,시흥대로,21-001,과기부WiFi,126.90245,37.483936
관악구,봉천사거리.봉천중앙시장,관악로 201,21-138,과기부WiFi,126.95367,37.48291
관악구,봉현초등학교,성현로 117,21-236,과기부WiFi,126.95547,37.490715
관악구,사당역,과천대로,21-028,과기부WiFi,126.98167,37.47518
관악구,사당자동차학원,과천대로,21-027,과기부WiFi,126.98278,37.472237
관악구,산복터널.관악산휴먼시아2단지,신림동 산102-9,21-173,과기부WiFi,126.92234,37.45865
관악구,산장아파트,신림동 산78-8,21-170,과기부WiFi,126.92773,37.459953
관악구,삼성산주공아파트,신림동 1714-4,21-171,과기부WiFi,126.92536,37.461212
관악구,서울대학교,신림동 154-3,21-127,과기부WiFi,126.94795,37.46674
관악구,서울대학교,신림동 150-38,21-376,과기부WiFi,126.94963,37.467663
관악구,신림중.삼성고.관악문화관도서관,신림로 40,21-142,과기부WiFi,126.94453,37.47021
관악구,신사시장.선한이웃교회,신림동 523-16,21-358,과기부WiFi,126.91404,37.484528
관악구,쑥고개,봉천동 1537-1,21-181,과기부WiFi,126.94002,37.478256
관악구,쑥고개시장,봉천동 1540-9,21-182,과기부WiFi,126.94323,37.479454
관악구,쑥고개시장,봉천동 1563-2,21-188,과기부WiFi,126.94304,37.479656
관악구,영락고교.영락의료과학고,봉천동 1562-26,21-183,과기부WiFi,126.945625,37.479214
관악구,영락고교.영락의료과학고,봉천동 1564-11,21-187,과기부WiFi,126.94564,37.479397
관악구,우방아파트,신사동 1715,21-300,과기부WiFi,126.91925,37.48923
관악구,은천교,봉천동 962,21-190,과기부WiFi,126.935814,37.48623
관악구,은천초등학교,은천로 61,21-201,과기부WiFi,126.94223,37.4862
관악구,조원동기점,조원로 25,21-264,과기부WiFi,126.90589,37.483513
관악구,조원아파트,조원중앙로59-1,21-364,과기부WiFi,126.90782,37.48409
관악구,중앙동성당앞,은천로 176,21-196,과기부WiFi,126.954834,37.485744
관악구,천주교성령봉사회관.등불교회,남부순환로 1415,21-113,과기부WiFi,126.90796,37.480755
관악구,청룡시장,봉천동 1574-1,21-184,과기부WiFi,126.94786,37.47899
관악구,청룡시장,봉천동 1566-24,21-186,과기부WiFi,126.94788,37.479187
광진구,건대입구역사거리.건대병원,화양동4-20,05-232,과기부WiFi,127.07131,37.54096
광진구,광나루역,천호대로,05-011,과기부WiFi,127.10328,37.54551
광진구,광나루역,천호대로,05-012,과기부WiFi,127.10327,37.545177
광진구,광나루역.극동아파트,광장동218-1,05-168,과기부WiFi,127.103065,37.543472
광진구,광나루역.극동아파트,광장동445-5,05-169,과기부WiFi,127.10309,37.54392
광진구,광장동현대아파트앞,광장동425-2,05-166,과기부WiFi,127.097466,37.541798
광진구,광진경찰서,구의동250-21,05-147,과기부WiFi,127.08436,37.54221
광진구,광진구청,자양동777,05-175,과기부WiFi,127.08315,37.538486
광진구,광진청소년수련관,광장동303-2,05-265,과기부WiFi,127.10538,37.54595
광진구,구의사거리.광진소방서앞,능동18-14,05-142,과기부WiFi,127.08398,37.54525
광진구,구의시장삼거리,구의동230-13,05-150,과기부WiFi,127.0891,37.544655
광진구,국립서울병원앞,중곡동31-7,05-115,과기부WiFi,127.08336,37.56389
광진구,군자교,중곡동614-1,05-101,과기부WiFi,127.0752,37.56153
광진구,군자교남단,군자동29-65,05-237,과기부WiFi,127.072784,37.55741
광진구,군자교입구,천호대로,05-001,과기부WiFi,127.075645,37.558743
광진구,군자교입구,천호대로,05-002,과기부WiFi,127.0749,37.558792
광진구,군자역4번출구.용마초등학교,천호대로,05-003,과기부WiFi,127.08247,37.5561
광진구,군자역5번출구.용마초등학교,천호대로,05-004,과기부WiFi,127.081566,37.556225
광진구,대원고교앞,중곡동18-73,05-136,과기부WiFi,127.08697,37.564198
광진구,뚝도변전소앞,자양동507-36,05-203,과기부WiFi,127.06902,37.536076
광진구,면곡시장,중곡동185-4,05-121,과기부WiFi,127.07958,37.57028
광진구,새밭교회,천호대로,05-009,과기부WiFi,127.0935,37.54892
광진구,새밭교회,천호대로,05-010,과기부WiFi,127.09261,37.548958
광진구,신양초등학교앞,자양동504,05-201,과기부WiFi,127.06929,37.534912
광진구,신양초등학교앞,자양동507-46,05-202,과기부WiFi,127.06895,37.535233
광진구,신자초등학교앞,자양동591,05-189,과기부WiFi,127.07501,37.53037
광진구,어린이대공원후문아차산역,천호대로,05-006,과기부WiFi,127.09015,37.55121
광진구,어린이대공원후문아차산역,천호대로,05-007,과기부WiFi,127.08925,37.55242
광진구,어린이회관,능동18-11,05-143,과기부WiFi,127.07723,37.54603
광진구,용곡삼거리,중곡동29-56,05-132,과기부WiFi,127.08559,37.567932
광진구,용암사입구,중곡동18-1,05-135,과기부WiFi,127.08637,37.567867
광진구,자양고교앞,자양동553-41,05-212,과기부WiFi,127.071175,37.53458
광진구,자양동잠실대교북단,자양동681-40,05-194,과기부WiFi,127.08585,37.53212
광진구,자양사거리,자양동779-4,05-176,과기부WiFi,127.0826,37.53689
광진구,자양아파트앞,자양동658-14,05-187,과기부WiFi,127.08461,37.532192
광진구,자양우성아파트앞,자양동520-2,05-210,과기부WiFi,127.07352,37.533688
광진구,제일은행사거리,자양동520,05-261,과기부WiFi,127.07475,37.53355
광진구,중곡동입구삼거리,천호대로,05-005,과기부WiFi,127.08655,37.554497
광진구,중곡동입구삼거리,천호대로,05-008,과기부WiFi,127.08486,37.55483
구로구,개봉역.영화아파트,경인로,17-009,과기부WiFi,126.8606,37.496796
구로구,개봉역.한마을아파트,고척제1동 69-9,17-010,과기부WiFi,126.86205,37.49648
구로구,거리공원,구로5 49-4,17-107,과기부WiFi,126.891525,37.49991
구로구,경인중학교.개봉사거리,개봉동 156-5,17-011,과기부WiFi,126.85552,37.497353
구로구,경인중학교.개봉사거리,개봉동 146-24,17-012,과기부WiFi,126.85513,37.49717
구로구,고대구로병원후문,구로2 80-24,17-113,과기부WiFi,126.88435,37.49311
구로구,구로1동우체국,구일로4길 65,17-237,과기부WiFi,126.87466,37.491486
구로구,구로도서관.대성스카이렉스,구로5 107-2,17-108,과기부WiFi,126.89122,37.499676
구로구,구로디지털단지역,시흥대로,17-013,과기부WiFi,126.90155,37.4831
구로구,구로우체국.이펜하우스3단지후문,천왕동 32-4,17-701,과기부WiFi,126.84214,37.4817
구로구,구일역.제일제당.롯데마트,경인로,17-006,과기부WiFi,126.874466,37.499588
구로구,구일역.중앙유통상가.롯데마트,경인로,17-005,과기부WiFi,126.8746,37.499798
구로구,구일우성아파트,구일로4길 22,17-232,과기부WiFi,126.87581,37.49013
구로구,금강수목원아파트,오류동 255-6,17-704,과기부WiFi,126.834305,37.489304
구로구,대림역,구로4 120-3차,17-296,과기부WiFi,126.89437,37.4935
구로구,동아1차아파트102동,신도림로 87,17-949,과기부WiFi,126.88413,37.51082
구로구,동양미래대학.구로성심병원,고척동 76-189,17-007,과기부WiFi,126.868,37.499634
구로구,동양미래대학.구로성심병원,고척동 76-189,17-008,과기부WiFi,126.86702,37.49938
구로구,서울가든빌라앞,오류2 118-39,17-175,과기부WiFi,126.831345,37.49113
구로구,서울가든빌라앞,오류2 116-1,17-176,과기부WiFi,126.83167,37.49156
구로구,성공회대학교유한공고앞,오류2 108-74,17-177,과기부WiFi,126.82518,37.489483
구로구,신도림동.구로역,경인로,17-003,과기부WiFi,126.88398,37.506
구로구,신도림동.구로역,경인로,17-004,과기부WiFi,126.883224,37.505344
구로구,신도림역,경인로,17-001,과기부WiFi,126.88942,37.509754
구로구,신도림역,경인로,17-002,과기부WiFi,126.888466,37.50911
구로구,신도림역,구로5 26-2,17-101,과기부WiFi,126.892235,37.50651
구로구,연지타운2단지,천왕동 12번지,17-397,과기부WiFi,126.840836,37.48373
구로구,연지타운2단지,천왕동 12번지,17-399,과기부WiFi,126.84081,37.48391
구로구,유한공고.성공회대학교,온수동 44-21,17-999,과기부WiFi,126.82474,37.489544
구로구,천왕이펜하우스2단지,오류동 177-2,17-700,과기부WiFi,126.837975,37.485653
구로구,천왕이펜하우스4단지,천왕동 157-1,17-984,과기부WiFi,126.83852,37.481018
구로구,천왕이펜하우스5단지,천왕로 10,17-986,과기부WiFi,126.840614,37.479767
구로구,천왕이펜하우스6단지,천왕동 99,17-985,과기부WiFi,126.84067,37.479378
금천구,금천패션아울렛사거리.W몰,디지털로 188,18-114,과기부WiFi,126.88788,37.47766
금천구,가산동주민센터.금천글로벌센터,가산동 144-7,18-120,과기부WiFi,126.8921,37.476612
금천구,구로세관,가산동 356-5,18-998,과기부WiFi,126.88494,37.47249
금천구,구립가산도서관.두산위브아파트,가산동 7710,18-122,과기부WiFi,126.89394,37.47447
금천구,금빛공원앞,금하로 668,18-232,과기부WiFi,126.9043,37.453106
금천구,금천구청.금천경찰서,시흥대로,18-007,과기부WiFi,126.89887,37.45921
금천구,금천구청.금천경찰서,시흥대로,18-008,과기부WiFi,126.89909,37.457726
금천구,금천우체국,시흥대로,18-003,과기부WiFi,126.89809,37.469135
금천구,금천우체국,시흥대로,18-004,과기부WiFi,126.898,37.470135
금천구,금천폭포공원.천주교시흥성당,시흥동 936-4,18-165,과기부WiFi,126.90352,37.447712
금천구,기아대교,시흥동 982-6,18-168,과기부WiFi,126.902985,37.439487
금천구,남서울힐스테이트.국립전통예술고,시흥동 985-12,18-164,과기부WiFi,126.90328,37.446728
금천구,독산3치안센터.꿈꾸는나무,서울 금천구 독산동 889,18-202,과기부WiFi,126.90733,37.476536
금천구,독산고개,독산동 146-14,18-146,과기부WiFi,126.898315,37.475666
금천구,독산고등학교,독산동 906-41학,18-199,과기부WiFi,126.91112,37.47725
금천구,독산고등학교,독산동 906-45,18-200,과기부WiFi,126.91161,37.477085
금천구,독산사거리,독산동 296-8,18-124,과기부WiFi,126.895905,37.4719
금천구,독산사거리앞,독산동 152-3,18-148,과기부WiFi,126.898026,37.472424
금천구,독산역,가산동 691-3,18-643,과기부WiFi,126.88765,37.46631
금천구,독산초등학교,독산동 1035-1,18-187,과기부WiFi,126.90003,37.466312
금천구,디지털3단지.월드벤처센터,가산디지털2로 123,18-108,과기부WiFi,126.87931,37.478973
금천구,디지털3단지사거리,가산디지털2로 98,18-110,과기부WiFi,126.88058,37.476673
금천구,마리오아울렛,가산동 60-20장,18-207,과기부WiFi,126.884384,37.478546
금천구,말미고개,시흥대로,18-005,과기부WiFi,126.897766,37.464176
금천구,말미고개,시흥대로,18-006,과기부WiFi,126.897285,37.46473
금천구,문성초등학교,시흥대로,18-001,과기부WiFi,126.89867,37.475365
금천구,문성초등학교,시흥대로,18-002,과기부WiFi,126.89833,37.474033
금천구,박미마을,시흥동 983-3,18-166,과기부WiFi,126.903175,37.4415
금천구,박미삼거리.국립전통예술중고,시흥대로,18-011,과기부WiFi,126.903275,37.44784
금천구,박미삼거리.국립전통예술중고,시흥대로,18-012,과기부WiFi,126.902664,37.449066
금천구,벽산아파트1단지.호압사입구,시흥동 1010-8,18-136,과기부WiFi,126.92076,37.45276
금천구,벽산아파트5단지,시흥동 산 91-12임,18-139,과기부WiFi,126.918785,37.446247
금천구,석수역,시흥동 967,18-170,과기부WiFi,126.90331,37.435524
금천구,시흥사거리,시흥대로,18-009,과기부WiFi,126.90141,37.45252
금천구,시흥사거리,시흥대로,18-010,과기부WiFi,126.9011,37.452923
금천구,시흥사거리.금천파출소,시흥동 995,18-135,과기부WiFi,126.89969,37.454296
금천구,시흥유통센터,시흥대로,18-013,과기부WiFi,126.90346,37.440258
금천구,시흥유통센터,시흥대로,18-014,과기부WiFi,126.90313,37.440823
금천구,제일모직아울렛,가산동 60-49장,18-205,과기부WiFi,126.886055,37.474712
금천구,제일모직아울렛,디지털로9길 68,18-212,과기부WiFi,126.88591,37.474277
금천구,진도아파트,독산동 302-10,18-204,과기부WiFi,126.892426,37.470417
금천구,진도아파트,독산동 1133,18-213,과기부WiFi,126.89232,37.4702
금천구,한울중학교,시흥동 산138-3,18-740,과기부WiFi,126.907745,37.462612
금천구,현대지식산업센터,두산로 66,18-214,과기부WiFi,126.89572,37.469765
금천구,홈플러스금천점,시흥대로 396,18-153,과기부WiFi,126.89818,37.468594
노원구,경춘선숲길.화랑대역공원,공릉2 121-3,11-143,과기부WiFi,127.09026,37.623535
노원구,골마을근린공원,하계동251-8,11-434,과기부WiFi,127.07442,37.638367
노원구,공릉대동2차아파트,공릉동380-4,11-165,과기부WiFi,127.07084,37.626896
노원구,공릉시장,공릉동567-4,11-101,과기부WiFi,127.07418,37.62274
노원구,공릉시장,공릉동 568-27,11-102,과기부WiFi,127.07362,37.623116
노원구,공릉역1번출구,공릉동 375-4,11-161,과기부WiFi,127.072784,37.62658
노원구,공릉역4번출구,공릉동 379-27,11-162,과기부WiFi,127.07242,37.626358
노원구,광운대학교,월계동466,11-335,과기부WiFi,127.05814,37.619843
노원구,노원고등학교,상계동820,11-181,과기부WiFi,127.054535,37.66132
노원구,노원문화예술회관.불암초등학교,중계동364-5,11-403,과기부WiFi,127.08092,37.650047
노원구,노원문화원,공릉동 312-3,11-166,과기부WiFi,127.06995,37.628376
노원구,노원문화원,공릉동727,11-167,과기부WiFi,127.06983,37.628613
노원구,대림벽산아파트,중계동363,11-415,과기부WiFi,127.07678,37.6473
노원구,대진고등학교,하계동 252-7,11-433,과기부WiFi,127.07365,37.637936
노원구,롯데우성아파트,중계1동 361-1,11-355,과기부WiFi,127.074,37.647476
노원구,삼육대앞,공릉동26-34,11-154,과기부WiFi,127.10844,37.638416
노원구,삼육대앞,공릉2 26-19학,11-155,과기부WiFi,127.1083,37.63878
노원구,삼익선경아파트후문.시립과학관,하계동255-1,11-421,과기부WiFi,127.07615,37.639378
노원구,상계10동우체국,상계10동 676,11-189,과기부WiFi,127.06282,37.660732
노원구,상계119안전센터,상계동440-9,11-219,과기부WiFi,127.07178,37.6539
노원구,상계동주유소,상계동1284,11-220,과기부WiFi,127.071625,37.65752
노원구,상계주공10단지,상계동666,11-269,과기부WiFi,127.05822,37.662144
노원구,상계주공14단지,상계동626,11-272,과기부WiFi,127.05683,37.6691
노원구,상계주공7단지.광림교회앞,상계10동 691,11-188,과기부WiFi,127.06278,37.660496
노원구,상계중학교정문,상계동195-5,11-215,과기부WiFi,127.06818,37.652454
노원구,상명고등학교,중계2 515학,11-379,과기부WiFi,127.06907,37.649483
노원구,상명고등학교.성원아파트,중계동421-67,11-347,과기부WiFi,127.06923,37.649776
노원구,서울과학기술대앞,공릉2 172-1학,11-418,과기부WiFi,127.07608,37.630558
노원구,서울과학기술대입구,공릉동 362-3,11-159,과기부WiFi,127.0718,37.628475
노원구,서울아이티고등학교,중계동504,11-370,과기부WiFi,127.06252,37.642376
노원구,서울아이티고등학교,중계동503,11-371,과기부WiFi,127.0631,37.641697
노원구,서울여대.육군사관학교행정안내소,공릉동29-59,11-144,과기부WiFi,127.09497,37.626007
노원구,수락리버시티3.4단지,상계동1197-3,11-503,과기부WiFi,127.052605,37.68718
노원구,수락리버시티아파트,상계동 1311-3,11-203,과기부WiFi,127.05565,37.68901
노원구,수락중고등학교,상계1 1254,11-204,과기부WiFi,127.05527,37.68284
노원구,수락중고등학교,상계1 1264,11-205,과기부WiFi,127.055664,37.682896
노원구,신창중학교후문,월계동805-5,11-299,과기부WiFi,127.047485,37.627644
노원구,양지근린공원,중계1동 362,11-350,과기부WiFi,127.07641,37.647236
노원구,영신여자고등학교입구,중계동579,11-404,과기부WiFi,127.08106,37.649284
노원구,예수사랑교회,공릉2 112,11-158,과기부WiFi,127.08718,37.622303
노원구,온곡중학교노원정보도서관,상계9 687학,11-192,과기부WiFi,127.06453,37.659588
노원구,용동초등학교,중계동511-1,11-382,과기부WiFi,127.06913,37.642117
노원구,용원초등학교,공릉동709,11-168,과기부WiFi,127.06863,37.628742
노원구,우방아파트,공릉동109-1,11-135,과기부WiFi,127.08604,37.626095
노원구,월계미륭아파트,월계3 2-4전,11-319,과기부WiFi,127.06863,37.623383
노원구,월계미성아파트,월계3 3-3,11-464,과기부WiFi,127.06916,37.621468
노원구,월계삼호4차아파트,월계동195-16,11-323,과기부WiFi,127.06598,37.626663
노원구,월계삼호아파트,월계3 194-4,11-321,과기부WiFi,127.06753,37.62532
노원구,월계현대아파트,월계1 82-1철,11-280,과기부WiFi,127.06348,37.619656
노원구,월계현대아파트,월계1 435-2,11-281,과기부WiFi,127.06329,37.619484
노원구,은빛아파트2단지,상계1 1258,11-206,과기부WiFi,127.055275,37.68021
노원구,중계1동신안아파트,중계1 590,11-458,과기부WiFi,127.0724,37.651253
노원구,중계3단지목련아파트,중계동514-3,11-378,과기부WiFi,127.06797,37.6475
노원구,중계건영2차아파트,중계동515-2,11-375,과기부WiFi,127.0654,37.646095
노원구,중계목화아파트4단지,중계동511-2,11-381,과기부WiFi,127.0714,37.64353
노원구,중계주공4단지,중계동산45,11-397,과기부WiFi,127.07837,37.654156
노원구,중계주공5단지514동,중계1동 377,11-364,과기부WiFi,127.074936,37.65081
노원구,중계주공9단지후문,하계동9-6,11-419,과기부WiFi,127.07661,37.64355
노원구,중계주공9단지후문,하계동 256-2,11-420,과기부WiFi,127.07625,37.643547
노원구,중앙하이츠2차아파트,상계2 1282,11-214,과기부WiFi,127.06762,37.654358
노원구,중평초등학교,하계동270,11-451,과기부WiFi,127.065506,37.63629
노원구,청솔아파트,공릉동91-2,11-138,과기부WiFi,127.08648,37.623135
노원구,태릉국제사격장,공릉2 25-6(육사체육관),11-146,과기부WiFi,127.096275,37.627647
노원구,태릉선수촌,공릉2 산223,11-150,과기부WiFi,127.10327,37.6333
노원구,태릉입구역3번출구,공릉동 615-22,11-104,과기부WiFi,127.074844,37.619427
노원구,태릉입구역4번출구,공릉동 617-2,11-103,과기부WiFi,127.0752,37.61959
노원구,태릉입구역7번출구,공릉동678-2,11-117,과기부WiFi,127.0765,37.6178
노원구,하계1치안센터,하계1 141-2,11-469,과기부WiFi,127.072464,37.632954
노원구,하계1치안센터,하계동274,11-470,과기부WiFi,127.072266,37.63295
노원구,하계시영아파트,하계동272,11-453,과기부WiFi,127.06557,37.633984
노원구,하계현대아파트,하계동288,11-442,과기부WiFi,127.07115,37.64496
노원구,한국스포츠정책과학원,공릉동25-64,11-153,과기부WiFi,127.10548,37.635292
노원구,한성여객종점,하계1 282,11-429,과기부WiFi,127.070816,37.63727
노원구,한진한화그랑빌아파트,월계3동 18-5,11-312,과기부WiFi,127.06923,37.615807
노원구,한천중학교,공릉2동 481학,11-446,과기부WiFi,127.07344,37.630943
노원구,한천초등학교,월계동1-1,11-315,과기부WiFi,127.06997,37.619987
노원구,홈플러스중계점,중계동509-1,11-386,과기부WiFi,127.06863,37.640724
노원구,홍파복지원미주아파트,상계1 1267,11-207,과기부WiFi,127.05565,37.679832
노원구,화랑대사거리,공릉동742-2,11-140,과기부WiFi,127.08837,37.62185
노원구,화랑대사거리,공릉동94-1,11-141,과기부WiFi,127.08836,37.622166
노원구,효성화운트빌원자력병원후문,공릉동산209,11-134,과기부WiFi,127.08512,37.62746
노원구,흥안운수종점,상계동75-7,11-225,과기부WiFi,127.08072,37.66983
도봉구,도봉구민회관,도봉로,10-013,과기부WiFi,127.03817,37.65456
도봉구,도봉구민회관,도봉로,10-014,과기부WiFi,127.03798,37.65397
도봉구,도봉구청,방학동 720,10-133,과기부WiFi,127.04633,37.668957
도봉구,도봉보건소,도봉로,10-011,과기부WiFi,127.040764,37.658936
도봉구,도봉보건소.북한산아이파크아파트,도봉로,10-012,과기부WiFi,127.04052,37.658203
도봉구,도봉산역,도봉로,10-001,과기부WiFi,127.04543,37.689194
도봉구,도봉산역,도봉로,10-002,과기부WiFi,127.045815,37.68857
도봉구,도봉소방서.방학남부역,도봉로,10-009,과기부WiFi,127.042984,37.666332
도봉구,도봉소방서.방학남부역,도봉로,10-010,과기부WiFi,127.04305,37.665676
도봉구,도봉역,도봉동 89-160,10-156,과기부WiFi,127.046524,37.68031
도봉구,도봉한신아파트,도봉로,10-003,과기부WiFi,127.045944,37.68405
도봉구,도봉한신아파트,도봉로,10-004,과기부WiFi,127.04607,37.68267
도봉구,방학동신동아아파트,방학2동 668-7,10-190,과기부WiFi,127.03202,37.66236
도봉구,방학사거리,방학동 678,10-116,과기부WiFi,127.04211,37.662216
도봉구,서울북부지방법원.검찰청.도봉역성황당,도봉로,10-005,과기부WiFi,127.04492,37.677776
도봉구,서울북부지방법원.검찰청.도봉역성황당,도봉로,10-006,과기부WiFi,127.045105,37.67726
도봉구,신도봉사거리,도봉로,10-007,과기부WiFi,127.04414,37.67329
도봉구,신도봉사거리,도봉로,10-008,과기부WiFi,127.044334,37.67275
도봉구,신도봉시장.도봉구청.방학북부역,도봉로,10-019,과기부WiFi,127.04358,37.67
도봉구,신도봉시장.도봉구청.방학북부역,도봉로,10-020,과기부WiFi,127.043755,37.669197
도봉구,쌍문역,도봉로,10-015,과기부WiFi,127.03477,37.64882
도봉구,쌍문역,도봉로,10-016,과기부WiFi,127.03446,37.64807
도봉구,우이1교앞,도봉로,10-017,과기부WiFi,127.03265,37.645294
도봉구,우이1교앞,도봉로,10-018,과기부WiFi,127.03242,37.644653
도봉구,창동농협물류센터,마들로11길 20,10-335,과기부WiFi,127.05007,37.654816
도봉구,함석헌기념관.정의여중고,쌍문동 83-3,10-120,과기부WiFi,127.03659,37.652184
동대문구,한국산업인력공단서울지역본부,휘경동 49-15,06-308,과기부WiFi,127.07284,37.583805
동대문구,구민회관앞,장안동 356,06-262,과기부WiFi,127.074066,37.56657
동대문구,국민은행장안동지점,장안동330-3,06-235,과기부WiFi,127.073364,37.57231
동대문구,답십리2동한양아파트앞,답십리동41,06-227,과기부WiFi,127.06141,37.57267
동대문구,답십리2동한양아파트앞,답십리동산12-17,06-228,과기부WiFi,127.06123,37.57291
동대문구,답십리역사거리,천호대로,06-001,과기부WiFi,127.05506,37.565186
동대문구,답십리종합상가,답십리동246-23,06-224,과기부WiFi,127.05671,37.57273
동대문구,답십리래미안미드카운티,답십리동237-12,06-223,과기부WiFi,127.05556,37.57298
동대문구,동경호텔앞,장안동364-3,06-247,과기부WiFi,127.069374,37.568443
동대문구,동답한신.대림아파트동대문체육관,답십리동 2-294,06-229,과기부WiFi,127.06377,37.572662
동대문구,동대문구청,천호대로,06-006,과기부WiFi,127.03832,37.57406
동대문구,동대문구청,천호대로,06-017,과기부WiFi,127.039986,37.57346
동대문구,답십리1동주민센터.래미안위브,답십리동 1005,06-203,과기부WiFi,127.05132,37.572216
동대문구,동대문중학교,전동동 307-7,06-204,과기부WiFi,127.05361,37.574852
동대문구,동일스위트리버앞.휘봉고교,휘경동366,06-417,과기부WiFi,127.06766,37.58718
동대문구,떡전교사거리.동대문노인복지관,왕산로,06-014,과기부WiFi,127.05211,37.5865
동대문구,배봉초등학교.전농우성아파트,전농동 3-92,06-211,과기부WiFi,127.06741,37.57844
동대문구,북한연구소앞,장안동 433-3,06-250,과기부WiFi,127.06615,37.563465
동대문구,삼육서울병원,망우로,06-011,과기부WiFi,127.06069,37.589653
동대문구,삼육서울병원,망우로,06-012,과기부WiFi,127.062065,37.58996
동대문구,삼육서울병원,휘경동 267-8,06-118,과기부WiFi,127.0605,37.58973
동대문구,새서울병원,장안동309-10,06-242,과기부WiFi,127.07201,37.5731
동대문구,서울준법지원센터.동성빌라,휘경동 43-200,06-140,과기부WiFi,127.06739,37.585556
동대문구,서울시동부병원,천호대로,06-007,과기부WiFi,127.03095,37.57393
동대문구,서울준법지원센터.동성빌라,휘경동 43-265,06-141,과기부WiFi,127.06767,37.58568
동대문구,청량리역6번출구,전농동 622-1,06-216,과기부WiFi,127.043205,37.578564
동대문구,세종대왕기념관,청량리동205-11,06-278,과기부WiFi,127.04238,37.589855
동대문구,시조사삼거리,망우로,06-013,과기부WiFi,127.056885,37.588707
동대문구,신답초등학교.청계한신휴플러스,천호대로,06-004,과기부WiFi,127.04429,37.571754
동대문구,신답초등학교.청계한신휴플러스,천호대로,06-005,과기부WiFi,127.04473,37.571754
동대문구,신설동역,왕산로,06-027,과기부WiFi,127.02505,37.57615
동대문구,신설동역,왕산로,06-028,과기부WiFi,127.02384,37.57583
동대문구,신설동역.서울풍물시장,천호대로,06-008,과기부WiFi,127.02572,37.57443
동대문구,영휘원사거리.(구)홍릉사거리,청량리동522,06-280,과기부WiFi,127.043175,37.586002
동대문구,용두동사거리.한국의류시험연구원,왕산로,06-026,과기부WiFi,127.02839,37.577145
동대문구,우리은행장안지점앞,장안동 376-3,06-248,과기부WiFi,127.067726,37.566395
동대문구,우산빌딩앞,휘경동 336-32,06-321,과기부WiFi,127.05468,37.588882
동대문구,이문동삼익아파트,휘경동 120-2,06-134,과기부WiFi,127.068214,37.594547
동대문구,이문동현대아파트,이문동 50,06-255,과기부WiFi,127.070984,37.60086
동대문구,장안1파출소,장안동143-40,06-232,과기부WiFi,127.068306,37.5725
동대문구,장안1파출소,장안동143-36,06-233,과기부WiFi,127.06797,37.57272
동대문구,장안교앞,장안동284-1,06-214,과기부WiFi,127.07412,37.57962
동대문구,장안동근린공원,장안동300,06-237,과기부WiFi,127.07195,37.577324
동대문구,장안동삼성쉐르빌아파트앞,장안동 470-2,06-356,과기부WiFi,127.07021,37.572308
동대문구,장안삼성래미안2차아파트,장안동329-3,06-259,과기부WiFi,127.07662,37.57468
동대문구,장안삼성래미안2차아파트.성복교회,장안동329-3,06-260,과기부WiFi,127.07682,37.573044
동대문구,장한평역,천호대로,06-003,과기부WiFi,127.06728,37.56115
동대문구,제기동역.서울약령시,왕산로,06-023,과기부WiFi,127.03762,37.57814
동대문구,제기동역.서울약령시,왕산로,06-024,과기부WiFi,127.03533,37.578197
동대문구,용두동사거리,왕산로,06-025,과기부WiFi,127.02999,37.577534
동대문구,제기동한신아파트앞,제기동 122-652,06-172,과기부WiFi,127.03789,37.587605
동대문구,제기역약령시장,용두동788,06-106,과기부WiFi,127.03672,37.578
동대문구,중랑교,망우로,06-009,과기부WiFi,127.0677,37.5917
동대문구,중랑교,망우로,06-010,과기부WiFi,127.066925,37.591366
동대문구,청계한신휴플러스,답십리동 1002,06-507,과기부WiFi,127.04488,37.571793
동대문구,청년회의소,천호대로,06-002,과기부WiFi,127.06129,37.561966
동대문구,청량리.청과물도매시장,왕산로,06-022,과기부WiFi,127.04071,37.57878
동대문구,청량리미주아파트.동대문세무서,왕산로,06-021,과기부WiFi,127.04839,37.58278
동대문구,청량리한신아파트,청량리1동 57-5,06-349,과기부WiFi,127.047646,37.58636
동대문구,촬영소사거리,장안동 545,06-148,과기부WiFi,127.06692,37.57351
동대문구,촬영소사거리.세양청마루아파트앞,답십리동997,06-231,과기부WiFi,127.065445,37.572872
동대문구,풍안시장.동답초교,장안동 150-12,06-149,과기부WiFi,127.06549,37.57104
동대문구,하나은행장안동지점,장안동 413-1,06-154,과기부WiFi,127.05847,37.56336
동대문구,한천로쌍용아파트앞,이문동64,06-133,과기부WiFi,127.06789,37.598663
동대문구,홍파초등학교,제기동 714,06-171,과기부WiFi,127.03834,37.585598
동대문구,휘경공고휘경주공아파트,휘경동 49-324,06-309,과기부WiFi,127.069466,37.58415
동대문구,휘경미소지움아파트,휘경동42-23,06-422,과기부WiFi,127.06457,37.590927
동대문구,휘경여중고휘경주공아파트,전농동 1-196,06-143,과기부WiFi,127.06854,37.582157
동대문구,휘경유수지견인차고지앞,휘경동 43-259,06-137,과기부WiFi,127.06858,37.58842
동대문구,휘봉초등학교,휘경동 49-388,06-419,과기부WiFi,127.069824,37.58777
동작구,강남중학교,대방동 390-6,20-006,과기부WiFi,126.9219,37.503788
동작구,갯마을앞,동작대로,20-015,과기부WiFi,126.98341,37.497456
동작구,경문고교.배나무골앞,동작대로,20-017,과기부WiFi,126.98262,37.49154
동작구,노들역,노량진로,20-013,과기부WiFi,126.94926,37.512825
동작구,노들역,노량진로,20-014,과기부WiFi,126.950966,37.512733
동작구,노량진수산시장.CTS기독교TV,노량진동 4-1,20-009,과기부WiFi,126.93845,37.513424
동작구,노량진수산시장.CTS기독교TV,노량진로,20-010,과기부WiFi,126.938866,37.51348
동작구,노량진역,노량진제1동 67-2,20-011,과기부WiFi,126.94381,37.513733
동작구,노량진역,노량진로,20-012,과기부WiFi,126.94471,37.513832
동작구,동작세무서,신대방동 377-5,20-005,과기부WiFi,126.9202,37.498142
동작구,방배노인종합복지관,동작대로,20-020,과기부WiFi,126.98181,37.48068
동작구,보라매공원,신대방동 500-8,20-004,과기부WiFi,126.91632,37.49681
동작구,사당동우체국앞,동작대로,20-019,과기부WiFi,126.98195,37.483227
동작구,사당중학교,사당로 174,20-176,과기부WiFi,126.96802,37.486427
동작구,사육신공원,노량진로 192,20-119,과기부WiFi,126.947975,37.513313
동작구,상도SH빌아파트상도팰리스후문,상도로47가길 40,20-242,과기부WiFi,126.95429,37.503143
동작구,상도터널노량진동,노량진로 250,20-156,과기부WiFi,126.95433,37.512127
동작구,신대방경남아파트,대림동 980-1,20-002,과기부WiFi,126.90777,37.4903
동작구,동작상떼빌아파트,신대방동 699-3,20-001,과기부WiFi,126.90445,37.48645
동작구,신대방현대아파트,신대방동 492-26,20-003,과기부WiFi,126.91158,37.495358
동작구,정금마을.방배경찰서,동작대로,20-016,과기부WiFi,126.982735,37.494102
동작구,중앙대후문,흑석동 221-5,20-202,과기부WiFi,126.953636,37.504807
동작구,총신대,사당3 200 1학,20-174,과기부WiFi,126.96618,37.488743
동작구,총신대입구역.남성시장입구앞,동작대로,20-018,과기부WiFi,126.98222,37.488216
동작구,현대아파트,노량진로,20-007,과기부WiFi,126.931435,37.513172
동작구,현대아파트.유한양행,대방동 502,20-008,과기부WiFi,126.93237,37.513237
마포구,DMC첨단산업센터,상암동 857-2,14-112,과기부WiFi,126.88479,37.585598
마포구,공덕역,마포대로,14-003,과기부WiFi,126.950905,37.543606
마포구,공덕역,마포대로,14-004,과기부WiFi,126.951355,37.544502
마포구,공덕역,백범로 192,14-153,과기부WiFi,126.95143,37.54348
마포구,공덕오거리,백범로 199,14-149,과기부WiFi,126.95316,37.54307
마포구,기업은행서교동지점(최규하대통령가옥),월드컵로 62,14-248,과기부WiFi,126.91146,37.55479
마포구,마포경찰서,마포대로,14-007,과기부WiFi,126.955215,37.5502
마포구,마포경찰서,마포대로,14-008,과기부WiFi,126.95531,37.55077
마포구,마포구청역,성산동 342-1,14-195,과기부WiFi,126.90223,37.562244
마포구,마포역,마포대로,14-001,과기부WiFi,126.94796,37.5409
마포구,마포역,마포대로,14-002,과기부WiFi,126.946785,37.540276
마포구,마포역,마포대로 33,14-132,과기부WiFi,126.94574,37.539707
마포구,마포중앙도서관,성산동 191-33,14-196,과기부WiFi,126.90673,37.563675
마포구,서강대학교,백범로 35,14-170,과기부WiFi,126.93797,37.5511
마포구,서강대학교후문,대흥동 45-4,14-212,과기부WiFi,126.94395,37.550495
마포구,서강해모로아파트,토정로 167,14-312,과기부WiFi,126.9295,37.545685
마포구,서부면허시험장,상암동 1542-4,14-109,과기부WiFi,126.88044,37.57788
마포구,서부면허시험장,상암동 478-13,14-110,과기부WiFi,126.88024,37.5774
마포구,성산2교,성산동 52-13,14-186,과기부WiFi,126.91321,37.56386
마포구,성산아파트,월드컵북로 235,14-163,과기부WiFi,126.90153,37.57126
마포구,마포중앙도서관,성산동 196-2,14-197,과기부WiFi,126.907455,37.564255
마포구,신촌로터리,서강로 138,14-205,과기부WiFi,126.935684,37.55405
마포구,아현동주민센터,마포대로,14-005,과기부WiFi,126.9529,37.546364
마포구,아현동주민센터,마포대로,14-006,과기부WiFi,126.95324,37.547077
마포구,아현초등학교,마포대로,14-009,과기부WiFi,126.9571,37.554077
마포구,아현초등학교,마포대로,14-010,과기부WiFi,126.95734,37.554897
마포구,용강동주민센터,용강동 116-4,14-241,과기부WiFi,126.94118,37.54171
마포구,용마루고개.브라운스톤공덕아파트,백범로 250,14-336,과기부WiFi,126.95705,37.540993
마포구,월드컵경기장남측.월드컵공원,성산동 534-11,14-104,과기부WiFi,126.89619,37.566723
마포구,월드컵경기장북측,성산동 산53-32,14-273,과기부WiFi,126.89932,37.572803
마포구,월드컵경기장북측,월드컵북로 295,14-316,과기부WiFi,126.89808,37.573483
마포구,월드컵경기장서측.문화비축기지,성산동 664,14-105,과기부WiFi,126.89547,37.569237
마포구,월드컵경기장서측.문화비축기지,성산동 661,14-106,과기부WiFi,126.894966,37.5695
마포구,월드컵공원입구.문화비축기지입구,성산동 산53-8,14-115,과기부WiFi,126.892746,37.568523
마포구,월드컵공원입구.문화비축기지입구,성산동 665-1,14-332,과기부WiFi,126.892746,37.568176
마포구,월드컵아이파크,모래내로9길 3,14-352,과기부WiFi,126.91349,37.56663
마포구,월드컵파크11.12단지,상암동 580,14-339,과기부WiFi,126.8809,37.58627
마포구,월드컵파크3단지.난지천공원,상암동 1645,14-107,과기부WiFi,126.88809,37.57333
마포구,월드컵파크3단지.난지천공원,상암동 1731-9,14-108,과기부WiFi,126.88813,37.572525
마포구,월드컵파크3단지정문,상암동 1718-4,14-116,과기부WiFi,126.88923,37.573822
마포구,월드컵파크3단지후문,상암동 49,14-292,과기부WiFi,126.88976,37.571243
마포구,월드컵파크4단지후문.JTBC,상암동 1651,14-295,과기부WiFi,126.89007,37.577385
마포구,월드컵파크7단지,성산동 1669,14-271,과기부WiFi,126.87842,37.58115
마포구,월드컵파크9.10.11.12단지,상암동 643,14-334,과기부WiFi,126.87883,37.58533
마포구,월드컵파크9.10.11.12단지,상암동 663-1,14-335,과기부WiFi,126.87982,37.584427
마포구,하늘초등학교,상암동 636,14-337,과기부WiFi,126.87966,37.585323
마포구,한강밤섬자이아파트,하중동 23-19,14-311,과기부WiFi,126.92773,37.545547
서대문구,DMC래미안e.편한세상요진아파트,수색로,13-003,과기부WiFi,126.90961,37.57168
서대문구,DMC래미안e.편한세상요진아파트,수색로,13-004,과기부WiFi,126.91032,37.571575
서대문구,DMC래미안e-편한세상3단지,북가좌동 386-1        북가좌동 386-1        ,13-331,과기부WiFi,126.90706,37.575047
서대문구,경찰청.동북아역사재단,통일로,13-039,과기부WiFi,126.96922,37.562477
서대문구,독립문공원.극동아파트,현저동 900,13-270,과기부WiFi,126.95932,37.571854
서대문구,독립문역.한성과학고,통일로,13-034,과기부WiFi,126.95758,37.574688
서대문구,독립문역.한성과학고,통일로,13-035,과기부WiFi,126.95642,37.575706
서대문구,모래내시장.가좌역,수색로,13-005,과기부WiFi,126.91506,37.569077
서대문구,모래내시장.가좌역,수색로,13-006,과기부WiFi,126.91379,37.569862
서대문구,무악재역,통일로,13-031,과기부WiFi,126.94981,37.583153
서대문구,무악재역,통일로,13-032,과기부WiFi,126.95065,37.581863
서대문구,북가좌동삼거리,수색로,13-001,과기부WiFi,126.904526,37.575447
서대문구,북가좌동삼거리,수색로,13-002,과기부WiFi,126.90514,37.57514
서대문구,북가좌초교사거리,응암로 58,13-264,과기부WiFi,126.91033,37.578365
서대문구,DMC한양아파트,응암로 32,13-241,과기부WiFi,126.90833,37.576286
서대문구,사천교,성산로,13-007,과기부WiFi,126.918144,37.567516
서대문구,산골고개,통일로,13-026,과기부WiFi,126.939995,37.595303
서대문구,산골고개,통일로,13-027,과기부WiFi,126.94067,37.594692
서대문구,서대문역,통일로,13-038,과기부WiFi,126.96583,37.566475
서대문구,서대문역사거리,통일로,13-047,과기부WiFi,126.96657,37.56558
서대문구,서대문우체국,성산로,13-010,과기부WiFi,126.932045,37.56177
서대문구,서대문우체국,성산로,13-011,과기부WiFi,126.931465,37.562534
서대문구,서대문종합사회복지관,모래내로 177,13-260,과기부WiFi,126.92002,37.57126
서대문구,서대문종합사회복지관,연희동 530-2,13-261,과기부WiFi,126.92014,37.570965
서대문구,세브란스병원앞,성산로,13-014,과기부WiFi,126.93845,37.559967
서대문구,세브란스병원앞,성산로,13-015,과기부WiFi,126.93893,37.56013
서대문구,신촌오거리.2호선신촌역,신촌로,13-023,과기부WiFi,126.93898,37.55579
서대문구,신촌오거리.2호선신촌역,신촌로,14-063,과기부WiFi,126.94015,37.556065
서대문구,안산초등학교,통일로,13-033,과기부WiFi,126.95157,37.580685
서대문구,연가교,연희동 527-19,13-204,과기부WiFi,126.92218,37.572563
서대문구,연가교,모래내로 193,13-256,과기부WiFi,126.92179,37.57252
서대문구,연가초교삼성아파트앞,증가로 191,13-232,과기부WiFi,126.9173,37.57912
서대문구,연세대앞,성산로,13-012,과기부WiFi,126.9357,37.559937
서대문구,연세대앞,성산로,13-013,과기부WiFi,126.9355,37.560158
서대문구,연희104고지앞.구성산회관,성산로,13-008,과기부WiFi,126.92507,37.566242
서대문구,연희104고지앞.구성산회관,성산로,13-009,과기부WiFi,126.92579,37.566357
서대문구,영천시장,통일로,13-036,과기부WiFi,126.96253,37.56994
서대문구,영천시장,통일로,13-037,과기부WiFi,126.963005,37.56961
서대문구,유원하나아파트,홍제동 454-1,13-171,과기부WiFi,126.95213,37.59576
서대문구,이대부고,성산로 520,13-120,과기부WiFi,126.946,37.564827
서대문구,이대부중,성산로 508,13-118,과기부WiFi,126.94299,37.562218
서대문구,이대역,신촌로,14-064,과기부WiFi,126.944595,37.556614
서대문구,이대후문,성산로,13-016,과기부WiFi,126.9433,37.5626
서대문구,이대후문,성산로,13-017,과기부WiFi,126.94365,37.563065
서대문구,인왕산.홍제원아파트,통일로,13-040,과기부WiFi,126.94886,37.584396
서대문구,정원여중,홍은동 산11-46,13-160,과기부WiFi,126.93499,37.58625
서대문구,충정로역,마포대로,13-045,과기부WiFi,126.96349,37.561058
서대문구,충정로역,마포대로,13-046,과기부WiFi,126.9627,37.560024
서대문구,홍남교,모래내로 261,13-203,과기부WiFi,126.9275,37.57664
서대문구,홍남교백련시장입구,모래내로 235,13-262,과기부WiFi,126.925186,37.575287
서대문구,홍제삼거리.인왕산한신휴플러스,통일로,13-030,과기부WiFi,126.947845,37.58521
서대문구,홍제역,통일로,13-028,과기부WiFi,126.94437,37.58849
서대문구,홍제역,통일로,13-029,과기부WiFi,126.94532,37.587845
서대문구,홍지문,홍제동 3-1,13-173,과기부WiFi,126.95626,37.59691
서대문구,홍지문.옥천암,홍제동 4-5,13-172,과기부WiFi,126.95659,37.596573
서초구,LH서초아파트,우면동 379-3,22-607,과기부WiFi,127.02536,37.46001
서초구,경문고등학교,동작대로,22-031,과기부WiFi,126.98274,37.490437
서초구,고속터미널,신반포로,22-019,과기부WiFi,127.00529,37.506294
서초구,고속터미널,신반포로,22-020,과기부WiFi,127.00379,37.505737
서초구,교육개발원입구,강남대로,22-001,과기부WiFi,127.03848,37.47859
서초구,교육개발원입구,강남대로,22-002,과기부WiFi,127.03876,37.477818
서초구,구룡사,논현로 35,22-304,과기부WiFi,127.048134,37.474022
서초구,구룡사앞,양재동 402-10,22-303,과기부WiFi,127.04885,37.47021
서초구,구룡사입구,논현로 7,22-305,과기부WiFi,127.050125,37.47209
서초구,구반포역,신반포로,22-023,과기부WiFi,126.99003,37.501945
서초구,구반포역.심산문화센터,신반포로,22-024,과기부WiFi,126.9889,37.50164
서초구,대항병원.연세사랑병원,남부순환로 2145,22-257,과기부WiFi,126.98711,37.475643
서초구,대항병원.연세사랑병원,방배동 산102-8,22-258,과기부WiFi,126.98676,37.475388
서초구,동원산업앞,양재동 276-14,22-306,과기부WiFi,127.045395,37.476646
서초구,래미안에스티지,서운로 107,22-118,과기부WiFi,127.02619,37.4926
서초구,래미안에스티지에스,사임당로 157,22-117,과기부WiFi,127.026146,37.493217
서초구,롯데칠성,서운로 122,22-115,과기부WiFi,127.02522,37.49508
서초구,반포미도아파트앞,서초중앙로 227,22-218,과기부WiFi,127.01158,37.5017
서초구,반포역,신반포로,22-017,과기부WiFi,127.01213,37.508343
서초구,반포역,신반포로,22-018,과기부WiFi,127.01104,37.507904
서초구,방배동경남아파트,남부순환로300길 40,22-261,과기부WiFi,127.00166,37.474773
서초구,방배동대우효령아파트앞,효령로 84,22-250,과기부WiFi,126.994316,37.480183
서초구,방배동래미안아트힐.국립국악원,방배동 산26-38,22-262,과기부WiFi,127.006645,37.47716
서초구,방배동래미안타워.동덕여중고,방배동 558-1,22-259,과기부WiFi,126.990654,37.47429
서초구,방배역,효령로 132,22-394,과기부WiFi,126.99824,37.481346
서초구,방배역,방배동 908-8,22-395,과기부WiFi,126.99749,37.48194
서초구,방배열린문화센터(방배4동주민센터),방배로 195,22-269,과기부WiFi,126.99161,37.49062
서초구,방일초교,방배동 901-1,22-390,과기부WiFi,126.995,37.48579
서초구,뱅뱅사거리,강남대로,22-005,과기부WiFi,127.03243,37.487667
서초구,뱅뱅사거리,강남대로,22-006,과기부WiFi,127.0331,37.486652
서초구,사당역,과천대로,22-028,과기부WiFi,126.981804,37.474926
서초구,사당역3번출구,과천대로 946,22-242,과기부WiFi,126.98202,37.47508
서초구,사평역,반포동 30-5,22-196,과기부WiFi,127.01536,37.50394
서초구,서문여고입구,방배중앙로 131,22-263,과기부WiFi,126.98715,37.49024
서초구,서울교통공사,방배동 474-25,22-234,과기부WiFi,126.98617,37.47671
서초구,서울시인재개발원입구,서초동 1423-1,22-110,과기부WiFi,127.02239,37.483055
서초구,서울특별시어린이병원.강동-송파예비군,내곡동 6-129,22-331,과기부WiFi,127.07061,37.456684
서초구,서울특별시어린이병원.강동-송파예비군,내곡동 1-3014,22-332,과기부WiFi,127.07182,37.45759
서초구,서초동진흥아파트,서초대로 385,22-168,과기부WiFi,127.02277,37.49658
서초구,서초호반써밋,우면동 594-16,22-605,과기부WiFi,127.01465,37.457565
서초구,서초포레스타7단지,신원동 202-20,22-403,과기부WiFi,127.055824,37.44732
서초구,서초푸르지오써밋.롯데캐슬클래식,서운로 208,22-164,과기부WiFi,127.02217,37.501476
서초구,서초힐스아파트,우면동 434-1,22-285,과기부WiFi,127.01791,37.45903
서초구,서초힐스아파트,우면동 748,22-347,과기부WiFi,127.01683,37.457787
서초구,성뒤마을.교육연수원,남부순환로 2248,22-260,과기부WiFi,126.99692,37.473324
서초구,식유촌우면성당.서초호반써밋,우면동 611-6,22-287,과기부WiFi,127.01272,37.45744
서초구,식유촌우면성당.서초호반써밋,우면동 613-5,22-288,과기부WiFi,127.0143,37.457237
서초구,신동중학교,잠원로8길 25,22-182,과기부WiFi,127.012825,37.51559
서초구,신반포18차아파트,잠원동 78,22-175,과기부WiFi,127.01381,37.519566
서초구,신반포18차아파트,잠원로 203,22-176,과기부WiFi,127.01431,37.52014
서초구,신반포역,신반포로,22-021,과기부WiFi,126.99583,37.503414
서초구,신반포역,신반포로,22-022,과기부WiFi,126.99445,37.50294
서초구,신분당선강남역,강남대로,22-009,과기부WiFi,127.028404,37.49604
서초구,신분당선강남역,강남대로,22-010,과기부WiFi,127.02911,37.49499
서초구,신사역,강남대로,22-016,과기부WiFi,127.02061,37.512974
서초구,신사역.푸른저축은행,강남대로,22-015,과기부WiFi,127.019936,37.51449
서초구,신사역5번출구,강남대로 617,22-186,과기부WiFi,127.019,37.51698
서초구,양곡도매시장,양재동 222-1,22-300,과기부WiFi,127.03535,37.459972
서초구,양재역.서초문화예술회관,강남대로,22-003,과기부WiFi,127.035904,37.48261
서초구,양재역.서초문화예술회관,강남대로,22-004,과기부WiFi,127.03683,37.481926
서초구,옛골,신원동 69-1,22-324,과기부WiFi,127.07072,37.43071
서초구,우면주공아파트.우면한라아파트,바우뫼로 31,22-279,과기부WiFi,127.02569,37.47071
서초구,코오롱아파트.양재1동주민센터,바우뫼로 53,22-277,과기부WiFi,127.02819,37.472355
서초구,우면코오롱아파트,우면동 17,22-278,과기부WiFi,127.02809,37.47204
서초구,우성아파트,강남대로,22-007,과기부WiFi,127.0304,37.491894
서초구,우성아파트,강남대로,22-008,과기부WiFi,127.03099,37.49109
서초구,우성아파트.양재초등학교,바우뫼로 89,22-275,과기부WiFi,127.03195,37.47454
서초구,이수역,동작대로,22-027,과기부WiFi,126.98207,37.48233
서초구,이수역,서초대로 17,22-393,과기부WiFi,126.98479,37.48579
서초구,일동제약사거리,양재동 20-20,22-292,과기부WiFi,127.03869,37.479496
서초구,잠원성당,잠원로 110,22-206,과기부WiFi,127.006966,37.51347
서초구,잠원성당.아크로리버뷰아파트,잠원로 127,22-205,과기부WiFi,127.00681,37.513752
서초구,잠원한신아파트,잠원로 148,22-174,과기부WiFi,127.010086,37.516502
서초구,남태령역,과천대로,22-026,과기부WiFi,126.98809,37.465694
서초구,정금마을,동작대로,22-033,과기부WiFi,126.98281,37.49325
서초구,지하철2호선강남역,강남대로,22-012,과기부WiFi,127.02637,37.500786
서초구,지하철3호선교대역,서초중앙로 111,22-161,과기부WiFi,127.01382,37.491825
서초구,진흥아파트,서초대로 385,22-165,과기부WiFi,127.023705,37.497723
서초구,청계산입구역,신원동 270-10,22-401,과기부WiFi,127.05414,37.448574
서초구,청계산입구역,청계산로 179,22-402,과기부WiFi,127.0536,37.449448
서초구,총신대입구역.남성시장입구앞,동작대로,22-029,과기부WiFi,126.98233,37.487534
서초구,탑성마을,염곡동 산44-5,22-327,과기부WiFi,127.05641,37.458347
서초구,탑성마을,염곡동 212-25,22-328,과기부WiFi,127.05473,37.45953
서초구,헌인릉.강남서초예비군훈련장,내곡동 1-1706,22-334,과기부WiFi,127.08268,37.461117
서초구,헌인마을.서울농업기술센터,내곡동 산12-441,22-336,과기부WiFi,127.09145,37.463642
서초구,현대빌라.에코맘코리아,바우뫼로 135-3,22-273,과기부WiFi,127.03564,37.47614
성동구,경일초등학교앞,성수동1가656-1961,04-246,과기부WiFi,127.048225,37.541073
성동구,극동아파트,하왕십리동1058,04-275,과기부WiFi,127.02411,37.557964
성동구,금호사거리,금호동2가 금호동1가1200-1,04-152,과기부WiFi,127.02598,37.549465
성동구,금호역,금호동4가1418-22,04-155,과기부WiFi,127.01621,37.54787
성동구,답십리역사거리,천호대로,04-001,과기부WiFi,127.0544,37.56545
성동구,뚝섬서울숲,성수동1가683,04-223,과기부WiFi,127.03624,37.54556
성동구,래미안하이리버아파트,금호동2가 금호동1가1217,04-150,과기부WiFi,127.02542,37.551456
성동구,리버하우스,성수동2-20,04-255,과기부WiFi,127.05069,37.55123
성동구,마장동금호아파트,마장동 395-2,04-124,과기부WiFi,127.04158,37.562157
성동구,마장동주민센터,마장동769-8,04-116,과기부WiFi,127.04457,37.56732
성동구,마장역,마장동772-4,04-271,과기부WiFi,127.04372,37.566772
성동구,상원,성수동1가 656-660,04-187,과기부WiFi,127.045975,37.55136
성동구,상원,성수동656-40,04-188,과기부WiFi,127.04683,37.55171
성동구,성동구민종합체육센타,성수동1가656-551,04-180,과기부WiFi,127.04461,37.546387
성동구,성동노인복지관,마장동 798-1,04-118,과기부WiFi,127.04159,37.564938
성동구,성동세무서앞,성수동2가 280-44,04-212,과기부WiFi,127.06241,37.54792
성동구,성수119안전센터,성수동2가 234-1,04-191,과기부WiFi,127.060135,37.537342
성동구,성수2가3동주민센터,서울 성동구 성수동2가 289-30,04-210,과기부WiFi,127.05552,37.549507
성동구,신답역,용답동128,04-217,과기부WiFi,127.04759,37.570137
성동구,장한평역,천호대로,04-003,과기부WiFi,127.0661,37.561146
성동구,제인병원,송정동 80-1,04-211,과기부WiFi,127.056946,37.54927
성동구,청년회의소.서울새활용플라자,천호대로,04-002,과기부WiFi,127.060486,37.561993
성동구,풍림아파트,하왕십리동1061,04-276,과기부WiFi,127.02377,37.55894
성동구,한양대앞,행당동19-100,04-128,과기부WiFi,127.040726,37.558704
성동구,행당동삼부아파트,행당동130-1,04-137,과기부WiFi,127.03795,37.558723
성동구,행당역,행당동347-13,04-280,과기부WiFi,127.02876,37.55708
성동구,황학교.텐즈힐몰,상왕십리동16-18,04-295,과기부WiFi,127.023605,37.570053
성북구,KT월곡지사,종암동 92-33,08-128,과기부WiFi,127.033875,37.60248
성북구,광운초교,장위동 158-51,08-188,과기부WiFi,127.05292,37.62056
성북구,구민회관입구,돈암동산86-1,08-367,과기부WiFi,127.00636,37.596573
성북구,국민대앞,정릉동861-1,08-108,과기부WiFi,126.99431,37.61093
성북구,길음뉴타운,동소문로,08-003,과기부WiFi,127.02417,37.603626
성북구,길음뉴타운,동소문로,08-004,과기부WiFi,127.02369,37.603184
성북구,돈암사거리.성신여대입구,동소문로,08-007,과기부WiFi,127.018135,37.593742
성북구,돈암사거리.성신여대입구,동소문로,08-008,과기부WiFi,127.01784,37.593307
성북구,돌곶이역,석관동 255-1,08-209,과기부WiFi,127.057556,37.610203
성북구,미아리고개.미아리예술극장,동소문로,08-005,과기부WiFi,127.021706,37.598812
성북구,미아리고개.미아리예술극장,동소문로,08-006,과기부WiFi,127.02182,37.59792
성북구,봉국사,정릉2동 산 68-10,08-115,과기부WiFi,127.00762,37.605854
성북구,북악중학교,정릉동966-191,08-113,과기부WiFi,127.00291,37.607388
성북구,삼선교.한성대학교,동소문로,08-009,과기부WiFi,127.00923,37.58985
성북구,삼선교.한성대학교.조소앙활동터,동소문로,08-010,과기부WiFi,127.00838,37.589314
성북구,상월곡역,상월곡동55-56,08-136,과기부WiFi,127.04645,37.605488
성북구,서경대정문.대일외고,정릉동 266-620,08-800,과기부WiFi,127.013054,37.612965
성북구,서울다원학교.한용운활동터,성북동230-16,08-223,과기부WiFi,126.99135,37.5946
성북구,석관동코오롱아파트,석관동 405,08-197,과기부WiFi,127.066124,37.606586
성북구,숭곡초교입구,월곡1동 162,08-101,과기부WiFi,127.03224,37.609936
성북구,월계2교,장위동 311-30,08-186,과기부WiFi,127.05013,37.623825
성북구,월곡뉴타운,동소문로,08-001,과기부WiFi,127.028206,37.606907
성북구,월곡뉴타운,동소문로,08-002,과기부WiFi,127.027405,37.60598
성북구,월곡중학교,상월곡동 23-160,08-137,과기부WiFi,127.04979,37.606895
성북구,장삼주유소,장위동 9-1,08-192,과기부WiFi,127.05974,37.61397
성북구,장월초등학교,장위3동 316-5,08-106,과기부WiFi,127.04871,37.623466
성북구,장위동동원베네스트.온누리병원,장위동 50-50,08-143,과기부WiFi,127.05896,37.61204
성북구,정릉4동주민센터.경국사,정릉동747-3,08-163,과기부WiFi,127.00625,37.61352
성북구,청덕초교,정릉3동 산 1-353,08-112,과기부WiFi,127.00006,37.60863
성북구,홍익대부속중고등학교입구,성북동142-1,08-231,과기부WiFi,127.00153,37.593273
송파구,가동초등학교,가락동 162,24-360,과기부WiFi,127.1289,37.497314
송파구,가든파이브.웍스동,문정동293-23,24-472,과기부WiFi,127.12119,37.478214
송파구,가든파이프툴동,문정동409-1,24-477,과기부WiFi,127.11936,37.47915
송파구,가든파이브툴동,문정동409-3,24-478,과기부WiFi,127.11904,37.478943
송파구,가락2동주민센터,가락동 162-3,24-361,과기부WiFi,127.12685,37.498863
송파구,가락2동주민센터,가락동154,24-362,과기부WiFi,127.12671,37.498768
송파구,가락동극동아파트,가락동 192,24-357,과기부WiFi,127.13183,37.496258
송파구,가락동쌍용아파트,가락동 195,24-345,과기부WiFi,127.13043,37.494385
송파구,가락동쌍용아파트앞,가락동 138,24-358,과기부WiFi,127.12986,37.493946
송파구,가락래미안앞,가락동165,24-459,과기부WiFi,127.132416,37.499256
송파구,가락현대5차아파트,가락동 161-3,24-347,과기부WiFi,127.13192,37.499527
송파구,갤러리아팰리스,잠실동40,24-147,과기부WiFi,127.092926,37.51132
송파구,건너말공원입구,가락동120,24-366,과기부WiFi,127.125015,37.492714
송파구,경찰병원.KT가락지사,가락동77-6,24-377,과기부WiFi,127.12239,37.4958
송파구,경찰병원.KT가락지사,가락동58,24-378,과기부WiFi,127.12237,37.496235
송파구,극동아파트,가락동192,24-355,과기부WiFi,127.13202,37.494938
송파구,둔촌오륜역.서문교회,방이동 89,24-235,과기부WiFi,127.1395,37.51854
송파구,몽촌토성역,신천동20-4,24-127,과기부WiFi,127.11304,37.518394
송파구,몽촌토성역.한성백제역,방이동 88-21,24-241,과기부WiFi,127.11453,37.51719
송파구,문정2동주민센터.청소년수련관,문정동 150-6,24-333,과기부WiFi,127.11254,37.49048
송파구,문정3차푸르지오아파트.송파파인타운1단지,문정동117,24-469,과기부WiFi,127.13358,37.486675
송파구,문정대우아파트,문정동 18-4,24-311,과기부WiFi,127.12834,37.486465
송파구,문정동대우아파트,문정동18,24-392,과기부WiFi,127.12841,37.48661
송파구,문정동제일은행,문정동 38-3,24-331,과기부WiFi,127.12435,37.48603
송파구,문정동푸르지오아파트,문정동19,24-323,과기부WiFi,127.127174,37.487156
송파구,문정래미안현대아파트앞,문정동 3-1,24-326,과기부WiFi,127.128975,37.491673
송파구,문정로데오거리입구,송파대로,24-012,과기부WiFi,127.12077,37.48901
송파구,문정로데오거리입구,문정동150-15,24-335,과기부WiFi,127.119606,37.49088
송파구,문정로데오거리입구,가락동101-1,24-364,과기부WiFi,127.12047,37.49046
송파구,문정현대아파트,문정동3,24-327,과기부WiFi,127.12762,37.49066
송파구,문정현대아파트,문정동3,24-329,과기부WiFi,127.1291,37.492786
송파구,문현고등학교,장지동838,24-467,과기부WiFi,127.12913,37.48055
송파구,문현고등학교.송파파인타운5단지,장지동845,24-466,과기부WiFi,127.12948,37.480633
송파구,미켈란호수가아파트,석촌동158-7,24-483,과기부WiFi,127.10265,37.507656
송파구,미켈란호수가아파트,잠실동 47,24-484,과기부WiFi,127.10311,37.508198
송파구,방이2동주민센터,방이동52,24-210,과기부WiFi,127.11422,37.513866
송파구,복정역,장지동 600-2,24-306,과기부WiFi,127.126884,37.4694
송파구,복정역1번출구,장지동 603-3,24-305,과기부WiFi,127.12714,37.472324
송파구,삼성래미안아파트후문,문정동2,24-332,과기부WiFi,127.13179,37.489082
송파구,서울아산병원앞,풍납2동 388-1,24-113,과기부WiFi,127.10986,37.524815
송파구,서울체육중.고등학교,방이동 88-14,24-234,과기부WiFi,127.13138,37.5222
송파구,석촌동남현교회앞,석촌동 311,24-185,과기부WiFi,127.10069,37.49902
송파구,석촌호수서호사거리,석촌동1-2,24-481,과기부WiFi,127.09823,37.50628
송파구,석촌호수서호사거리,잠실동 47,24-482,과기부WiFi,127.099236,37.506588
송파구,성지아파트,송파동 188-5,24-204,과기부WiFi,127.11743,37.499783
송파구,송파2동한양삼성아파트,송파동151,24-207,과기부WiFi,127.11572,37.505997
송파구,송파구립산모건강증진센터,장지동 841-1,24-453,과기부WiFi,127.12719,37.478146
송파구,송파글마루도서관.버들어린이집,장지동848,24-464,과기부WiFi,127.13155,37.481606
송파구,송파도서관,오금동 51,24-266,과기부WiFi,127.13585,37.499977
송파구,송파배드민턴체육관,문정동2-5,24-432,과기부WiFi,127.13806,37.494205
송파구,송파여성문화회관,송파동 113,24-194,과기부WiFi,127.10974,37.50667
송파구,송파역,송파동191,24-203,과기부WiFi,127.11291,37.499294
송파구,송파초등학교.송파동성당,송파동134,24-196,과기부WiFi,127.11138,37.508736
송파구,송파파인타운2단지.구립송파복지센터,장지동834-3,24-462,과기부WiFi,127.132645,37.485134
송파구,송파파인타운3단지.한림예고,장지동850,24-463,과기부WiFi,127.13291,37.484924
송파구,송파파인타운8단지.9단지,장지동843,24-452,과기부WiFi,127.12747,37.47809
송파구,송파푸르지오시티.한화오벨리스크,문정동 398-5,24-496,과기부WiFi,127.1198,37.48091
송파구,송파푸르지오시티.한화오벨리스크,문정동399-4,24-497,과기부WiFi,127.12047,37.480602
송파구,신가초등학교,가락동48-11,24-372,과기부WiFi,127.12022,37.498817
송파구,신천동진주아파트,신천동20-4,24-128,과기부WiFi,127.10949,37.516617
송파구,아산병원기숙사앞,풍납동 310-17,24-394,과기부WiFi,127.11017,37.53008
송파구,영동일고트리지움APT정문앞,잠실동 35-8,24-150,과기부WiFi,127.09173,37.509037
송파구,올림픽공원남2문,방이동167,24-221,과기부WiFi,127.12155,37.513973
송파구,올림픽공원테니스장,방이동 88-2,24-246,과기부WiFi,127.128685,37.513195
송파구,올림픽베어스타운아파트앞,방이동171,24-217,과기부WiFi,127.1191,37.514828
송파구,잠실나루역,신천동17,24-125,과기부WiFi,127.10589,37.518887
송파구,잠실역.롯데월드,잠실동 27,24-138,과기부WiFi,127.097946,37.512897
송파구,잠실리센츠아파트앞,잠실동22,24-140,과기부WiFi,127.091324,37.511917
송파구,잠실새내역.잠실2동주민센터,잠실동  22-6,24-141,과기부WiFi,127.08728,37.511772
송파구,잠실새내역앞,잠실동35-2,24-458,과기부WiFi,127.08604,37.51042
송파구,잠실역.롯데월드몰,송파대로,24-017,과기부WiFi,127.10083,37.512577
송파구,잠실역.잠실대교.남단,송파대로,24-001,과기부WiFi,127.09844,37.515537
송파구,잠실역1번.11번출구,신천동29,24-134,과기부WiFi,127.10303,37.514153
송파구,잠실역8번출구,신천동 7-18,24-132,과기부WiFi,127.10146,37.513912
송파구,잠실역9번출구,신천동7-3,24-135,과기부WiFi,127.10409,37.5148
송파구,잠실진주아파트,신천동20-4,24-126,과기부WiFi,127.109215,37.519176
송파구,잠실트리지움,잠실동35,24-148,과기부WiFi,127.09263,37.51098
송파구,잠실파크리오아파트앞,신천동 20,24-124,과기부WiFi,127.109604,37.51953
송파구,장지동주민센터.송파파인타운1단지,문정동113,24-455,과기부WiFi,127.132996,37.486504
송파구,장지동주민센터앞,문정동114,24-454,과기부WiFi,127.13289,37.486694
송파구,장지역가든파이브라이프동,문정동528,24-475,과기부WiFi,127.12477,37.479115
송파구,종점,거여2동,24-279,과기부WiFi,127.15276,37.492767
송파구,청암노인요양원,마천동50-1,24-298,과기부WiFi,127.149864,37.50107
송파구,체육문화회관,거여동 289,24-272,과기부WiFi,127.14338,37.490803
송파구,파크데일아파트1단지앞,마천동255-1,24-104,과기부WiFi,127.15823,37.4982
송파구,파크데일아파트입구,마천동200-43,24-491,과기부WiFi,127.15464,37.49762
송파구,풍납1치안센터입구,풍납동491-4,24-102,과기부WiFi,127.12169,37.534298
송파구,풍납동신성노바빌,풍납동506,24-106,과기부WiFi,127.115875,37.538147
송파구,풍납동영어체험마을,풍납동271-27,24-120,과기부WiFi,127.112495,37.53093
송파구,풍납토성,풍납동 510-1,24-108,과기부WiFi,127.121765,37.53896
송파구,풍성중학교후문앞,풍납동388-16,24-112,과기부WiFi,127.11356,37.52481
송파구,한림연예예술고교,문정동11-2,24-316,과기부WiFi,127.131744,37.4854
양천구,CBS방송국,목동서로 159-2,15-161,과기부WiFi,126.8741,37.527885
양천구,갈산초등학교정문,신정6 330-6,15-169,과기부WiFi,126.87048,37.512806
양천구,갈산초등학교후문,목동남로 90,15-198,과기부WiFi,126.86928,37.51099
양천구,갈산초등학교후문,목동남로 93,15-199,과기부WiFi,126.86952,37.511204
양천구,강신중학교,남부순환로 601,15-307,과기부WiFi,126.84036,37.51527
양천구,계남초등학교,신정동 325-9,15-230,과기부WiFi,126.858475,37.50963
양천구,계남초등학교,신정동 산102,15-412,과기부WiFi,126.857864,37.509968
양천구,광영고.신동아파밀리에아파트,신월동 37-1,15-350,과기부WiFi,126.823364,37.539356
양천구,남명초교.신정3동주민센터,중앙로 209,15-308,과기부WiFi,126.85491,37.515076
양천구,넓은들공원,신정3 767공,15-318,과기부WiFi,126.83881,37.511024
양천구,대일관광고.푸른마을3단지,신정로11길 63,15-363,과기부WiFi,126.836365,37.511074
양천구,대일관광고.푸른마을3단지,신정동 1318-5,15-364,과기부WiFi,126.835884,37.51132
양천구,신정숲속마을아파트,신정동 831-2,15-321,과기부WiFi,126.83648,37.506454
양천구,메디힐병원,신월5 51-10,15-344,과기부WiFi,126.827774,37.53699
양천구,목동10단지농협,목동서로 400,15-237,과기부WiFi,126.85637,37.51763
양천구,목동14단지,신정동 329-1,15-184,과기부WiFi,126.86958,37.514744
양천구,목동14단지C상가앞,신정6 331,15-181,과기부WiFi,126.87402,37.514168
양천구,목동14단지관리사무소앞,신정동 329-3,15-191,과기부WiFi,126.87169,37.514797
양천구,목동14단지상가,신정동 330-7,15-175,과기부WiFi,126.871796,37.514633
양천구,목동3단지,목5 903,15-103,과기부WiFi,126.86991,37.534325
양천구,목동중학교,목동동로 150,15-269,과기부WiFi,126.87047,37.519188
양천구,목일중학교,신정6 330-2학,15-182,과기부WiFi,126.87384,37.51396
양천구,보람쉬움아파트.신영시장,곰달래로7길 7,15-415,과기부WiFi,126.83524,37.529903
양천구,서부트럭터미널.신정동일하이빌아파트,신정동 1315-21,15-316,과기부WiFi,126.84231,37.510166
양천구,서울금융고등학교,남부순환로 330,15-351,과기부WiFi,126.82703,37.53732
양천구,서울남부지방법원.서울남부지방검찰청,신월로 389,15-279,과기부WiFi,126.86416,37.522488
양천구,신목동역1번출구,목동 131-125,15-118,과기부WiFi,126.88207,37.543922
양천구,신목동역2번출구,목동중앙로 212,15-117,과기부WiFi,126.88234,37.543854
양천구,신목동역-서울지방식품의약품안전청,목동 900-12,15-360,과기부WiFi,126.88321,37.543594
양천구,신목동역-서울지방식품의약품안전청,목동 143-27,15-413,과기부WiFi,126.88353,37.543644
양천구,신목중학교.목동2단지후문,목5 902,15-105,과기부WiFi,126.87346,37.538048
양천구,신월동남부주유소,남부순환로 553,15-223,과기부WiFi,126.83862,37.519234
양천구,신월문화체육센터,신월동 977,15-295,과기부WiFi,126.83631,37.520206
양천구,신월시영아파트.강월초등학교,신월로 99,15-326,과기부WiFi,126.835304,37.515938
양천구,신월중학교입구,신월동 35-1,15-348,과기부WiFi,126.8252,37.53999
양천구,신월중학교입구,남부순환로 297,15-349,과기부WiFi,126.82577,37.540005
양천구,신정1동우체국,신정1 1017-2,15-242,과기부WiFi,126.86167,37.521954
양천구,신정1동주민센터.신오새마을금고,중앙로 234,15-232,과기부WiFi,126.85437,37.517204
양천구,신정네거리역,신월로 266,15-212,과기부WiFi,126.85073,37.522022
양천구,신정이펜하우스2단지,신정동 789-2,15-416,과기부WiFi,126.83063,37.514576
양천구,신정이펜하우스3.4단지,신정동 1317,15-421,과기부WiFi,126.830345,37.51126
양천구,신정이펜하우스5단지.서남병원,신정이펜1로 27,15-423,과기부WiFi,126.833466,37.51103
양천구,신한은행신월동지점,신월로 164,15-218,과기부WiFi,126.841866,37.517826
양천구,신화중학교,신월5 24-8,15-345,과기부WiFi,126.83149,37.53961
양천구,양강중학교,중앙로 319,15-310,과기부WiFi,126.85028,37.52486
양천구,양강중학교,중앙로 319,15-311,과기부WiFi,126.84966,37.52383
양천구,양명초교.신서중,신정동 310-8,15-233,과기부WiFi,126.855705,37.514305
양천구,양천공원,목동동로 130,15-193,과기부WiFi,126.869644,37.51787
양천구,양천구청.양천보건소,목동서로 340,15-256,과기부WiFi,126.866165,37.51816
양천구,영도초등학교,목5 903-1학,15-104,과기부WiFi,126.87052,37.535557
양천구,우리은행신정동지점,신월로 344,15-247,과기부WiFi,126.85938,37.521706
양천구,월촌초등학교,목동 901-3,15-140,과기부WiFi,126.87707,37.541187
양천구,월촌초등학교,목동중앙로 131,15-141,과기부WiFi,126.87527,37.540382
양천구,은정초등학교,목동남로 72,15-201,과기부WiFi,126.8671,37.510094
양천구,하이스트학원.종로학원,목동서로 250,15-253,과기부WiFi,126.86945,37.524982
양천구,현대아이파크아파트,신정동 87-42,15-262,과기부WiFi,126.87326,37.521034
양천구,현대아파트정문,신정동 871-46,15-177,과기부WiFi,126.878235,37.520786
영등포구,KBS,여의공원로 13,19-130,과기부WiFi,126.91823,37.524727
영등포구,강남성심병원.대림성모병원,대림동 960-8,19-010,과기부WiFi,126.9079,37.49087
영등포구,경남아너스빌아파트,신길제6동 4780,19-011,과기부WiFi,126.911575,37.495586
영등포구,당산초등학교앞,양평동5가 88-4,19-220,과기부WiFi,126.894585,37.538918
영등포구,대림3동주민센터,대림로 195,19-458,과기부WiFi,126.89831,37.49808
영등포구,대림동코오롱아파트,대림동 630-9,19-357,과기부WiFi,126.89435,37.507614
영등포구,대림코오롱아파트,대림동 607-1,19-312,과기부WiFi,126.894325,37.507107
영등포구,대방역,신길동 1413,19-307,과기부WiFi,126.92582,37.51347
영등포구,두산위브진주아파트,선유로9나길 12,19-427,과기부WiFi,126.88531,37.516422
영등포구,문래동남성아파트,경인로,19-001,과기부WiFi,126.89371,37.51183
영등포구,문래동남성아파트,경인로,19-002,과기부WiFi,126.89231,37.511204
영등포구,문래자이아파트,당산로 28,19-305,과기부WiFi,126.89465,37.51675
영등포구,문래힐스테이트,선유로 54,19-619,과기부WiFi,126.8894,37.518963
영등포구,보라매공원,신길동 4302,19-012,과기부WiFi,126.9166,37.496986
동작구,보라매역.동작세무서,대방동 466-51,19-013,과기부WiFi,126.92018,37.49896
영등포구,산업은행본점,은행로 17,19-281,과기부WiFi,126.92085,37.527966
영등포구,서울지방병무청,신길동 4880,19-014,과기부WiFi,126.92196,37.504395
영등포구,선유고등학교,양평동4가 24,19-221,과기부WiFi,126.896225,37.534267
영등포구,선유중학교,양평3가 101,19-223,과기부WiFi,126.89452,37.53205
영등포구,성락교회,신길동 355-22잡,19-234,과기부WiFi,126.902725,37.50431
영등포구,서울영림초등학교,대림동 990-130,19-009,과기부WiFi,126.90469,37.48703
영등포구,신길한화꿈에그린아파트,신길로 119,19-233,과기부WiFi,126.91005,37.503345
영등포구,신동아아파트,대림동 777,19-321,과기부WiFi,126.89463,37.498074
영등포구,여의나루역,여의도동 21-1,19-139,과기부WiFi,126.93162,37.527306
영등포구,여의나루역,여의동로 343,19-140,과기부WiFi,126.93202,37.527386
영등포구,여의도공원,여의공원로 120,19-138,과기부WiFi,126.927895,37.52953
영등포구,여의도역,의사당대로 108,19-155,과기부WiFi,126.92475,37.52063
영등포구,여의동주민센터,여의도동 52,19-147,과기부WiFi,126.93457,37.518387
영등포구,영등포공원,신길로 275,19-103,과기부WiFi,126.91194,37.51495
영등포구,남부지방법원등기국.구로세무서(에이스하이테크시티),경인로,19-003,과기부WiFi,126.901184,37.514484
영등포구,남부지방법원등기국.구로세무서(에이스하이테크시티),경인로,19-004,과기부WiFi,126.89974,37.51404
영등포구,영등포역,경인로,19-006,과기부WiFi,126.90703,37.516586
영등포구,영등포역,경인로 870,19-114,과기부WiFi,126.90915,37.517086
영등포구,우신사거리,신길로 209,19-365,과기부WiFi,126.91002,37.510887
영등포구,하이서울유스호스텔,영신로 200,19-127,과기부WiFi,126.903656,37.52564
영등포구,한국방송통신대학교,대림동 611 유,19-273,과기부WiFi,126.89574,37.503872
영등포구,현대2차아파트후문,대림동 611유,19-402,과기부WiFi,126.89409,37.50301
영등포구,흰돌교회,대림동 862-4,19-261,과기부WiFi,126.90322,37.490944
용산구,KT용산지사,한강대로,03-005,과기부WiFi,126.97024,37.531498
용산구,KT용산지사,한강대로,03-006,과기부WiFi,126.970566,37.53205
용산구,갈월동,한강대로,03-011,과기부WiFi,126.97224,37.550976
용산구,갈월동,한강대로,03-012,과기부WiFi,126.97171,37.549534
용산구,남산예술원,한남동 726-374,03-159,과기부WiFi,127.00204,37.544437
용산구,남산체육관,이태원동 260-381,03-173,과기부WiFi,126.99279,37.542706
용산구,남산체육관,소월로 280,03-174,과기부WiFi,126.99292,37.542503
용산구,남영동주민센터,두텁바위로 27,03-206,과기부WiFi,126.97675,37.54575
용산구,남영동주민센터,용산동1가 1-4,03-207,과기부WiFi,126.97506,37.54536
용산구,남영역,갈월동 100-5,03-130,과기부WiFi,126.97103,37.540813
용산구,남영역,원효로1가 115-2,03-131,과기부WiFi,126.97067,37.54057
용산구,동빙고동,동빙고동 97-3,03-275,과기부WiFi,126.99686,37.521183
용산구,문배동이안아파트앞,한강로1가 1-4,03-326,과기부WiFi,126.97106,37.53887
용산구,문배동이안아파트앞,청파로 213,03-332,과기부WiFi,126.97067,37.53827
용산구,보광신동아아파트삼성리버빌아파트,보광동 130-6,03-276,과기부WiFi,127.00203,37.52474
용산구,보성여중고입구,용산동2가 1-6,03-171,과기부WiFi,126.98584,37.5464
용산구,삼각지역,한강대로,03-007,과기부WiFi,126.974014,37.53527
용산구,삼각지역,한강대로,03-008,과기부WiFi,126.97416,37.535984
용산구,삼각지역11번출구,한강로동 14-22,03-328,과기부WiFi,126.97455,37.536205
용산구,서빙고동주민센터,서빙고동 146-1,03-273,과기부WiFi,126.99478,37.520325
용산구,서빙고역교차로,서빙고로 237,03-267,과기부WiFi,126.99009,37.520428
용산구,서울역공항철도15번출구.국립극단,서계동224-36,03-345,과기부WiFi,126.96885,37.553078
용산구,성촌공원.포르쉐센터용산,한강로동 32-3철,03-288,과기부WiFi,126.954605,37.53017
용산구,숙대입구역,한강대로,03-009,과기부WiFi,126.972534,37.543297
용산구,숙대입구역,한강대로,03-010,과기부WiFi,126.97223,37.543755
용산구,신용산.지하차도,한강로3가 13-7,03-252,과기부WiFi,126.96384,37.53255
용산구,신용산역,한강대로,03-003,과기부WiFi,126.96621,37.527294
용산구,신용산역,한강대로,03-004,과기부WiFi,126.96662,37.52792
용산구,신용산역3번출구,한강로2가 331-1,03-119,과기부WiFi,126.96709,37.52861
용산구,신용산초등학교,이촌로 26,03-220,과기부WiFi,126.976105,37.51905
용산구,용마루고개.효창파크푸르지오아파트,효창동 180 (효창동 196-4),03-178,과기부WiFi,126.95855,37.5403
용산구,용산공고,한강대로14길 35-29,03-259,과기부WiFi,126.96602,37.525597
용산구,용산세무서,한강로동 65-500,03-261,과기부WiFi,126.96932,37.52363
용산구,용산세무서,한강로동 63-379,03-262,과기부WiFi,126.97015,37.52362
용산구,용산전자상가.전자랜드,청파로 74,03-136,과기부WiFi,126.95858,37.532764
용산구,용산전자상가.전자랜드,원효로3가 51-28,03-137,과기부WiFi,126.95825,37.533
용산구,용산중고,용산동1가 1-4,03-205,과기부WiFi,126.97756,37.54574
용산구,용암초등학교.이태원2동주민센터,이태원동 262-73,03-343,과기부WiFi,126.99093,37.54485
용산구,용암초등학교입구.이태원주공아파트,용산동2가 5-1553,03-148,과기부WiFi,126.98855,37.544167
용산구,원효2동산호아파트,원효로2 141,03-300,과기부WiFi,126.95083,37.533108
용산구,원효대교북단,한강로3가 16-66,03-138,과기부WiFi,126.95601,37.53188
용산구,원효대교북단,원효로2,03-331,과기부WiFi,126.95575,37.53213
용산구,원효로풍전아파트,원효로 86,03-301,과기부WiFi,126.95351,37.53205
용산구,원효로풍전아파트,원효로2 250-1,03-302,과기부WiFi,126.95451,37.532368
용산구,이촌119안전센터.성촌공원,이촌동 173-1,03-287,과기부WiFi,126.95309,37.530117
용산구,이촌2동주민센터,한강로동 37-2,03-290,과기부WiFi,126.95506,37.527737
용산구,이촌역,한강로동 17,03-263,과기부WiFi,126.97391,37.52267
용산구,이촌역,서빙고로 83,03-264,과기부WiFi,126.97395,37.5223
용산구,전쟁기념관,용산동1가 8-65,03-184,과기부WiFi,126.97686,37.53476
용산구,청암동강변삼성아파트,원효로2 181,03-297,과기부WiFi,126.94824,37.534615
용산구,청암동강변삼성아파트,원효로2 178,03-298,과기부WiFi,126.94932,37.533966
용산구,하얏트호텔,이태원동 258-466,03-176,과기부WiFi,126.997314,37.540894
용산구,한강대교북단.LG유플러스,한강대로,03-001,과기부WiFi,126.96319,37.52409
용산구,한강대교북단.LG유플러스,한강대로,03-002,과기부WiFi,126.96319,37.524307
용산구,한강대교북단,한강로동 40-678 (한강로3가 40-147),03-122,과기부WiFi,126.963936,37.52529
용산구,한국폴리텍1대학,보광로 73,03-281,과기부WiFi,126.99653,37.530365
용산구,효창공원후문,임정로 107-5,03-236,과기부WiFi,126.9625,37.54676
용산구,효창운동장.효창동주민센터,효창원로 157,03-239,과기부WiFi,126.96177,37.54221
은평구,806의무경찰대.우남아파트,갈현동 540,12-145,과기부WiFi,126.90643,37.61805
은평구,806의무경찰대.우남아파트,서오릉로 273,12-146,과기부WiFi,126.90583,37.61853
은평구,구기터널입구,녹번동 산1-50임,12-251,과기부WiFi,126.94485,37.610355
은평구,구산역1번출구.예일여고,서오릉로 134,12-140,과기부WiFi,126.91818,37.61085
은평구,구산역2번출구.예일여고,연서로 126,12-181,과기부WiFi,126.9169,37.60995
은평구,구파발역.롯데몰,진관동 67-28,12-113,과기부WiFi,126.918625,37.63678
은평구,구파발역입구,통일로,12-011,과기부WiFi,126.91702,37.636166
은평구,구파발역입구,통일로,12-012,과기부WiFi,126.91684,37.637115
은평구,기자촌11단지앞,진관내동 209대,12-471,과기부WiFi,126.93258,37.634758
은평구,녹번역,통일로,12-027,과기부WiFi,126.935326,37.601864
은평구,녹번역,통일로,12-028,과기부WiFi,126.93505,37.602436
은평구,녹번초등학교.은평세무서,서오릉로 31,12-154,과기부WiFi,126.92503,37.603664
은평구,대조시장앞,녹번동 141-20,12-247,과기부WiFi,126.92651,37.608654
은평구,덕은교.은평차고지앞,수색로,12-001,과기부WiFi,126.88412,37.5896
은평구,덕은교.은평차고지앞,수색로,12-002,과기부WiFi,126.88479,37.589165
은평구,덕은교.은평차고지앞,수색동 282-2,12-314,과기부WiFi,126.88561,37.588577
은평구,덕은교.은평차고지앞,수색동 403,12-315,과기부WiFi,126.883446,37.589962
은평구,독박골.북한산래미안APT,불광동 산42-5임,12-253,과기부WiFi,126.939606,37.610744
은평구,독박골.북한산래미안APT앞,녹번동 1-60임,12-250,과기부WiFi,126.9398,37.61051
은평구,동명여고.천주교불광동성당,통일로,12-019,과기부WiFi,126.92521,37.615482
은평구,동명여고.천주교불광동성당,통일로,12-020,과기부WiFi,126.92393,37.61622
은평구,동부센트레빌320동앞,진관외동 192-3대,12-462,과기부WiFi,126.92777,37.634075
은평구,동부센트레빌324동앞,진관외동 179-705도,12-460,과기부WiFi,126.92455,37.634056
은평구,두산위브205동앞,진관외동 178-11대,12-465,과기부WiFi,126.92626,37.634266
은평구,두산위브253동앞,진관외동 170-4학,12-461,과기부WiFi,126.92285,37.634266
은평구,디지털미디어시티역,수색로,12-007,과기부WiFi,126.9005,37.579006
은평구,디지털미디어시티역,수색로,12-008,과기부WiFi,126.901436,37.57851
은평구,래미안922동앞,진관내동 35-5,12-466,과기부WiFi,126.92138,37.643875
은평구,롯데캐슬820동앞,진관내동 34-15잡,12-467,과기부WiFi,126.92157,37.644
은평구,롯데캐슬823동앞,진관내동 21-29,12-429,과기부WiFi,126.92175,37.642075
은평구,박석고개.신도고등학교,통일로,12-013,과기부WiFi,126.91937,37.629917
은평구,박석고개.신도고등학교,통일로,12-014,과기부WiFi,126.91919,37.630867
은평구,백련산힐스테이트2차,응암동 614-18,12-267,과기부WiFi,126.92287,37.590313
은평구,백화사,진관내동 295-2답,12-236,과기부WiFi,126.939,37.653744
은평구,북한산성입구,진관내동 288-1천,12-234,과기부WiFi,126.94534,37.658188
은평구,북한산수자인아파트,불광동 산33-2임,12-289,과기부WiFi,126.93153,37.62133
은평구,불광대호아파트,불광1 631-1,12-280,과기부WiFi,126.9326,37.614704
은평구,불광역3호선.서울혁신파크,통일로,12-023,과기부WiFi,126.93175,37.608437
은평구,불광역3호선.서울혁신파크,통일로,12-024,과기부WiFi,126.93091,37.60925
은평구,불광역.불광1동주민센터,불광동 613-3,12-254,과기부WiFi,126.93261,37.609528
은평구,불광중학교,불광2 173학,12-285,과기부WiFi,126.93104,37.622776
은평구,불광지구대,연서로 292,12-187,과기부WiFi,126.92679,37.621773
은평구,삼성타운,대조동 231,12-139,과기부WiFi,126.920975,37.608704
은평구,삼천리골입구56사단북한산부대,진관내동 2-6천,12-230,과기부WiFi,126.93512,37.650345
은평구,삼천리골입구56사단북한산부대,진관내동 2-32천,12-237,과기부WiFi,126.93341,37.64995
은평구,상신초등학교,신사동 30-10,12-159,과기부WiFi,126.91016,37.59586
은평구,서부경찰서후문,응암로 352,12-309,과기부WiFi,126.9227,37.602737
은평구,불광역3.6호선,통일로,12-021,과기부WiFi,126.92876,37.611885
은평구,불광역3.6호선,통일로,12-022,과기부WiFi,126.928154,37.612446
은평구,선정중고등학교,갈현동 321-22,12-147,과기부WiFi,126.907936,37.615734
은평구,세명컴퓨터고등학교,통일로,12-015,과기부WiFi,126.919975,37.624214
은평구,세명컴퓨터고등학교,통일로,12-016,과기부WiFi,126.92,37.625282
은평구,수국사입구,서오릉로 253,12-472,과기부WiFi,126.90666,37.616863
은평구,수색교,수색로,12-003,과기부WiFi,126.88848,37.585785
은평구,수색교,수색로,12-004,과기부WiFi,126.889244,37.5854
은평구,수색역,수색로 245,12-318,과기부WiFi,126.8973,37.580727
은평구,수색역앞,수색로,12-005,과기부WiFi,126.893234,37.58322
은평구,수색역앞,수색로,12-006,과기부WiFi,126.894104,37.583046
은평구,신도중학교,진관외동 207-23답,12-192,과기부WiFi,126.931526,37.633347
은평구,신도초교.은평메디텍고등학교,진관외동 198-3대,12-463,과기부WiFi,126.92911,37.63421
은평구,신도초중교입구.한국고전번역원,진관외동 164-11잡,12-449,과기부WiFi,126.9255,37.63142
은평구,신사동고개,신사동 20-4,12-366,과기부WiFi,126.91083,37.598164
은평구,신사동고개,신사동 19-100,12-368,과기부WiFi,126.90992,37.597767
은평구,신흥시장,신사 123-35천,12-177,과기부WiFi,126.914894,37.5954
은평구,아이파크701동앞,진관내동 13-14답,12-431,과기부WiFi,126.92809,37.646046
은평구,아이파크709동앞,진관동 15-1,12-442,과기부WiFi,126.926674,37.64486
은평구,아이파크714동앞,진관내동 28-15,12-453,과기부WiFi,126.92634,37.64485
은평구,역촌역1번출구,진흥로 91-1,12-258,과기부WiFi,126.92217,37.60524
은평구,역촌역역촌오거리,녹번동 144-21,12-246,과기부WiFi,126.92324,37.6068
은평구,역촌오거리,대조동 38-15,12-257,과기부WiFi,126.923965,37.607655
은평구,역촌초등학교,역촌동 63-72,12-208,과기부WiFi,126.91557,37.602795
은평구,연서중학교입구,증산동 199-15도,12-422,과기부WiFi,126.91228,37.58623
은평구,연서중학교입구,증산동 250,12-423,과기부WiFi,126.91175,37.58617
은평구,연신내역.연서시장,통일로,12-017,과기부WiFi,126.92184,37.61836
은평구,연신내역.연서시장,통일로,12-018,과기부WiFi,126.92094,37.619324
은평구,연신초등학교,불광동 71-3전,12-361,과기부WiFi,126.929245,37.626053
은평구,연신초등학교.연신내성당,불광동 70전,12-365,과기부WiFi,126.928955,37.62676
은평구,와산교,증산동 199-3도,12-175,과기부WiFi,126.913086,37.588093
은평구,은진초교입구,진관외동 232-17,12-445,과기부WiFi,126.92069,37.630684
은평구,은진초교입구,진관외동 235-27,12-446,과기부WiFi,126.92092,37.63102
은평구,은평경찰서,불광동 44-2,12-189,과기부WiFi,126.929474,37.627632
은평구,은평구민체육센터앞,진관외동 164-13잡,12-447,과기부WiFi,126.92256,37.63143
은평구,은평구민체육센터앞,진관외동 164-15잡,12-448,과기부WiFi,126.92306,37.631645
은평구,은평노인종합복지관.신도중학교,진관외동 149-7,12-195,과기부WiFi,126.93153,37.632496
은평구,은평뉴타운10단지,통일로,12-009,과기부WiFi,126.91517,37.64295
은평구,은평뉴타운10단지,통일로,12-010,과기부WiFi,126.91373,37.643406
은평구,응암3동주민센터,응암동 577-7,12-427,과기부WiFi,126.91731,37.591305
은평구,응암역2번출구,역촌동 85-12,12-209,과기부WiFi,126.91586,37.60042
은평구,응암초등학교,응암동 674-1,12-155,과기부WiFi,126.92113,37.58708
은평구,이마트.은평점,은평로 97,12-243,과기부WiFi,126.91837,37.599903
은평구,이마트.은평점,역촌동 43-66,12-260,과기부WiFi,126.91803,37.600212
은평구,입곡삼거리,진관내동 328-10,12-441,과기부WiFi,126.93731,37.65156
은평구,종로약국,연서로 270,12-186,과기부WiFi,126.92464,37.620377
은평구,지축교앞,진관내동 53-25답,12-424,과기부WiFi,126.91772,37.644802
은평구,지축교앞,진관내동 38-22잡,12-425,과기부WiFi,126.919624,37.64478
은평구,진관동주민센터,진관외동 87-15답,12-458,과기부WiFi,126.91962,37.63452
은평구,진관동주민센터,진관외동 100-1대,12-459,과기부WiFi,126.91982,37.634697
은평구,진관중고교.약수사앞,진관내동 24-24답,12-435,과기부WiFi,126.9243,37.643642
은평구,진관중고교약수사입구,진관내동 30-23천,12-240,과기부WiFi,126.92368,37.645702
은평구,진관중고교약수사입구,진관내동 38-29잡,12-426,과기부WiFi,126.92296,37.64516
은평구,진관초교관음사입구,진관내동11-23잡,12-238,과기부WiFi,126.92687,37.647774
은평구,진관초교입구,진관내동 30-14잡,12-227,과기부WiFi,126.92585,37.646904
은평구,충암고교앞.대주피오레아파트,백련산로 36,12-266,과기부WiFi,126.92285,37.586956
은평구,폭포동,진관외동 158-20답,12-190,과기부WiFi,126.93103,37.630714
은평구,폭포동.은평노인종합복지관,진관외동 154-24,12-197,과기부WiFi,126.93101,37.631382
은평구,푸르지오521동,진관외동 138-11,12-350,과기부WiFi,126.93551,37.638397
은평구,푸르지오604동앞,진관내동 5-10잡,12-455,과기부WiFi,126.93018,37.647682
은평구,푸르지오614동앞,진관내동 3-3도,12-456,과기부WiFi,126.931496,37.649746
은평구,푸르지오625동앞.관음사입구,진관내동 11-17잡,12-229,과기부WiFi,126.92859,37.648838
은평구,하나고.삼천사.진관사입구,진관외동 135-14,12-437,과기부WiFi,126.93841,37.641815
은평구,하나고.삼천사.진관사입구,진관외동 산105-13임,12-464,과기부WiFi,126.93811,37.641766
은평구,하나은행역촌동지점,서오릉로 107,12-152,과기부WiFi,126.92004,37.60927
은평구,한전성서지사.녹번동푸르지오,통일로,12-025,과기부WiFi,126.9344,37.605373
은평구,한전성서지사.북한산푸르지오,통일로,12-026,과기부WiFi,126.933685,37.60618
은평구,현대아파트앞,신사2 2-137,12-337,과기부WiFi,126.907906,37.594
은평구,흥국사,진관내동 299전,12-232,과기부WiFi,126.94201,37.65676
은평구,흥국사,진관내동 291-5답,12-235,과기부WiFi,126.94233,37.65707
종로구,경복궁,중학동 109-1,01-117,과기부WiFi,126.978745,37.575577
종로구,광화문,종로,01-009,과기부WiFi,126.97525,37.570137
종로구,광화문,종로,01-010,과기부WiFi,126.97809,37.570217
종로구,국민은행세검정지점,진흥로 494,01-132,과기부WiFi,126.96089,37.604664
종로구,동대문(흥인지문),종로,01-037,과기부WiFi,127.01205,37.571953
종로구,동대문역.흥인지문,종로,01-023,과기부WiFi,127.01345,37.572304
종로구,동묘앞,종로,01-041,과기부WiFi,127.01845,37.573727
종로구,동묘앞,종로,01-044,과기부WiFi,127.01967,37.57424
종로구,명륜3가.성대입구,창경궁로,01-003,과기부WiFi,126.99834,37.582672
종로구,벽산평창힐스아파트,평창동 43-5,01-161,과기부WiFi,126.97279,37.60819
종로구,상명대입구.석파랑,자하문로 311,01-287,과기부WiFi,126.95819,37.59957
종로구,서대문역사거리,새문안로,01-006,과기부WiFi,126.966896,37.566135
종로구,서울역사박물관.경희궁앞,새문안로,01-007,과기부WiFi,126.97038,37.569134
종로구,서울역사박물관.경희궁앞,새문안로,01-008,과기부WiFi,126.97061,37.569412
종로구,세검정.상명대,홍지동 72-7,01-134,과기부WiFi,126.958725,37.60073
종로구,일성아파트,평창동 85-2,01-158,과기부WiFi,126.973,37.608765
종로구,자하문터널입구.석파정,부암동 162-22,01-137,과기부WiFi,126.963646,37.595592
종로구,종로1가,종로,01-011,과기부WiFi,126.98091,37.570118
종로구,종로1가,종로,01-012,과기부WiFi,126.98139,37.57023
종로구,종로2가,종로,01-013,과기부WiFi,126.98554,37.570137
종로구,종로2가,종로,01-014,과기부WiFi,126.986244,37.57026
종로구,종로2가.삼일교,삼일대로,01-004,과기부WiFi,126.98761,37.56858
종로구,종로2가사거리,삼일대로,01-001,과기부WiFi,126.98775,37.569767
종로구,종로3가.탑골공원,종로,01-015,과기부WiFi,126.98956,37.570244
종로구,종로3가.탑골공원,종로,01-016,과기부WiFi,126.98999,37.570362
종로구,종로4가.종묘,종로,01-017,과기부WiFi,126.99472,37.570507
종로구,종로4가.종묘,종로,01-018,과기부WiFi,126.995285,37.570625
종로구,종로5가.광장시장,종로,01-019,과기부WiFi,126.99885,37.570755
종로구,종로5가.광장시장,종로,01-020,과기부WiFi,126.99934,37.57088
종로구,종로6가.동대문종합시장,종로,01-021,과기부WiFi,127.00346,37.57096
종로구,종로6가.동대문종합시장,종로,01-022,과기부WiFi,127.005714,37.57113
종로구,창경궁.서울대학교병원,창경궁로,01-002,과기부WiFi,126.99657,37.57918
종로구,창덕궁.서울돈화문국악당,운니동 14-3,01-199,과기부WiFi,126.98788,37.577194
종로구,청계5가.광장시장,청계천로 199-1,01-177,과기부WiFi,126.999794,37.56945
종로구,통신대(이화장),연건동 134-1,01-222,과기부WiFi,127.00199,37.57813
종로구,혜화동로터리.여운형활동터,창경궁로,01-005,과기부WiFi,127.00175,37.586243
종로구,혜화동로터리,창경궁로 273,01-226,과기부WiFi,127.000725,37.585766
중구,광희문.광희동사거리,퇴계로 344,02-275,과기부WiFi,127.00944,37.564327
중구,금호베스트빌.삼성래미안아파트,신당동 851-4,02-259,과기부WiFi,127.02415,37.561543
중구,남대문세무서.서울백병원,삼일대로,02-001,과기부WiFi,126.98753,37.564983
중구,남산3호터널.서울애니메이션센터,회현동2가 27-3,02-148,과기부WiFi,126.982635,37.559525
중구,백범광장,퇴계로8길 94,02-215,과기부WiFi,126.980095,37.555737
중구,서울백병원.국가인권위.안중근활동터,삼일대로,02-002,과기부WiFi,126.987854,37.56435
중구,숭례문,세종대로 26-1,02-121,과기부WiFi,126.9744,37.55873
중구,숭례문,세종대로 20-1,02-122,과기부WiFi,126.97402,37.558487
중구,숭례문,세종대로 14-2,02-123,과기부WiFi,126.9737,37.55796
중구,신당초등학교앞,신당동 170,02-258,과기부WiFi,127.02383,37.564476
중구,약수역1번출구,신당동 422-7,02-199,과기부WiFi,127.00969,37.556408
중구,장충체육관앞,동호로 234,02-201,과기부WiFi,127.00778,37.55848
중구,퇴계로6가,퇴계로 290,02-205,과기부WiFi,127.00397,37.56332
중구,한국경제신문사,청파로 457-1,02-108,과기부WiFi,126.967865,37.56021
중구,황학동주민센터,난계로 171,02-257,과기부WiFi,127.0234,37.566856
중랑구,경남아너스빌아파트앞,면목동1529,07-122,과기부WiFi,127.080154,37.57475
중랑구,극동늘푸른아파트,묵동 379,07-101,과기부WiFi,127.0764,37.614704
중랑구,금란교회,망우로,07-011,과기부WiFi,127.104034,37.600452
중랑구,금란교회,망우로,07-012,과기부WiFi,127.10338,37.600307
중랑구,동부제일병원.망우리공원,망우로,07-013,과기부WiFi,127.1089,37.600464
중랑구,동부제일병원.망우리공원,망우로,07-014,과기부WiFi,127.10776,37.60048
중랑구,망우역.망우지구대,망우로,07-007,과기부WiFi,127.095566,37.59882
중랑구,망우역.망우지구대,망우로,07-008,과기부WiFi,127.09487,37.598557
중랑구,망우역.상봉터미널,망우로,07-001,과기부WiFi,127.09114,37.597828
중랑구,망우역.상봉터미널,망우로,07-002,과기부WiFi,127.09035,37.597507
중랑구,먹골역. 묵동자이아파트,묵동175-1,07-104,과기부WiFi,127.0771,37.613594
중랑구,면목2동한신아파트,면목동193-1,07-218,과기부WiFi,127.07392,37.587532
중랑구,면목신우아파트,면목동1518,07-119,과기부WiFi,127.07944,37.580273
중랑구,묵동자이.신도브래뉴아파트,묵동169-12,07-102,과기부WiFi,127.07659,37.61527
중랑구,봉화산역2번출구,신내동640,07-296,과기부WiFi,127.092865,37.616848
중랑구,상봉역.중랑우체국,망우로,07-003,과기부WiFi,127.08376,37.595894
중랑구,상봉역.중랑우체국,망우로,07-004,과기부WiFi,127.08292,37.59555
중랑구,새솔초등학교,신내동 산27-5,07-456,과기부WiFi,127.10852,37.61734
중랑구,신내동성3차아파트,신내동789,07-275,과기부WiFi,127.09534,37.607613
중랑구,양원역입구,망우동237,07-332,과기부WiFi,127.1063,37.60564
중랑구,용마산역,면목동1382-10,07-209,과기부WiFi,127.086395,37.573505
중랑구,용마폭포공원,면목동1502,07-206,과기부WiFi,127.088745,37.57569
중랑구,신내데시앙포레아파트220동앞,신내동 186-3,07-453,과기부WiFi,127.112724,37.615803
중랑구,우림시장.망우사거리,망우로,07-009,과기부WiFi,127.09884,37.59954
중랑구,우림시장.망우사거리,망우로,07-010,과기부WiFi,127.09791,37.59926
중랑구,중랑역.동부시장,망우로,07-005,과기부WiFi,127.076164,37.593983
중랑구,중랑역.동부시장,망우로,07-006,과기부WiFi,127.075096,37.593586
중랑구,중화중학교,면목동57-12,07-197,과기부WiFi,127.09405,37.584
중랑구,지하철6호선화랑대역,묵동 7,07-294,과기부WiFi,127.0856,37.61984
중랑구,지하철7호선상봉역,상봉동 80-15,07-132,과기부WiFi,127.08873,37.59735
중랑구,홈플러스면목동점,면목동168-2,07-243,과기부WiFi,127.08172,37.58113
구로구,구로역,신도림동 413-49,17-154,과기부WiFi,126.88228,37.50455
성북구,KT월곡지사,하월곡동 67-53,08-129,과기부WiFi,127.03519,37.602947
중구,을지로5가,을지로 191 을지로5가(02-165),02-165,과기부WiFi,126.99926,37.56682
중구,광희동,광희동2가 9 광희동(02-171),02-171,과기부WiFi,127.00796,37.564995
중구,버티고개,신당동 432-2864 버티고개(02-236),02-236,과기부WiFi,127.00603,37.547806
중구,버티고개,다산로 38 버티고개(02-237),02-237,과기부WiFi,127.00582,37.547497
중구,금호베스트빌.삼성래미안아파트,신당동 85-745 금호베스트빌.삼성래미안아파트(02-260),02-260,과기부WiFi,127.024345,37.562256
용산구,숙대입구역.청파동주민센터,청파2 123 (청파동2가 120-32) 숙대입구역.청파동주민센터(03-128),03-128,과기부WiFi,126.97078,37.54538
용산구,용산꿈나무종합타운.원효로우체국,원효로1 27-20 (원효로1가 28-68) 용산꿈나무종합타운.원효로우체국(03-141),03-141,과기부WiFi,126.96693,37.538612
용산구,남정초등학교,원효로1 37-3 (원효로2가 27-16) 남정초등학교(03-143),03-143,과기부WiFi,126.96366,37.53632
용산구,원효로2가,원효로1 33-1 (원효로2가 29-1) 원효로2가(03-144),03-144,과기부WiFi,126.96299,37.536236
용산구,국군재정관리단,이태원2 527 (이태원동 586) 국군재정관리단(03-152),03-152,과기부WiFi,126.98706,37.537144
용산구,효창공원앞역,용문동 5-100 효창공원앞역(03-180),03-180,과기부WiFi,126.9625,37.538807
용산구,녹사평역,용산2가 6 녹사평역(03-186),03-186,과기부WiFi,126.98534,37.535053
용산구,용산구청.이태원시장,이태원1 176-2 용산구청.이태원시장(03-188),03-188,과기부WiFi,126.9906,37.534363
용산구,용산구청.이태원시장,이태원1 58-5 용산구청.이태원시장(03-189),03-189,과기부WiFi,126.98991,37.53406
용산구,이태원역1번출구.해밀턴호텔,이태원1 119-4 이태원역1번출구.해밀턴호텔(03-190),03-190,과기부WiFi,126.993,37.53452
용산구,이태원역4번출구.해밀턴호텔,이태원1 128-3 이태원역4번출구.해밀턴호텔(03-191),03-191,과기부WiFi,126.99316,37.534275
용산구,이태원119안전센터,이태원1 124-7 이태원119안전센터(03-192),03-192,과기부WiFi,126.996635,37.53475
용산구,한남동새마을금고,한남동 738-24 한남동새마을금고(03-194),03-194,과기부WiFi,127.00032,37.536846
용산구,한남동주민센터,한남동 683-141 한남동주민센터(03-195),03-195,과기부WiFi,127.0006,37.53671
용산구,한강진역.블루스퀘어,한남동 726-494도 한강진역.블루스퀘어(03-196),03-196,과기부WiFi,127.00167,37.540726
용산구,한강진역.블루스퀘어,한남동 726-494도 한강진역.블루스퀘어(03-197),03-197,과기부WiFi,127.002106,37.540874
용산구,대한노인회,공덕동 139-112 대한노인회(03-238),03-238,과기부WiFi,126.957695,37.543568
용산구,서빙고초등학교,서빙고동 235-1학 서빙고초등학교(03-268),03-268,과기부WiFi,126.99089,37.52117
용산구,한강중학교,서빙고동 10-2 한강중학교(03-269),03-269,과기부WiFi,126.99126,37.52486
용산구,금호베스트빌앞,서빙고동 4-139 금호베스트빌앞(03-270),03-270,과기부WiFi,126.99058,37.522617
용산구,성촌공원.포르쉐센터용산,이촌2 210-5 성촌공원.포르쉐센터용산(03-289),03-289,과기부WiFi,126.95435,37.529747
용산구,이촌2동주민센터,이촌로 46 이촌2동주민센터(03-291),03-291,과기부WiFi,126.95468,37.52794
용산구,서부이촌동입구,이촌로 105 서부이촌동입구(03-294),03-294,과기부WiFi,126.959694,37.52372
용산구,이촌2동강변아파트,이촌동 193-1 이촌2동강변아파트(03-295),03-295,과기부WiFi,126.95978,37.523445
용산구,서빙고동금호베스트빌,서빙고로51길 52 서빙고동금호베스트빌(03-323),03-323,과기부WiFi,126.99099,37.522614
용산구,서빙고초등학교,서빙고로51길 9 서빙고초등학교(03-336),03-336,과기부WiFi,126.99061,37.52084
용산구,신용산역,한강로2가 422-1 신용산역(03-561),03-561,과기부WiFi,126.96745,37.529915
용산구,청암자이아파트,삼개로 60 청암자이아파트(03-689),03-689,과기부WiFi,126.946556,37.534546
성동구,한양대부속고등학교,행당동11-5 한양대부속고등학교(04-125),04-125,과기부WiFi,127.04159,37.561115
성동구,왕십리역,행당동250 왕십리역(04-133),04-133,과기부WiFi,127.036194,37.559948
성동구,대경중입구,금호동1가 105-1 대경중입구(04-143),04-143,과기부WiFi,127.02004,37.556274
성동구,신금호역,금호동1가 1-5 신금호역(04-146),04-146,과기부WiFi,127.0199,37.555267
성동구,금호고등학교.금호자이1차아파트입구,금호동853 금호고등학교.금호자이1차아파트입구(04-148),04-148,과기부WiFi,127.022934,37.55311
성동구,금옥초등학교앞,금호동4가631 금옥초등학교앞(04-157),04-157,과기부WiFi,127.01989,37.546967
성동구,성동세무서,송정동66-270 성동세무서(04-213),04-213,과기부WiFi,127.06434,37.54824
성동구,뚝섬서울숲,성수동1가 685-30 뚝섬서울숲(04-222),04-222,과기부WiFi,127.03641,37.54454
성동구,뚝섬역8번출구,성수동1가656-1034 뚝섬역8번출구(04-236),04-236,과기부WiFi,127.04566,37.547585
성동구,왕십리자이.신당현대아파트,하왕십리동1000-406 왕십리자이.신당현대아파트(04-290),04-290,과기부WiFi,127.02415,37.56125
광진구,중곡역,중곡동30-1 중곡역(05-133),05-133,과기부WiFi,127.08455,37.566048
광진구,중곡동종점,중곡동150-66 중곡동종점(05-137),05-137,과기부WiFi,127.08731,37.562695
광진구,구의역2번출구,구의동243-4 구의역2번출구(05-149),05-149,과기부WiFi,127.087975,37.537704
동대문구,신설동역,신설동 98-24 신설동역(06-102),06-102,과기부WiFi,127.02595,37.576244
동대문구,이문동삼익아파트,이문동64 이문동삼익아파트(06-135),06-135,과기부WiFi,127.06836,37.595104
동대문구,답십리2동시온교회앞,답십리 258-4 답십리2동시온교회앞(06-196),06-196,과기부WiFi,127.0574,37.570595
동대문구,대한노인회동대문구지회,전농동 295-12 대한노인회동대문구지회(06-207),06-207,과기부WiFi,127.05577,37.57605
동대문구,배봉초등학교.전농우성아파트,전농동 2-66 배봉초등학교.전농우성아파트(06-210),06-210,과기부WiFi,127.06729,37.578697
동대문구,래미안크레시티.답십리도서관,답십리동 521-1 래미안크레시티.답십리도서관(06-220),06-220,과기부WiFi,127.05025,37.574562
동대문구,이문동현대아파트앞,이문동 54-2 이문동현대아파트앞(06-254),06-254,과기부WiFi,127.07063,37.600986
동대문구,한국과학기술원.홍릉초등학교,청량리동206-44 한국과학기술원.홍릉초등학교(06-275),06-275,과기부WiFi,127.04685,37.591507
동대문구,이문동쌍용아파트,이문동 59 이문동쌍용아파트(06-302),06-302,과기부WiFi,127.06928,37.59895
중랑구,한국전력동부지사,묵동188-5 한국전력동부지사(07-106),07-106,과기부WiFi,127.07883,37.606037
중랑구,중랑구청,신내동 664 중랑구청(07-267),07-267,과기부WiFi,127.094284,37.60664
중랑구,신내9단지아파트,신내동659 신내9단지아파트(07-278),07-278,과기부WiFi,127.09599,37.61057
중랑구,서울특별시북부병원,망우동227 서울특별시북부병원(07-330),07-330,과기부WiFi,127.10722,37.603966
중랑구,송곡여고양원역,망우동 244-38 송곡여고양원역(07-355),07-355,과기부WiFi,127.10584,37.60588
중랑구,서울의료원후문,신내동 315-5 서울의료원후문(07-433),07-433,과기부WiFi,127.09824,37.613743
중랑구,늘푸른근린공원,면목동 162-22 늘푸른근린공원(07-466),07-466,과기부WiFi,127.07985,37.58289
성북구,석관동주민센터,장위동 7  8-1 석관동주민센터(08-145),08-145,과기부WiFi,127.06158,37.613533
성북구,보문동주민센터,보문동7가 112-3 보문동주민센터(08-184),08-184,과기부WiFi,127.022484,37.579834
성북구,광운초교앞,성북구 장위동 158-56 광운초교앞(08-187),08-187,과기부WiFi,127.05284,37.6203
성북구,장위래미안아파트,장위동 276-41 장위래미안아파트(08-239),08-239,과기부WiFi,127.052246,37.618885
성북구,장위래미안아파트,장위동 149-72 장위래미안아파트(08-242),08-242,과기부WiFi,127.05249,37.61867
성북구,밤나무골시장,하월곡동8-74 밤나무골시장(08-285),08-285,과기부WiFi,127.03568,37.609455
강북구,수유2동주민센터우이시장,수유동256-2 수유2동주민센터우이시장(09-126),09-126,과기부WiFi,127.01943,37.64509
강북구,송중동한일유엔아이,장위동 231-619 송중동한일유엔아이(09-188),09-188,과기부WiFi,127.03796,37.61375
강북구,미양중고등학교.팔팔?미송경로당,미아동 1354-12 미양중고등학교.팔팔&middot;미송경로당(09-217),09-217,과기부WiFi,127.01314,37.623367
강북구,SK아파트벽산아파트상가,미아동 1354 SK아파트벽산아파트상가(09-226),09-226,과기부WiFi,127.011345,37.619938
강북구,번동동문아파트,번동 122-3 번동동문아파트(09-237),09-237,과기부WiFi,127.03776,37.623547
강북구,번동동문아파트,번동 123 동문굿모닝힐(09-238),09-238,과기부WiFi,127.03745,37.62374
강북구,송중초등학교,미아동 90-2 송중초등학교(09-245),09-245,과기부WiFi,127.03165,37.616554
도봉구,도봉동한신아파트,도봉동 62-20 도봉동한신아파트(10-104),10-104,과기부WiFi,127.04596,37.682106
도봉구,도봉소방서,방학동 707-1 도봉소방서(10-113),10-113,과기부WiFi,127.04319,37.665676
도봉구,자운고등학교앞,노해로69길 103 동아청솔아파트 자운고등학교앞(10-140),10-140,과기부WiFi,127.04967,37.65868
도봉구,창동동아청솔아파트,창4동 808 창동동아청솔아파트(10-142),10-142,과기부WiFi,127.04958,37.65667
도봉구,창동동아아파트,창4동 33-1 창동동아아파트(10-147),10-147,과기부WiFi,127.05147,37.65193
도봉구,창동동아아파트,창4동 26 창동동아아파트(10-148),10-148,과기부WiFi,127.05139,37.65148
도봉구,쌍문동청구아파트,쌍문2동 13-7 쌍문동청구아파트(10-177),10-177,과기부WiFi,127.03512,37.659573
도봉구,국민은행방학지점,방학동 665-12 국민은행방학지점(10-192),10-192,과기부WiFi,127.03411,37.662594
도봉구,신한은행방학동지점,방학로 137 신한은행방학동지점(10-193),10-193,과기부WiFi,127.037,37.662655
도봉구,서울문화고등학교,방학1동 713-35 서울문화고등학교(10-197),10-197,과기부WiFi,127.04631,37.662872
도봉구,서울문화고등학교,방학동 723-25 서울문화고등학교(10-199),10-199,과기부WiFi,127.048195,37.662548
도봉구,쌍문동성원아파트,쌍문동 252-6 쌍문동성원아파트(10-211),10-211,과기부WiFi,127.02854,37.657825
도봉구,창동서울탁주앞,창동 552-48 창동서울탁주앞(10-250),10-250,과기부WiFi,127.037285,37.637665
도봉구,창동고등학교,창동 694-10 창동고등학교(10-305),10-305,과기부WiFi,127.03857,37.651295
도봉구,태영데시앙아파트,창동 819 태영데시앙아파트(10-311),10-311,과기부WiFi,127.03245,37.642384
도봉구,창동.신창시장,창동 557-89 창동.신창시장(10-330),10-330,과기부WiFi,127.038475,37.638847
도봉구,신창.창동시장,창동 581-76 신창.창동시장(10-331),10-331,과기부WiFi,127.03835,37.63908
도봉구,상아아파트,노해로63가길 7 상아아파트(10-704),10-704,과기부WiFi,127.043,37.653164
도봉구,북한산아이파크,창동 825-1 북한산아이파크(10-713),10-713,과기부WiFi,127.04197,37.65899
도봉구,서울문화고등학교,방학동 726-119 서울문화고등학교(10-740),10-740,과기부WiFi,127.04675,37.663647
노원구,화랑대역1번출구,공릉동60-1 화랑대역1번출구(11-118),11-118,과기부WiFi,127.08328,37.61978
노원구,서울과학기술대앞,공릉2 172-29 서울과학기술대앞(11-121),11-121,과기부WiFi,127.07602,37.63027
노원구,효성화운트빌,공릉동산42-2 효성화운트빌(11-133),11-133,과기부WiFi,127.08504,37.628265
노원구,화랑타운아파트,공릉2 110-1 화랑타운아파트(11-137),11-137,과기부WiFi,127.08675,37.623608
노원구,화랑대역2번출구,공릉동90-2 화랑대역2번출구(11-139),11-139,과기부WiFi,127.08359,37.62022
노원구,태릉국제사격장,공릉동26-24 태릉국제사격장(11-147),11-147,과기부WiFi,127.09618,37.628193
노원구,한국스포츠정책과학원,공릉동26-18 한국스포츠정책과학원(11-152),11-152,과기부WiFi,127.10628,37.635593
노원구,담터고개,공릉동 26-94 담터고개(11-156),11-156,과기부WiFi,127.11129,37.64084
노원구,공연초등학교,공릉동 389-17 공연초등학교(11-176),11-176,과기부WiFi,127.07554,37.626724
노원구,청원고등학교,상계동680 청원고등학교(11-190),11-190,과기부WiFi,127.06172,37.66505
노원구,수락리버시티아파트,경기 의정부 장암동415-3 수락리버시티아파트(11-202),11-202,과기부WiFi,127.05521,37.68933
노원구,롯데백화점노원점,상계동716-1 롯데백화점노원점(11-212),11-212,과기부WiFi,127.06254,37.65487
노원구,상계119안전센터,상계동1309 상계119안전센터(11-218),11-218,과기부WiFi,127.071495,37.65396
노원구,벽산아파트103동,상계동 173 벽산아파트103동(11-243),11-243,과기부WiFi,127.071815,37.660706
노원구,상계주공2단지,상계동740 상계주공2단지(11-254),11-254,과기부WiFi,127.06042,37.651108
노원구,상계중학교,상계동455-5 상계중학교(11-261),11-261,과기부WiFi,127.06782,37.652355
노원구,상경초등학교,상계동621 상경초등학교(11-266),11-266,과기부WiFi,127.051834,37.67083
노원구,보람아파트1단지,상계동684 보람아파트1단지(11-274),11-274,과기부WiFi,127.06545,37.66441
노원구,상계주공12단지1202동,상계동647 상계주공12단지1202동(11-277),11-277,과기부WiFi,127.05979,37.66492
노원구,광운대역,월계동 418-12 광운대역(11-278),11-278,과기부WiFi,127.06161,37.6226
노원구,광운대학교,월계동447-1 광운대학교(11-285),11-285,과기부WiFi,127.0588,37.62034
노원구,인덕대학교,월계동600 인덕대학교(11-309),11-309,과기부WiFi,127.05555,37.628605
노원구,한진한화그랑빌아파트,월계동18 한진한화그랑빌아파트(11-313),11-313,과기부WiFi,127.06986,37.618256
노원구,한천초등학교,월계동18 한천초등학교(11-314),11-314,과기부WiFi,127.06978,37.61941
노원구,월계미성아파트,월계3 7 월계미성아파트(11-317),11-317,과기부WiFi,127.06945,37.621616
노원구,월계미륭아파트,월계3 17 월계미륭아파트(11-318),11-318,과기부WiFi,127.06839,37.623108
노원구,월계삼호4차아파트,월계3 203-1 월계삼호4차아파트(11-322),11-322,과기부WiFi,127.06583,37.626465
노원구,인덕대앞,월계동635-4 인덕대앞(11-338),11-338,과기부WiFi,127.05751,37.62904
노원구,노원구민체육센터,중계1동 361 노원구민체육센터(11-356),11-356,과기부WiFi,127.07096,37.647556
노원구,을지중학교,중계1 360-19학 을지중학교(11-360),11-360,과기부WiFi,127.07091,37.650208
노원구,원광초등학교,중계동359-3 원광초등학교(11-365),11-365,과기부WiFi,127.07675,37.65446
노원구,목련아파트상가,중계동514-3 목련아파트상가(11-380),11-380,과기부WiFi,127.06988,37.64686
노원구,2001아울렛중계점,중계동 509 (동일로204가길 46),11-384,과기부WiFi,127.067665,37.64169
노원구,대진여자고등학교,중계동514 대진여자고등학교(11-388),11-388,과기부WiFi,127.0671,37.644684
노원구,청계초등학교,중계동513-1 청계초등학교(11-389),11-389,과기부WiFi,127.06693,37.64451
노원구,중계주공4단지,중계동358-2 중계주공4단지(11-396),11-396,과기부WiFi,127.078,37.65505
노원구,노원문화예술회관.불암초등학교,중계동366-2 노원문화예술회관.불암초등학교(11-402),11-402,과기부WiFi,127.08016,37.650677
노원구,중계본동주민센터,중계본동 583 중계본동주민센터(11-406),11-406,과기부WiFi,127.08068,37.647472
노원구,노원경찰서,하계동 250-3 노원경찰서(11-438),11-438,과기부WiFi,127.07219,37.641792
노원구,홈플러스중계점,하계동285 홈플러스중계점(11-443),11-443,과기부WiFi,127.069115,37.640266
노원구,경기기계공업고등학교,하계1  274-4 경기기계공업고등학교(11-445),11-445,과기부WiFi,127.07405,37.630928
노원구,상계주공2단지상가,상계동740-3 상계주공2단지상가(11-463),11-463,과기부WiFi,127.05723,37.65032
노원구,청구빌라.연촌초등학교,하계1동 277 청구빌라.연촌초등학교(11-466),11-466,과기부WiFi,127.071594,37.63506
노원구,청구빌라.연촌초등학교,하계1동 278 청구빌라.연촌초등학교(11-467),11-467,과기부WiFi,127.07153,37.63528
노원구,경춘선숲길방문자센터,하계동274 경춘선숲길방문자센터(11-505),11-505,과기부WiFi,127.07058,37.631767
은평구,은평구청,은평로 203 은평구청(12-126),12-126,과기부WiFi,126.930405,37.60143
은평구,은평구청,은평로 204 은평구청(12-135),12-135,과기부WiFi,126.9303,37.601162
은평구,구산사거리,서오릉로 196 구산사거리(12-142),12-142,과기부WiFi,126.91248,37.613613
은평구,구산사거리,서오릉로 191 구산사거리(12-149),12-149,과기부WiFi,126.91254,37.61324
은평구,신흥시장,신사동 34-48 신흥시장(12-168),12-168,과기부WiFi,126.914566,37.5954
은평구,새절역,신사동 337-3 새절역(12-169),12-169,과기부WiFi,126.91345,37.591187
은평구,와산교,증산로 353 와산교(12-170),12-170,과기부WiFi,126.9127,37.58789
은평구,역촌초등학교,역촌동 36-4 역촌초등학교(12-179),12-179,과기부WiFi,126.91605,37.60218
은평구,역말사거리,역촌동 9-54 역말사거리(12-180),12-180,과기부WiFi,126.91556,37.606148
은평구,백화사,진관내동 301-3대 백화사(12-231),12-231,과기부WiFi,126.93896,37.65355
은평구,서부경찰서,진흥로 55 서부경찰서후문(12-259),12-259,과기부WiFi,126.92033,37.60171
은평구,수색대림아파트,은평터널로 65 수색대림아파트(12-323),12-323,과기부WiFi,126.90027,37.5861
은평구,수색초등학교,수색동 136-50 수색초등학교(12-324),12-324,과기부WiFi,126.89771,37.584244
은평구,역촌동성당,역말로 14 역촌동성당(12-393),12-393,과기부WiFi,126.91167,37.605427
은평구,녹번동대림JR아파트앞,통일로 586 녹번동대림JR아파트앞(12-421),12-421,과기부WiFi,126.93706,37.59931
은평구,생태공원앞,진관4로 48-25 생태공원앞(12-434),12-434,과기부WiFi,126.92897,37.644073
은평구,응암초교.백련산힐스테이트3차,응암동 761-4  응암초교.백련산힐스테이트3차(12-473),12-473,과기부WiFi,126.922714,37.588776
서대문구,홍은현대아파트,연희로 377 홍은현대아파트(13-163),13-163,과기부WiFi,126.938736,37.590218
서대문구,동도하이츠아파트,응암로 140 동도하이츠아파트(13-178),13-178,과기부WiFi,126.915016,37.58468
서대문구,서대문구청,홍제천로 198 서대문구청(13-208),13-208,과기부WiFi,126.934875,37.579052
서대문구,북가좌119안전센터,증가로 248 북가좌119안전센터(13-237),13-237,과기부WiFi,126.9124,37.58315
서대문구,미동초등학교,충정로 47 미동초등학교(13-240),13-240,과기부WiFi,126.96445,37.56316
서대문구,북가좌초등학교현대아파트앞,응암로 33 북가좌초등학교현대아파트앞(13-242),13-242,과기부WiFi,126.90844,37.576786
마포구,상암휴먼시아아파트,상암동 30-12 상암휴먼시아아파트(14-165),14-165,과기부WiFi,126.89538,37.575237
마포구,성산2교,성산동 54-7 성산2교(14-185),14-185,과기부WiFi,126.91247,37.56423
마포구,성산2교,성산동 99-6 성산2교(14-199),14-199,과기부WiFi,126.91264,37.565693
마포구,한강밤섬자이아파트,상수동 51-1 한강밤섬자이아파트(14-310),14-310,과기부WiFi,126.927795,37.545734
양천구,금호어울림.대원칸타빌아파트,목4 797-2 금호어울림.대원칸타빌아파트(15-102),15-102,과기부WiFi,126.86634,37.53262
양천구,신정네거리역,중앙로 265 신정네거리역(15-303),15-303,과기부WiFi,126.85282,37.51985
양천구,금옥중.금옥여고.백암고등학교,신정로 213 금옥중.금옥여고.백암고등학교(15-309),15-309,과기부WiFi,126.84458,37.509853
양천구,가로공원공영주차장.신영시장,가로공원로 154 가로공원공영주차장.신영시장(15-336),15-336,과기부WiFi,126.832855,37.536297
양천구,목동3.4단지사잇길,목동 903-5 목동3.4단지사잇길(15-556),15-556,과기부WiFi,126.87164,37.5328
강서구,한국폴리텍1.서울강서대학교,화곡본동 24-128 한국폴리텍1.서울강서대학교(16-143),16-143,과기부WiFi,126.845276,37.54609
강서구,아이파크아파트.백석중학교.실로암안과,등촌2 513-14 아이파크아파트.백석중학교.실로암안과(16-174),16-174,과기부WiFi,126.862144,37.545143
강서구,목동사거리,화곡4 775-5 목동사거리(16-178),16-178,과기부WiFi,126.86351,37.532764
강서구,화원중학교,가로공원로 219 화원중학교(16-202),16-202,과기부WiFi,126.84043,37.537975
강서구,명덕고등학교.웰튼병원,내발산동 677-9 명덕고등학교.웰튼병원(16-215),16-215,과기부WiFi,126.8367,37.55312
강서구,명덕고등학교.웰튼병원,내발산동 678-7 명덕고등학교.웰튼병원(16-216),16-216,과기부WiFi,126.83637,37.55329
강서구,마곡나루역4번출구,마곡동 372-8 마곡나루역4번출구(16-385),16-385,과기부WiFi,126.82781,37.565052
강서구,마곡나루역5번출구,마곡동 372-6 마곡나루역5번출구(16-386),16-386,과기부WiFi,126.82749,37.565052
강서구,마곡역교차로,마곡동 727-1113 마곡역교차로(16-387),16-387,과기부WiFi,126.82844,37.55937
강서구,이대서울병원,마곡동 727-1184 이대서울병원(16-388),16-388,과기부WiFi,126.83456,37.558746
강서구,마곡나루역,마곡동 366-2 마곡나루역(16-396),16-396,과기부WiFi,126.82594,37.56678
강서구,마곡나루역1번출구,마곡동 367-11 마곡나루역1번출구(16-399),16-399,과기부WiFi,126.82655,37.566956
강서구,마곡수명산파크7단지,내발산동 754-3 마곡수명산파크7단지(16-421),16-421,과기부WiFi,126.82276,37.54932
강서구,발산역9번출구,가양동 972 발산역9번출구(16-429),16-429,과기부WiFi,126.836685,37.558853
강서구,마곡나루역,마곡동 280-2 마곡나루역(16-606),16-606,과기부WiFi,126.82763,37.567184
강서구,롯데R&D센터,마곡동 295-3 롯데R&D센터(16-608),16-608,과기부WiFi,126.827866,37.569912
구로구,신도림역,새말로 121-15 신도림역(17-102),17-102,과기부WiFi,126.89157,37.507015
구로구,서울미래초등학교,구로동 50-1 서울미래초등학교(17-103),17-103,과기부WiFi,126.88945,37.5051
구로구,서울미래초등학교,구로동 22-4 서울미래초등학교(17-104),17-104,과기부WiFi,126.88932,37.505253
구로구,구로고등학교,구로4 97-3 구로고등학교(17-109),17-109,과기부WiFi,126.89166,37.49652
구로구,대림역,구로동 148-8 대림역(17-115),17-115,과기부WiFi,126.894005,37.49124
구로구,구로종합사회복지관,구로3 779-39 구로종합사회복지관(17-119),17-119,과기부WiFi,126.88917,37.487892
구로구,우리유앤미아파트,구로2 481-7 우리유앤미아파트(17-141),17-141,과기부WiFi,126.882385,37.496773
구로구,개봉사거리,개봉1 161-4 개봉사거리(17-164),17-164,과기부WiFi,126.857185,37.49717
구로구,연세중앙교회,오류동 331-6  연세중앙교회(17-179),17-179,과기부WiFi,126.83543,37.493107
구로구,구로청소년문화의집.구로검사소,오류동 91-6 구로청소년문화의집(17-181),17-181,과기부WiFi,126.83342,37.493088
구로구,우신고등학교,궁동 231-12 우신고등학교(17-182),17-182,과기부WiFi,126.83085,37.4933
구로구,우신고등학교,오류동 100-11 우신고등학교(17-183),17-183,과기부WiFi,126.83045,37.493065
구로구,정진학교.온수힐스테이트아파트,온수동 142-1 정진학교.온수힐스테이트아파트(17-187),17-187,과기부WiFi,126.82214,37.496975
구로구,수궁119안전센터,오리로 1293 수궁119안전센터(17-191),17-191,과기부WiFi,126.82933,37.496784
구로구,구로우체국.이펜하우스5단지후문,천왕동 38-5 구로우체국.이펜하우스5단지후문(17-201),17-201,과기부WiFi,126.84277,37.48103
구로구,오류2동주민센터,오류로 44 오류2동주민센터(17-203),17-203,과기부WiFi,126.839874,37.48862
구로구,오류2동새마을금고,오류로 65 오류2동새마을금고(17-206),17-206,과기부WiFi,126.84058,37.490803
구로구,대원주유소,개봉3 403-190 대원주유소(17-207),17-207,과기부WiFi,126.85653,37.486935
구로구,구일우성아파트,구로동 685-524 구일우성아파트(17-242),17-242,과기부WiFi,126.87595,37.48956
구로구,연세중앙교회,수궁동 199-1 연세중앙교회(17-248),17-248,과기부WiFi,126.83598,37.4933
구로구,우성3차아파트,신도림동 639 우성3차아파트(17-292),17-292,과기부WiFi,126.885826,37.512684
구로구,궁동입구,부일로15길 4 궁동입구(17-300),17-300,과기부WiFi,126.83421,37.493454
구로구,금강수목원아파트,오류동 263-7 금강수목원아파트(17-801),17-801,과기부WiFi,126.83441,37.48948
구로구,우성아파트,신도림동 312-17 우성아파트(17-831),17-831,과기부WiFi,126.88554,37.511456
금천구,에이스하이엔드타워5차,가산동 505-3장 에이스하이엔드타워5차(18-103),18-103,과기부WiFi,126.87935,37.485615
금천구,디지털3단지.(주)로옴코리아,가산동 444-5 디지털3단지.(주)로옴코리아(18-109),18-109,과기부WiFi,126.879974,37.479473
금천구,독산고개,독산동 967-12 독산고개(18-147),18-147,과기부WiFi,126.89895,37.476246
금천구,산업단지백양사,가산디지털1로 131 산업단지백양사(18-671),18-671,과기부WiFi,126.88292,37.47701
금천구,대륭테크노타운17차,가산동 319-7  대륭테크노타운17차(18-689),18-689,과기부WiFi,126.88664,37.468513
영등포구,당산역,당산동5가 9-3 당산역(19-177),19-177,과기부WiFi,126.90086,37.532806
영등포구,당산유원제일1차아파트,당산동4가 92-3 당산유원제일1차아파트(19-183),19-183,과기부WiFi,126.89601,37.528484
영등포구,현대6차아파트,선유서로 31 현대6차아파트(19-196),19-196,과기부WiFi,126.88433,37.518196
영등포구,당중초등학교,양평동3가 49-1 당중초등학교(19-206),19-206,과기부WiFi,126.89098,37.526997
영등포구,오산당요양병원,양평동1가 119 오산당요양병원(19-208),19-208,과기부WiFi,126.89029,37.524097
영등포구,성락교회,신길동 355-74잡 성락교회(19-235),19-235,과기부WiFi,126.90287,37.50475
영등포구,영등포농협.신길2동새마을금고,도신로 188 영등포농협.신길2동새마을금고(19-240),19-240,과기부WiFi,126.91223,37.510895
영등포구,신길5동주민센터,신길동 420-22 신길5동주민센터(19-242),19-242,과기부WiFi,126.90554,37.500656
영등포구,대동초등학교,대림동 709-1 대동초등학교(19-265),19-265,과기부WiFi,126.89889,37.49396
영등포구,대동초등학교,대림동 702학 대동초등학교(19-266),19-266,과기부WiFi,126.90066,37.49366
영등포구,대림역,도림로 129 대림역(19-270),19-270,과기부WiFi,126.89647,37.492764
영등포구,대동초등학교,대림동 710-14 대동초등학교(19-271),19-271,과기부WiFi,126.8987,37.49417
영등포구,신영초등학교,대림로 236 신영초등학교(19-275),19-275,과기부WiFi,126.89714,37.501625
영등포구,한국방송통신대,대림동 784-2 한국방송통신대(19-276),19-276,과기부WiFi,126.89617,37.503014
영등포구,중소기업전시장,여의도동 22 중소기업전시장(19-282),19-282,과기부WiFi,126.928185,37.525005
영등포구,여의도한양아파트,국제금융로 79 여의도한양아파트(19-286),19-286,과기부WiFi,126.93207,37.52092
영등포구,대림3동주민센터,대림동 692-1 대림3동주민센터(19-294),19-294,과기부WiFi,126.898865,37.497646
영등포구,대림3동사거리.명지춘혜병원,대림로 222 대림3동사거리.명지춘혜병원(19-327),19-327,과기부WiFi,126.89764,37.500477
영등포구,현대2차아파트,대림동 785 현대2차아파트(19-328),19-328,과기부WiFi,126.894775,37.5031
영등포구,꼬추말,도신로29길 28 꼬추말(19-405),19-405,과기부WiFi,126.90601,37.511932
영등포구,도림사거리,도림동 150-16 도림사거리(19-407),19-407,과기부WiFi,126.90127,37.50705
영등포구,당산신동아파밀리에,당산동1가 457 당산신동아파밀리에(19-435),19-435,과기부WiFi,126.90078,37.519974
영등포구,서울시립청소년성문화센터,당산동3가 562 서울시립청소년성문화센터(19-438),19-438,과기부WiFi,126.90231,37.52515
영등포구,영등포농협당산역지점,영중로 163 영등포농협당산역지점(19-453),19-453,과기부WiFi,126.9049,37.53068
영등포구,수정교회,대림동 665-8 수정교회(19-457),19-457,과기부WiFi,126.898445,37.500828
영등포구,대성유니드아파트,신길동 404-55 대성유니드아파트(19-709),19-709,과기부WiFi,126.90272,37.501167
동작구,사육신공원,노량진로 184  사육신공원(20-117),20-117,과기부WiFi,126.94619,37.513374
동작구,흑석동효사정앞,흑석동 259-1 흑석동효사정앞(20-124),20-124,과기부WiFi,126.961235,37.511574
동작구,성대시장,상도로47길 66 성대시장(20-147),20-147,과기부WiFi,126.93091,37.499996
동작구,숭실대정문앞,상도 505-5 숭실대정문앞(20-169),20-169,과기부WiFi,126.957054,37.49515
동작구,숭실대별관앞,상도 509-4 숭실대별관앞(20-171),20-171,과기부WiFi,126.9603,37.49464
동작구,총신대,사당5 203-6 총신대(20-175),20-175,과기부WiFi,126.96641,37.48775
동작구,사당중학교,사당로 169 사당중학교(20-177),20-177,과기부WiFi,126.96818,37.486637
동작구,남성역,사당로14가길 26 남성역(20-179),20-179,과기부WiFi,126.97061,37.484715
동작구,동작구청.노량진초등학교앞,노량진2 235-4 동작구청.노량진초등학교앞(20-190),20-190,과기부WiFi,126.94003,37.510372
동작구,동작구청.노량진초등학교앞,노량진1 232-146 동작구청.노량진초등학교앞(20-191),20-191,과기부WiFi,126.94034,37.510452
동작구,장성교회,노량진2 307-15 장성교회(20-192),20-192,과기부WiFi,126.93997,37.50821
동작구,청화병원,장승배기로 108 청화병원(20-193),20-193,과기부WiFi,126.94008,37.507244
동작구,7호선장승배기역.상도2치안센터,상도2 367-8,상도2치안센터(20-197),과기부WiFi,126.93913,37.504173
동작구,동작구청정문,노량진2 47-2 동작구청정문(20-240),20-240,과기부WiFi,126.94006,37.51238
동작구,노들역앞,본동 229-2 노들역앞(20-247),20-247,과기부WiFi,126.95226,37.513264
관악구,봉천역.관악초등학교,봉천동 926-30 봉천역.관악초등학교(21-106),21-106,과기부WiFi,126.94334,37.48237
관악구,낙성대동,남부순환로 1870 낙성대동(21-122),21-122,과기부WiFi,126.957504,37.479183
관악구,신성초등학교,신림로 108 신성초등학교(21-144),21-144,과기부WiFi,126.93724,37.471
관악구,난우중학교입구,신림동 697-46 난우중학교입구(21-213),21-213,과기부WiFi,126.92035,37.467392
관악구,호림박물관,남부순환로 1512  호림박물관(21-361),21-361,과기부WiFi,126.91862,37.48237
서초구,지하철2호선교대역2,서초대로 306 지하철2호선교대역2(22-103),22-103,과기부WiFi,127.015236,37.4939
서초구,남부터미널,남부순환로 2433-4 남부터미널(22-153),22-153,과기부WiFi,127.01687,37.481956
서초구,지하철2호선교대역4출구,서초대로 311 지하철2호선교대역4출구(22-170),22-170,과기부WiFi,127.01584,37.494473
서초구,강남역,강남대로 421 강남역(22-173),22-173,과기부WiFi,127.02632,37.499928
서초구,형촌마을입구(서초네이처힐1.2단지),우면동 711 형촌마을입구(서초네이처힐1.2단지)(22-372),22-372,과기부WiFi,127.02152,37.46357
서초구,신논현역.BSX빌딩,서초동 1373 신논현역BSX빌딩(22-407),22-407,과기부WiFi,127.02567,37.50128
강남구,세관앞,논현동238-10 세관앞(23-134),23-134,과기부WiFi,127.0365,37.515522
강남구,논현고개,논현동216-5 논현고개(23-146),23-146,과기부WiFi,127.032104,37.511448
강남구,진선여자중고등학교,대치동897-2 진선여자중고등학교(23-258),23-258,과기부WiFi,127.049965,37.502743
강남구,신논현역,역삼동 601-1 신논현역(23-266),23-266,과기부WiFi,127.02576,37.504635
강남구,신논현역.구교보타워사거리,역삼동814-3 신논현역.구교보타워사거리(23-286),23-286,과기부WiFi,127.02579,37.50236
강남구,강남보건소.강남구립국제교육원,삼성동8-2 강남보건소.강남구립국제교육원(23-290),23-290,과기부WiFi,127.04204,37.51552
강남구,양재역말죽거리.강남베드로병원,도곡동914-3 양재역말죽거리.강남베드로병원(23-318),23-318,과기부WiFi,127.03797,37.485252
강남구,뱅뱅사거리.구영동중학교,도곡동 949-2 뱅뱅사거리구영동중학교(23-319),23-319,과기부WiFi,127.03281,37.487724
강남구,원불교앞,도곡동515-1 원불교앞(23-322),23-322,과기부WiFi,127.04236,37.48356
강남구,탄천교,대치동1009-5 탄천교(23-435),23-435,과기부WiFi,127.06812,37.501358
강남구,포이초교,개포동1273 포이초교(23-517),23-517,과기부WiFi,127.05256,37.475273
강남구,도곡한신아파트,도곡동 207-16 도곡한신아파트(23-529),23-529,과기부WiFi,127.041435,37.486546
송파구,아주중학교,잠실동 305-21 아주중학교(24-165),24-165,과기부WiFi,127.07778,37.50518
송파구,삼전역,삼전동 23 삼전역(24-166),24-166,과기부WiFi,127.088905,37.503815
송파구,배명중고교,석촌동 217-4 배명중고교(24-184),24-184,과기부WiFi,127.09691,37.49971
송파구,송파나루역,방이동 18-4 송파나루역(24-214),24-214,과기부WiFi,127.11167,37.51068
송파구,가락동미륭아파트,가락동 137-2 가락동미륭아파트(24-344),24-344,과기부WiFi,127.128235,37.49266
송파구,개롱역3번출구,가락동167 개롱역3번출구(24-348),24-348,과기부WiFi,127.135254,37.497643
송파구,가락1동주민센터,가락동 479 가락1동주민센터(24-390),24-390,과기부WiFi,127.10985,37.496296
강동구,천호동공원,천호동 258 천호동공원(25-158),25-158,과기부WiFi,127.126175,37.54587
강동구,서울현대요양병원,천호동 334-2 서울현대요양병원(25-159),25-159,과기부WiFi,127.12482,37.54292
강동구,강일리버파크10단지.9단지,강일동424-1  강일리버파크10단지.9단지(25-329),25-329,과기부WiFi,127.17972,37.55956
강동구,강일리버파크9단지후문,강일동 699 강일리버파크9단지후문(25-340),25-340,과기부WiFi,127.1799,37.561718
광진구,화양리,군자동361-32,05-250,과기부WiFi,127.071365,37.548016
성동구,경동초등학교입구,성수동1가19-1,04-243,과기부WiFi,127.049515,37.54352
강서구,공항동천주교회,공항동 687-15,16-160,과기부WiFi,126.81192,37.555637
동대문구,휘경2동주민센터,휘경동367,06-256,과기부WiFi,127.06805,37.590736
중구,서울역서부,중림동 106-3,02-105,과기부WiFi,126.96928,37.557
송파구,방이역,오금동 17-19,24-248,과기부WiFi,127.126595,37.508987
은평구,역촌중앙시장,갈현동 469-18,12-141,과기부WiFi,126.914536,37.61283
도봉구,보건소,방학로3길 117,보건소 1층 외부(컨테이너),공공WIFI,127.03874,37.65801
도봉구,방학2동,방학동 617-5,방학동 615-5(S020),공공WIFI,127.03196,37.66651
도봉구,뒷말어린이공원 옆CCTV,방학동 632-1번지,뒷말어린이공원 옆CCTV (C2113),공공WIFI,127.03396,37.66464
도봉구,창동 골목시장,덕릉로 236,창동 골목시장(C4126),공공WIFI,127.03974,37.63818
도봉구,창3동 마을마당,창3동 504-21,창3동 마을마당(P142),공공WIFI,127.04137,37.63339
도봉구,창4동,창동 산24번지 초안산근린1(유아숲체험장1),P190,공공WIFI,127.039536,37.649666
도봉구,창4동,창동 산24번지 초안산근린1(유아숲체험장2_삼양맨션쪽 입구),P148,공공WIFI,127.03907,37.64898
도봉구,창동역 농구장,창동 135-1 창동역,창동역농구장(C4036),공공WIFI,127.04797,37.65376
도봉구,다목적체육센터,도봉동 652,용역원대기실(女) B2F,공공WiFi,127.05038,37.681355
도봉구,다목적체육센터,도봉동 652,방재실 B1F,공공WiFi,127.05038,37.681355
도봉구,다목적체육센터,도봉동 652,로비 출입문 앞 1F,공공WiFi,127.05038,37.681355
도봉구,다목적체육센터,도봉동 652,남자탈의실 1F,공공WiFi,127.05038,37.681355
도봉구,다목적체육센터,도봉동 652,여자탈의실 1F,공공WiFi,127.05038,37.681355
도봉구,다목적체육센터,도봉동 652,로비인포데스크위 1F,공공WiFi,127.05038,37.681355
도봉구,다목적체육센터,도봉동 652,북카페 2F,공공WiFi,127.05038,37.681355
도봉구,다목적체육센터,도봉동 652,사무실 출입문 앞 2F,공공WiFi,127.05038,37.681355
도봉구,다목적체육센터,도봉동 652,헬스장 2F,공공WiFi,127.05038,37.681355
도봉구,다목적체육센터,도봉동 652,수유실 앞 2F,공공WiFi,127.05038,37.681355
도봉구,다목적체육센터,도봉동 652,GX Room 2F,공공WiFi,127.05038,37.681355
도봉구,다목적체육센터,도봉동 652,농구장 반층 위(좌) 3F,공공WiFi,127.05038,37.681355
도봉구,다목적체육센터,도봉동 652,농구장 반층 위(우) 3F,공공WiFi,127.05038,37.681355
도봉구,다목적체육센터,도봉동 652,농구장 유리벽면 앞 3F,공공WiFi,127.05038,37.681355
도봉구,도봉문화정보센터,도봉로169나길 22,식당내,공공WIFI,127.04397,37.644672
도봉구,도봉문화정보센터,도봉로169나길 22,사무실,공공WIFI,127.04397,37.644672
도봉구,도봉문화정보센터,도봉로169나길 22,어린이자료실,공공WIFI,127.04397,37.644672
도봉구,도봉문화정보센터,도봉로169나길 22,카페앞,공공WIFI,127.04397,37.644672
도봉구,도봉문화정보센터,도봉로169나길 22,전산실,공공WIFI,127.04397,37.644672
도봉구,도봉문화정보센터,도봉로169나길 22,2층 로비,공공WIFI,127.04397,37.644672
도봉구,도봉문화정보센터,도봉로169나길 22,열람실,공공WIFI,127.04397,37.644672
도봉구,도봉문화정보센터,도봉로169나길 22,열람실 1,공공WIFI,127.04397,37.644672
도봉구,도봉문화정보센터,도봉로169나길 22,열람실 2 #1,공공WIFI,127.04397,37.644672
도봉구,도봉문화정보센터,도봉로169나길 22,열람실 2 #2,공공WIFI,127.04397,37.644672
도봉구,도봉문화정보센터,도봉로169나길 22,멀티미디어실,공공WIFI,127.04397,37.644672
도봉구,도봉문화정보센터,도봉로169나길 22,멀티미디어실 앞,공공WIFI,127.04397,37.644672
도봉구,도봉문화정보센터,도봉로169나길 22,종합자료실,공공WIFI,127.04397,37.644672
도봉구,도봉문화정보센터,도봉로169나길 22,어린이자료실 옆,공공WIFI,127.04397,37.644672
도봉구,도봉문화정보센터,도봉로169나길 22,복도,공공WIFI,127.04397,37.644672
도봉구,아이나라도서관,노해로69길 151,지하서고,공공WIFI,127.049484,37.659187
도봉구,아이나라도서관,노해로69길 151,1층 로비,공공WIFI,127.049484,37.659187
도봉구,아이나라도서관,노해로69길 151,문화교실,공공WIFI,127.049484,37.659187
도봉구,아이나라도서관,노해로69길 151,유아열람실,공공WIFI,127.049484,37.659187
도봉구,아이나라도서관,노해로69길 151,2층 로비,공공WIFI,127.049484,37.659187
도봉구,아이나라도서관,노해로69길 151,자료열람실,공공WIFI,127.049484,37.659187
도봉구,아이나라도서관,노해로69길 151,전산실,공공WIFI,127.049484,37.659187
도봉구,아이나라도서관,노해로69길 151,3층 로비,공공WIFI,127.049484,37.659187
도봉구,아이나라도서관,노해로69길 151,대강당,공공WIFI,127.049484,37.659187
도봉구,쌍문채움도서관,쌍문동 381-9,,공공WIFI,127.026215,37.647137
도봉구,쌍문채움도서관,쌍문동 381-9,,공공WIFI,127.026215,37.647137
도봉구,쌍문채움도서관,쌍문동 381-9,,공공WIFI,127.026215,37.647137
도봉구,쌍문채움도서관,쌍문동 381-9,,공공WIFI,127.026215,37.647137
도봉구,쌍문채움도서관,쌍문동 381-9,,공공WIFI,127.026215,37.647137
도봉구,창동종합사회복지관,덕릉로 329,통합활동실,공공WIFI,127.045555,37.64482
도봉구,창동종합사회복지관,덕릉로 329,사무실,공공WIFI,127.045555,37.64482
동작구,용양봉저정공원,본동 산3-9,정자,공공WiFi,126.95785,37.51147
동작구,용양봉저정공원,본동 산3-9,계단(정자~광장),공공WiFi,126.95798,37.51163
동작구,용양봉저정공원,본동 산3-9,전망대 난간(체육시설 방면),공공WiFi,126.95848,37.51113
동작구,용양봉저정공원,본동 산3-9,전망대 난간,공공WiFi,126.95858,37.51114
동작구,용양봉저정공원,본동 산3-9,산책로,공공WiFi,126.95867,37.51121
동작구,용양봉저정공원,본동 산3-9,포토존,공공WiFi,126.95901,37.51146
동작구,용양봉저정공원,본동 산3-9,계단 1(포토존 ~ 광장),공공WiFi,126.95885,37.51162
동작구,용양봉저정공원,본동 산3-9,계단 2(포토존 ~ 광장),공공WiFi,126.95888,37.51171
동작구,용양봉저정공원,본동 산3-9,계단 3(포토존 ~ 광장),공공WiFi,126.95861,37.51152
동작구,용양봉저정공원,본동 산3-9,광장 내 데크,공공WiFi,126.95859,37.51207
동작구,용양봉저정공원,본동 산3-9,광장 내 CCTV 1,공공WiFi,126.95827,37.51175
동작구,용양봉저정공원,본동 산3-9,광장 내 CCTV 2,공공WiFi,126.95794,37.51234
동작구,용양봉저정공원,노량진로32길 14-5,용양봉저정 관리사무소 인근 전주(9823Y391),공공WiFi,126.95697,37.51271
동작구,용양봉저정공원,본동 10-27,용양봉저정 주변 CCTV,공공WiFi,126.95706,37.51269
동작구,청년카페,노량진로32길 29-6,실내 1F,공공WiFi,126.95697,37.51226
동작구,청년카페,노량진로32길 29-6,실내 2F,공공WiFi,126.95697,37.51226
동작구,청년카페,노량진로32길 29-6,건물 외벽,공공WiFi,126.95697,37.51226
동작구,구립동작실버센터,노량진로32길 53,구립동작실버센터 인근 전주(9823W021),공공WiFi,126.95765,37.51147
은평구,응암4동어린이공원,응암3동 742-9,,공공WiFi,126.91606,37.583313
관악구,관악구청별관,관악로 145,별관 1층,공공WiFi,126.95089,37.478626
강북구,솔샘문화정보도서관,솔샘로 177,3F 교육장 제1강의실,공공WiFi,127.0124,37.620472
강북구,솔샘문화정보도서관,솔샘로 177,3F 교육장 제2강의실,공공WiFi,127.0124,37.620472
강북구,솔샘문화정보도서관,솔샘로 177,4층 자료실,공공WiFi,127.0124,37.620472
강북구,솔샘문화정보도서관,솔샘로 177,2층 로비,공공WiFi,127.0124,37.620472
강북구,솔샘문화정보도서관,솔샘로 177,3층 유아도서관,공공WiFi,127.0124,37.620472
강북구,미아동복합청사,솔매로49길 14,5F 자료실,공공WiFi,127.02705,37.62706
강북구,송중문화정보도서관,도봉로20나길 6,1F 휴게실,공공WiFi,127.03001,37.61831
강북구,송중문화정보도서관,도봉로20나길 6,2F 컴퓨터공간,공공WiFi,127.03001,37.61831
강북구,강북문화정보도서관,오현로 145,건물외부 쉼터(3F 창문),공공WiFi,127.03625,37.625225
강북구,강북웰빙스포츠센터,오현로31길 51,3층 로비,공공WiFi,127.0378,37.63053
강북구,강북웰빙스포츠센터,오현로31길 51,3층 종합체육관 관람석,공공WiFi,127.0378,37.63053
강북구,강북문화정보도서관,오현로 145,B1층 식당,공공WiFi,127.03625,37.625225
강북구,강북문화정보도서관,오현로 145,3층  전산교육장,공공WiFi,127.03625,37.625225
강북구,강북장애인종합복지관,오현로 189,7층 복도,공공WiFi,127.03908,37.62873
강북구,강북장애인종합복지관,오현로 189,5층 복도,공공WiFi,127.03908,37.62873
강북구,강북장애인종합복지관,오현로 189,4층 복도,공공WiFi,127.03908,37.62873
강북구,강북장애인종합복지관,오현로 189,2층 복도,공공WiFi,127.03908,37.62873
강북구,강북장애인종합복지관,오현로 189,1층 로비,공공WiFi,127.03908,37.62873
강북구,강북장애인종합복지관,오현로 189,B1층 복도,공공WiFi,127.03908,37.62873
강북구,번동 U-도서관,오현로21길 84,2층 열람실,공공WiFi,127.033264,37.624985
강북구,수유문화정보도서관,삼양로 299(수유1동주민센터),3F 자료실,공공WiFi,127.017586,37.630077
강북구,수유문화정보도서관,삼양로 299(수유1동주민센터),4F 열람실,공공WiFi,127.017586,37.630077
강북구,수유문화정보도서관,삼양로 299(수유1동주민센터),5F 복도,공공WiFi,127.017586,37.630077
강북구,강북문화예술회관,삼각산로 85,B1F 안내소,공공WiFi,127.01336,37.64079
강북구,강북문화예술회관,삼각산로 85,2F 복도,공공WiFi,127.01336,37.64079
강북구,강북문화예술회관,삼각산로 85,2F 정보화교육장,공공WiFi,127.01336,37.64079
강북구,강북문화예술회관,삼각산로 85,3F 독서실,공공WiFi,127.01336,37.64079
강북구,강북문화예술회관,삼각산로 85,광장 시계탑,공공WiFi,127.01336,37.64079
강북구,강북문화예술회관,삼각산로 85,지하1층 건강교실,공공WiFi,127.01336,37.64079
강북구,강북문화예술회관,삼각산로 85,1층 헬스장 입구,공공WiFi,127.01336,37.64079
강동구,성내전통시장,성내2동 283-3번지,CU 성내풍성로점,공공WiFi,127.12734,37.53311
강동구,성내전통시장,성내2동 277-9번지,청정바다 왼쪽 기둥,공공WiFi,127.12722,37.53276
강동구,성내전통시장,성내2동 592번지,성내회직판장 왼쪽 기둥,공공WiFi,127.12766,37.5336
강동구,성내전통시장,성내2동 144-21번지,궁전떡집 오른쪽 기둥,공공WiFi,127.1278,37.533672
강동구,성내전통시장,성내2동 144-12번지,시골참기름집 왼쪽 기둥,공공WiFi,127.12783,37.534164
강동구,성내전통시장,성내2동 26-2번지,성내불곱창 옆 CCTV,공공WiFi,127.127945,37.534824
강동구,성내전통시장,성내2동 142번지,더예쁜네일 앞 CCTV,공공WiFi,127.12704,37.53474
강동구,성내전통시장,성내2동 26-2번지,성내전통시장 입구 구조물 왼쪽,공공WiFi,127.1282,37.53504
강동구,강풀만화거리,성내2동 600번지,강풀만화거리 이삭부동산 앞,공공WiFi,127.12841,37.53571
강동구,강풀만화거리,성내2동 30-12번지,한방공인중계사 앞 CCTV,공공WiFi,127.12703,37.535946
강동구,강풀만화거리,성내2동 155-5번지,세븐일레븐 성내만화거리점 앞,공공WiFi,127.13024,37.535328
강동구,강풀만화거리,성내2동 21-13번지,피콜로레스토랑 옆 IP주,공공WiFi,127.12934,37.535564
강동구,강풀만화거리,성내2로 157-1번지,만화거리 골목,공공WiFi,127.130455,37.53548
강동구,강풀만화거리,성내2동 160-48번지,황금렌트카 AP주,공공WiFi,127.13042,37.53623
강동구,강풀만화거리,성내2동 19-27번지,LG전자베스트샵 천호점 앞 가로등,공공WiFi,127.12966,37.53645
강동구,강풀만화거리,성내2동 164-1번지,GS25 강동파크점 앞 가로등,공공WiFi,127.13128,37.535984
강동구,강풀만화거리,성내2동 167-4번지,강풀만화거리,공공WiFi,127.13126,37.535286
강동구,둔촌역전통시장,성내3동 427-12번지,둔촌전통시장 내 CCTV,공공WiFi,127.13407,37.527843
강동구,둔촌역전통시장,성내3동 417-52번지,서울마님죽집 왼쪽 기둥,공공WiFi,127.1338,37.528316
강동구,둔촌역전통시장,성내3동 417-26번지,둔촌야채청과생선,공공WiFi,127.13439,37.528156
강동구,둔촌역전통시장,성내3동 416-33번지,시온부부한의원 앞 CCTV,공공WiFi,127.13503,37.528507
강동구,둔촌역전통시장,성내3동 428-1번지,해왕조개전문 앞 CCTV,공공WiFi,127.13465,37.52752
강동구,둔촌역전통시장,성내3동 416-12번지,충청고추참기름  왼쪽 기둥,공공WiFi,127.13486,37.528038
강동구,둔촌역전통시장,성내3동 428-2번지,하나축산물집 오른쪽 기둥,공공WiFi,127.13508,37.52797
강동구,둔촌역전통시장,성내3동 428-8번지,전주맛집 왼쪽 기둥,공공WiFi,127.13521,37.527485
강동구,둔촌역전통시장,성내3동 428-4번지,미트하우스 왼쪽 기둥,공공WiFi,127.13534,37.527798
강동구,둔촌역전통시장,성내3동 450-54번지,신흥생고기 앞 KT주,공공WiFi,127.13503,37.526997
광진구,중곡1동 제1경로당,긴고랑로5길 10,경로당 2층 내부 천장,공공WiFi,127.07917,37.56455
광진구,중곡1동 제2경로당,긴고랑로8길 51,경로당 1층내부 천장,공공WiFi,127.07797,37.561172
광진구,중곡2동주민센터,능동로 347,우리동네키움센터 내부 2층,공공WiFi,127.08104,37.560463
광진구,장수경로당,긴고랑로31길 44,경로당 내부 천장(무더위쉼터) 1층,공공WiFi,127.0869,37.561768
광진구,중곡문화체육센터,능동로 433,체육관 우측 입구 4층,공공WiFi,127.0848,37.56778
광진구,중곡문화체육센터,능동로 433,다목적실 ~ 문화교실2 사이 기둥 3층,공공WiFi,127.0848,37.56778
광진구,중곡문화체육센터,능동로 433,헬스장 코너 입구(라커룸) 1층,공공WiFi,127.0848,37.56778
광진구,중곡문화체육센터도서관,능동로 433,비상구 앞 3층,공공WiFi,127.0848,37.56778
광진구,중곡문화체육센터도서관,능동로 433,우측 책상라인 중간 2층,공공WiFi,127.0848,37.56778
광진구,용마경로당,용마산로31길 38-8,경로당 내부 천장 1층,공공WiFi,127.08406,37.56924
광진구,중곡3동 경로당,동일로80길 20,경로당 내부 천장 2층,공공WiFi,127.080925,37.57009
광진구,대원경로당,긴고랑로36길 57-27,경로당 내부 천장 모서리 1층,공공WiFi,127.09167,37.55763
광진구,능동경로당,천호대로112길 70,경로당 내부 창문 위 천장 2층,공공WiFi,127.08016,37.553192
광진구,구의경로당,광나루로40길 6,경로당 내부 천장 1층,공공WiFi,127.07817,37.54515
광진구,명성경로당,자양로26길 20-5,경로당 내부 출입문 옆 천장 1층,공공WiFi,127.08518,37.541397
광진구,구의1동 제2경로당,광나루로30가길 27,경로당 내부 천장 1층,공공WiFi,127.08945,37.544548
광진구,아차산경로당,자양로47길 9-4,경로당 내부 천장 1층,공공WiFi,127.091644,37.55217
광진구,소능경로당,자양로37길 85,경로당 내부 천장 1층,공공WiFi,127.085945,37.54765
광진구,구의2동 경로당,자양로38길 17-5,경로당 내부 천장 1층,공공WiFi,127.089066,37.547234
광진구,구의3동주민센터,강변역로 17,사무실 입구 벽 3층,공공WiFi,127.09139,37.53877
광진구,구의3동주민센터,강변역로 17,유아열람실 입구 벽 3층,공공WiFi,127.09139,37.53877
광진구,광진7호점 우리동네키움센터,구의강변로 79,사무공간 천장 2층,공공WiFi,127.09336,37.537857
광진구,산의마을 경로당,아차산로63길 21,경로당 내부 천장 1층,공공WiFi,127.09229,37.540154
광진구,구의새마을 경로당,구의강변로3길 39,경로당 내부 처장 2층,공공WiFi,127.09014,37.536297
광진구,광장동실내배드민턴장,천호대로 140길 40,2층 출입문 옆 벽,공공WiFi,127.10011,37.54461
광진구,광진구민체육센터,구천면로 14,대체육관 입구 4층,공공WiFi,127.10682,37.545998
광진구,광진구민체육센터,구천면로 14,소체육관 앞 메인 홀 2층,공공WiFi,127.10682,37.545998
광진구,광진구민체육센터,구천면로 14,헬스장 우측 코너 벽면 2층,공공WiFi,127.10682,37.545998
광진구,광진구민체육센터,구천면로 14,문화교실-3 입구 1층,공공WiFi,127.10682,37.545998
광진구,광진구민체육센터,구천면로 14,에어로빅장 앞 1층,공공WiFi,127.10682,37.545998
광진구,광진구민체육센터,구천면로 14,수영장 관람지역 전동구 옆 지하1층,공공WiFi,127.10682,37.545998
광진구,광진구민체육센터,구천면로 14,MDF실 앞 1층,공공WiFi,127.10682,37.545998
광진구,보훈회관,아차산로 630,,공공WiFi,172.108,37.548832
광진구,광장제1경로당,아차산로73길 15,공원 방향 안쪽 창문 위 1층,공공WiFi,127.10407,37.545986
광진구,광장제2경로당,아차산로78길 67,,공공WiFi,127.1108,37.551533
광진구,광장종합사회복지관,아차산로66길 8,,공공WiFi,127.09707,37.541035
광진구,광진구청(K&S빌딩),자양로 131,아동청년과,공공WiFi,127.082886,37.539436
광진구,자마장 경로당,자양로13길 37,경로당 내부 수납장 위 천장 1층,공공WiFi,127.0824,37.534496
광진구,자양1동 경로당,아차산로40길 46,경로당 내부기둥 옆 천장 2층,공공WiFi,127.07792,37.535652
광진구,자양전통시장고객쉼터도서관,뚝섬로47길 45-2,쉼터도서관 내부 천장 2층,공공WiFi,127.079124,37.53426
광진구,자양유수지체육시설,뚝섬로 52길 66,체육관 입구 진입 후 우측 벽 중간 2층,공공WiFi,127.07767,37.529217
광진구,자양유수지체육시설,뚝섬로 52길 66,체육관 입구 진입 후 좌측 벽 중간 2층,공공WiFi,127.07767,37.529217
광진구,자양유수지체육시설,뚝섬로 52길 66,체육관 입구 2층,공공WiFi,127.07767,37.529217
광진구,자양한강도서관,뚝섬로 52길 66,대출/반납 데스크 앞 천장 2층,공공WiFi,127.07767,37.529217
광진구,자양한강도서관,뚝섬로 52길 66,대출/반납 데스크 앞 천장 3층,공공WiFi,127.07767,37.529217
광진구,광진2호점 우리동네키움센터(꿈 정함),자양로3가길 28,,공공WiFi,127.08473,37.528824
광진구,자양2동 제2경로당,뚝섬로62길 17,,공공WiFi,127.08,37.53
광진구,유수지 경로당,뚝섬로48길 46,,공공WiFi,127.07679,37.529987
광진구,유수지 경로당,뚝섬로48길 46,,공공WiFi,127.07679,37.529987
광진구,신양경로당,뚝섬로 543,,공공WiFi,127.07058,37.534855
광진구,자양3동 경로당,자양번영로3길 16,,공공WiFi,127.07427,37.531883
광진구,마실 경로당,자양번영로7길 16-9,,공공WiFi,127.07543,37.53625
광진구,자양4동주민센터,뚝섬로26길 58,,공공WiFi,127.06615,37.534378
광진구,자양4동주민센터,뚝섬로26길 58,,공공WiFi,127.06615,37.534378
광진구,자양4동제2경로당,동일로2길 17,,공공WiFi,127.06,37.53
광진구,자양4동 제4경로당,뚝섬로30가길 18,,공공WiFi,127.06544,37.53522
광진구,노유산경로당,동일로10가길 15-2,,공공WiFi,127.06,37.53
광진구,화양동경로당,능동로17길 39,경로당 내부 천장 1F,공공WiFi,127.07132,37.546535
광진구,모진동경로당,광나루로24길 53,경로당 내부 천장 1F,공공WiFi,127.07805,37.54504
광진구,군자경로당,동일로52길 27,경로당 내부 천장 모서리 1F,공공WiFi,127.07285,37.554565
광진구,양마경로당,동일로42길 2,경로당 내부 천장 1F,공공WiFi,127.07031,37.552906
광진구,양마제2 경로당,군자로13길 35,경로당 내부 천장 1F,공공WiFi,127.07058,37.55179
강남구,개포2문화센터,개포로 511,4층,공공WiFi,127.068535,37.48981
종로구,세종대로사람숲길,세종로 142-3,고종어극앞(횡단보도전),공공WiFi,126.97746,37.57036
종로구,세종대로사람숲길,종로1.2.3.4가동 150-2,광화문역3번출구(횡단보도전),공공WiFi,126.977455,37.57151
종로구,세종대로사람숲길,세종대로 178,광화문역2번출구(버스타는곳),공공WiFi,126.97733,37.57196
종로구,세종대로사람숲길,세종대로 178,광화문역2번출구(횡단보도전),공공WiFi,126.9773,37.572575
종로구,세종대로사람숲길,세종대로 198,역사박물관앞(쉼터),공공WiFi,126.97731,37.573612
종로구,세종대로사람숲길,세종대로 198,역사박물관앞(횡단보도전),공공WiFi,126.97732,37.574215
종로구,세종대로사람숲길,세종로 76-14 (새로운광화문광장 조성사업),광화문교통센터 앞(광화문 시민열린마당),공공WiFi,126.97725,37.57549
종로구,세종대로사람숲길,세종로 1-68 (새로운광화문광장 조성사업),중앙_광화문광장-001_명량분수방향,공공WiFi,126.9769,37.57042
종로구,세종대로사람숲길,세종로 1-68 (새로운광화문광장 조성사업),중앙_광화문역9번출구_해치마당방향,공공WiFi,126.97704,37.571472
종로구,세종대로사람숲길,세종로 1-68 (새로운광화문광장 조성사업),중앙_세종대왕동상앞(횡단보도전),공공WiFi,126.97697,37.572533
종로구,세종대로사람숲길,세종로 1-68 (새로운광화문광장 조성사업),중앙_버스정류장 01-126,공공WiFi,126.97689,37.573265
종로구,세종대로사람숲길,세종로 1-68 (새로운광화문광장 조성사업),중앙_잔디마당앞(횡단보도전),공공WiFi,126.976944,37.57414
종로구,세종대로사람숲길,세종로 1-68 (새로운광화문광장 조성사업),광화문광장 입구,공공WiFi,126.97665,37.574795
종로구,세종대로사람숲길,세종로 1-68 (새로운광화문광장 조성사업),광화문 광장 삼거리 앞,공공WiFi,126.976776,37.575024
중구,세종대로사람숲길,태평로1가 1,청계광장 CCTV Pole,공공WiFi,126.977356,37.568974
중구,세종대로사람숲길,세종대로 110 서울시청구사옥 옥상,서울도서관옥상우측,공공WiFi,126.978065,37.5662
중구,세종대로사람숲길,세종대로 110 서울시청구사옥 옥상,서울도서관옥상좌측,공공WiFi,126.97766,37.566185
중구,세종대로사람숲길,세종대로110,서울도서관옥상뒤,공공WiFi,126.97752,37.56654
종로구,세종대로사람숲길,종로구 세종로 215,동화면세점 버스정류소 위,공공WiFi,126.97664,37.569412
중구,세종대로사람숲길,세종대로 141,동화면세점 시티투어버스정류소,공공WiFi,126.97677,37.568787
중구,세종대로사람숲길,세종대로 119,시의회 옥상,공공WiFi,126.97668,37.567413
중구,세종대로사람숲길,세종대로 119,세실극장 맞은편 덕수궁 CCTV폴대,공공WiFi,126.97623,37.566593
중구,세종대로사람숲길,세종대로 119,덕수궁 CCTV폴대 대로변으로 50M,공공WiFi,126.977036,37.566532
중구,세종대로사람숲길,세종대로 78-2,디지틀조선일보빌딩 앞 CCTV,공공WiFi,126.97691,37.563145
중구,세종대로사람숲길,세종대로 73,삼성본관 버스정류장,공공WiFi,126.97615,37.562805
중구,세종대로사람숲길,세종대로 74,신협앞 (삼정빌딩),공공WiFi,126.97657,37.56244
중구,세종대로사람숲길,세종대로 55,부영대평빌딩 앞 세종대로 큰길 가로등,공공WiFi,126.97575,37.56176
중구,서울로7017,퇴계로 18 서울역고가,,공공WiFi,126.96876,37.55633
중구,서울로7017,퇴계로 18 서울역고가,,공공WiFi,126.96904,37.55665
중구,덕수궁돌담길,서소문로11길 50,돌담길 로터리,공공WiFi,126.97342,37.565388
중구,덕수궁돌담길,덕수궁길 15,로터리 주차장 사이,공공WiFi,126.97602,37.564816
중구,덕수궁돌담길,덕수궁길 15,별관 주차장 입구,공공WiFi,126.97512,37.56476
중구,덕수궁돌담길,덕수궁길 15,3동 앞 가로등,공공WiFi,126.97377,37.56475
중구,덕수궁돌담길,서소문로 89-31,순화어린이공원,공공WiFi,126.97125,37.56383
중구,덕수궁돌담길,서소문로 89-31,순화어린이공원,공공WiFi,126.971085,37.563812
중구,덕수궁돌담길,정동 34-31,배재어린이공원,공공WiFi,126.97304,37.564487
중구,덕수궁돌담길,정동 34-31,배재어린이공원,공공WiFi,126.972015,37.564175
중구,덕수궁,세종대로 99,덕수궁 분수대 앞,공공WiFi,126.97442,37.565506
중구,덕수궁,세종대로 99,석조전 앞,공공WiFi,126.97397,37.566036
중구,덕수궁,세종대로 99,후문 주차장 앞,공공WiFi,126.97616,37.566498
중구,덕수궁,세종대로 99,매표소 오른쪽,공공WiFi,126.97618,37.564976
중구,덕수궁,세종대로 99,매표소 정문,공공WiFi,126.97569,37.56508
종로구,경복궁,사직로 161,경복궁 수정전 처마 밑,공공WiFi,126.97592,37.578995
종로구,경복궁,사직로 161,근정문 오른쪽 처마밑(근정정 방향),공공WiFi,126.97745,37.577824
종로구,경복궁,사직로 161,근정전 왼쪽 뒤 (천추전 건너편),공공WiFi,126.97645,37.578808
종로구,경복궁,사직로 161,근정전수정전 넘어가는 문 옆 처마 밑,공공WiFi,126.9763,37.578384
종로구,경복궁,사직로 161,근정문 오른쪽 처마밑(홍례문 방향),공공WiFi,126.97747,37.57766
종로구,경복궁,사직로 161,경복궁 유화문 처마 밑,공공WiFi,126.976364,37.5776
종로구,경희궁,종로구새문안로45,경희궁내CCTV,공공WiFi,126.96832,37.571877
종로구,경희궁대령전방향,종로구송월길48,서울시교육청옥상,공공WiFi,126.967354,37.570267
종로구,경희궁홍화문방향,종로구송월길48,서울시교육청옥상,공공WiFi,126.967354,37.570267
종로구,종묘,종로구종로157,종묘정전악공청주변(정문),공공WiFi,126.99447,37.57237
종로구,종묘,종로구종로157,종묘외대문주변(정전),공공WiFi,126.992935,37.57504
종로구,창경궁,창경궁로185,창경궁 관리사무소,공공WiFi,126.9961,37.58119
종로구,창경궁,창경궁로185,창경궁옥천교주변(명정전),공공WiFi,126.9957,37.57859
종로구,창경궁,창경궁로185,창경궁환경전주변(식물원),공공WiFi,126.994514,37.582367
종로구,창경궁,창경궁로185,창경궁춘당지주변(춘당지),공공WiFi,126.99503,37.581264
종로구,창경궁,창경궁로185,창경궁명정문주변(함인정),공공WiFi,126.99308,37.578804
종로구,창경궁,창경궁로185,창경궁관리소주변(홍화문),공공WiFi,126.99605,37.57852
종로구,창경궁,창경궁로185,창경궁환경전주변(환경전),공공WiFi,126.994,37.579205
종로구,창덕궁,율곡로99,규장각 옆 CCTV 폴대,공공WiFi,126.98956,37.578587
종로구,창덕궁,율곡로99,낙성재 CCTV 폴대,공공WiFi,126.9927,37.57881
종로구,창덕궁,율곡로99,물품보관소 옥상(정문쪽),공공WiFi,126.98996,37.57787
종로구,창덕궁,율곡로99,함양문 매표소,공공WiFi,126.99271,37.579346
중구,남대문시장,퇴계로 39-2,남창동 64-1(남대문시장역 5번출구 남404,공공WiFi,126.97708,37.55785
중구,남대문시장,퇴계로 53,남-414 남창동 47-17,공공WiFi,126.97708,37.55785
중구,남대문시장,퇴계로 54,서현 온누리약국 앞 cctv,공공WiFi,126.9788,37.559166
중구,남대문시장,남대문시장10길 22,회현역 7번출 구 앞 cctv,공공WiFi,126.98003,37.559746
중구,남대문시장,남대문시장10길 22,남-410 충무로1가 52(SC제일은행앞),공공WiFi,126.98003,37.559746
중구,남대문시장,남대문로 40,남-402 충무로1가 53(SC제일은행좌측)기구축 AP 추가,공공WiFi,126.98018,37.56131
중구,남대문시장,남대문로 14,남대문지하쇼핑6번출구대동약국앞 cctv,공공WiFi,126.97817,37.560944
중구,남대문시장,소월로3(남창동 51-1),롯데손해보험앞 주정차CCTV 남-403,공공WiFi,126.97589,37.559612
중구,남대문시장,남대문로5가 30-1,남대문로5가 30-1(방범 서울역206),공공WiFi,126.97517,37.558994
중구,남대문시장,퇴계로 54,남-412 남창동 51-1,공공WiFi,126.97624,37.559204
중구,남대문시장,남대문시장4길 29,남-411 남창동 49,공공WiFi,126.97727,37.55889
중구,남대문시장,남대문로 12,남대문지하쇼핑2번출구앞-기업은행앞 가로등,공공WiFi,126.97728,37.56073
중구,남산골한옥마을,퇴계로34길 28,종합안내도 앞 CCTV,공공WiFi,126.993195,37.55953
중구,남산골한옥마을,퇴계로34길 28,천우각 앞 광장 우측편 CCTV,공공WiFi,126.99325,37.558983
중구,남산골한옥마을,퇴계로34길 28,청류정 앞 CCTV,공공WiFi,126.99292,37.558544
중구,남산골한옥마을,퇴계로34길 28,망북루 앞 CCTV,공공WiFi,126.99392,37.556877
중구,남산골한옥마을,퇴계로34길 28,피금정 옆 캡슐광장 올라가는길 CCTV,공공WiFi,126.99458,37.55759
중구,남산골한옥마을,퇴계로34길 28,피금정 앞 CCTV,공공WiFi,126.994705,37.558258
중구,남산골한옥마을,퇴계로34길 28,천우각 광장 앞 계단 CCTV,공공WiFi,126.993744,37.55895
중구,남산골한옥마을,퇴계로34길 28,매표소 앞 CCTV,공공WiFi,126.9942,37.55912
중구,남산골한옥마을,퇴계로34길 28,옥인동 윤씨 가욱 입구 CCTV,공공WiFi,126.994125,37.559788
중구,남산골한옥마을,퇴계로34길 28,청학지 내 CCTV,공공WiFi,126.993835,37.55975
중구,남산골한옥마을,퇴계로34길 28,서울천년타임캡슐광장 앞 CCTV,공공WiFi,126.99393,37.557793
중구,남산골한옥마을,퇴계로34길 28,한옥까페 앞 CCTV,공공WiFi,126.99434,37.559467
중구,남산골한옥마을,퇴계로34길 28,제기동 해풍부원군 윤택영 재실 입구 CCTV,공공WiFi,126.99452,37.55936
중구,남산골한옥마을,퇴계로34길 28,삼각동 도편수 이승업 가옥 옆 CCTV,공공WiFi,126.99452,37.55907
중구,남산골한옥마을,퇴계로34길 28,삼각동 도편수 이승업 가옥 내 CCTV,공공WiFi,126.99442,37.55888
중구,남산골한옥마을,퇴계로34길 28,삼청동 오위장 김춘영 가옥 내 CCTV,공공WiFi,126.994774,37.558628
중구,남산골한옥마을,퇴계로34길 28,제기동 해풍부원군 윤택영 재실 안쪽 CCTV,공공WiFi,126.99477,37.55975
중구,남산골한옥마을,퇴계로34길 28,관어정 CCTV,공공WiFi,126.99306,37.558067
강동구,천호공원,올림픽로 702,천호동 360(해공도서관옥상),공공WiFi,127.12574,37.54406
강동구,천호공원,올림픽로 702,천호동 360(해공도서관옥상),공공WiFi,127.12574,37.54406
동대문구,간데메공원,서울시립대로2길 60,서울시립대로2길 59(답십리동 471답십리1_0023 ),공공WiFi,127.04894,37.57265
동대문구,간데메공원,답십리로38길 14,답십리동 471,공공WiFi,127.04923,37.57366
동대문구,간데메공원,답십리로38길 14,답십리동 471,공공WiFi,127.04974,37.573376
마포구,하늘공원,마포구 상암동 487-48,동측 화장실,공공WiFi,126.88392,37.57023
마포구,하늘공원,마포구 상암동 487-48,탐방길 안내소 옆,공공WiFi,126.88586,37.569225
마포구,하늘공원,마포구 상암동 487-48,풍력발전소 옆,공공WiFi,126.88785,37.566177
마포구,하늘공원,마포구 상암동 487-48,공원중앙,공공WiFi,126.88537,37.56742
마포구,하늘공원,마포구 상암동 487-48,서측계단,공공WiFi,126.88198,37.568825
마포구,하늘공원,마포구 상암동 487-48,북측화장실 옆,공공WiFi,126.88395,37.57023
송파구,올림픽공원,올림픽로 424,CCTV 1번 폴대,공공WiFi,127.119736,37.51731
송파구,올림픽공원,올림픽로 424,CCTV 2번 폴대,공공WiFi,127.11782,37.52139
송파구,올림픽공원,올림픽로 424,CCTV 3번 폴대,공공WiFi,127.11912,37.521664
송파구,올림픽공원,올림픽로 424,CCTV 4번 폴대,공공WiFi,127.121216,37.521187
송파구,올림픽공원,올림픽로 424,CCTV 5번 폴대,공공WiFi,127.122475,37.523197
송파구,올림픽공원,올림픽로 424,CCTV 6번 폴대,공공WiFi,127.12361,37.524586
송파구,올림픽공원,올림픽로 424,CCTV 7번 폴대,공공WiFi,127.123634,37.522358
송파구,올림픽공원,올림픽로 424,CCTV 8번 폴대,공공WiFi,127.12639,37.522877
송파구,올림픽공원,올림픽로 424,CCTV 9번 폴대,공공WiFi,127.12512,37.52075
송파구,올림픽공원,올림픽로 424,CCTV 10번 폴대,공공WiFi,127.12472,37.51983
송파구,올림픽공원,올림픽로 424,CCTV 11번 폴대,공공WiFi,127.12119,37.518585
영등포구,여의도한강공원,여의동로 330,여의도한강공원(유람선선착장 옥상),공공WiFi,126.93904,37.525047
용산구,이촌한강공원,이촌동 302-20(이촌 거북선 나룻터),이촌동 302-20(이촌 거북선 나룻터),공공WiFi,126.96904,37.517048
용산구,이촌한강공원,용산구 이촌로72길 62,이촌동 302-17(이촌한강공원 관리소),공공WiFi,126.97069,37.517853
중구,덕수궁돌담길,서소문로11길 50,1동주차장위소공원,공공WiFi,126.97516,37.56459
송파구,석촌호수,잠실동 47(서호17),삼전도비 (CCTV 5240860),공공WiFi,127.10173,37.51048
송파구,석촌호수,잠실동 47(서호18),문화공간 호수 옥상,공공WiFi,127.10111,37.510284
송파구,석촌호수,잠실동 47(서호19),가로등 1-10번,공공WiFi,127.10074,37.51017
송파구,석촌호수,신천동 32(동호8),CCTV 1260678,공공WiFi,127.10226,37.511032
송파구,석촌호수,신천동 32(동호9),CCTV 1260677,공공WiFi,127.10272,37.510963
송파구,석촌호수,신천동 32(동호10),CCTV 3260972 옆 가로등,공공WiFi,127.10325,37.510254
송파구,석촌호수,잠실동 47(서호32),CCTV 3240976,공공WiFi,127.102684,37.509613
송파구,석촌호수,잠실동 47(서호31) 가로등 4-24번,플라넷(녹지과 석촌호수관리소 24-484)-&gt;폴대 다산,공공WiFi,127.10274,37.50802
송파구,석촌호수,잠실동 47(서호27),아뜰리에 옥상 쉼터,공공WiFi,127.09822,37.50686
송파구,석촌호수,잠실동 47(서호25),CCTV 3240975,공공WiFi,127.09801,37.507366
송파구,석촌호수,잠실동 47(서호23),CCTV 3240974,공공WiFi,127.09776,37.508514
송파구,석촌호수,신천동 32(서호22),서울놀이마당 내 공연장,공공WiFi,127.09799,37.507847
송파구,석촌호수,신천동 32(동호7),CCTV 1260679,공공WiFi,127.103645,37.51199
송파구,송파둘레길,가락동 513-1(탄천6) 탄천유수지 건너편 전망대,,공공WiFi,127.104294,37.512245
송파구,석촌호수,신천동 32(동호6),카페 JBOUT 앞 가로등,공공WiFi,127.10439,37.511753
송파구,석촌호수,신천동 32(동호3),지하차도 옆 큰가로등,공공WiFi,127.104996,37.51235
송파구,석촌호수,신천동 32(동호5),지하차도 옆 도로 앞 키 큰 가로등,공공WiFi,127.10515,37.512703
송파구,석촌호수,신천동 32(동호2),횡단보도 근처 벤치 옆,공공WiFi,127.107124,37.513466
송파구,송파둘레길,삼전동 185-4(탄천3) 탄천유수지 건너편 전망대,,공공WiFi,127.090195,37.49895
송파구,석촌호수,신천동 32(동호15),CCTV 2160971,공공WiFi,127.107635,37.511925
송파구,석촌호수,신천동 32(동호14),키오스크 동 2호,공공WiFi,127.10721,37.512047
송파구,석촌호수,잠실동 47(서호20),가로등 1-12번,공공WiFi,127.1004,37.509953
송파구,석촌호수,잠실동 47(서호21),가로등 2-4,공공WiFi,127.09845,37.50925
송파구,석촌호수,잠실동 47(서호24),가로등 2-12번,공공WiFi,127.10684,37.513226
송파구,석촌호수,잠실동 47(서호28),가로등 3-9번,공공WiFi,127.09989,37.507122
송파구,석촌호수,잠실동 47(서호29),가로등 3-15번,공공WiFi,127.1011,37.50765
송파구,석촌호수,잠실동 47(서호30),가로등 4-4번,공공WiFi,127.1019,37.508015
송파구,석촌호수,신천동 32(동호11),가로등 5-6번,공공WiFi,127.10446,37.509693
송파구,석촌호수,신천동 32(동호12),가로등 6-1번,공공WiFi,127.10623,37.51081
송파구,석촌호수,신천동 32(동호13),가로등 6-5번,공공WiFi,127.1068,37.51124
송파구,석촌호수,신천동 32(동호16),가로등 6-12번,공공WiFi,127.10761,37.51255
송파구,석촌호수,잠실동 47(서호26),키오스크 서호,공공WiFi,127.09782,37.506954
송파구,석촌호수,신천동 34(동호1),CCTV1261102,공공WiFi,127.10761,37.51255
송파구,송파둘레길,잠실동 132(탄천1) 강남면허시험장 뒤 전망대,,공공WiFi,127.07177,37.50505
송파구,송파둘레길,잠실동 351(탄천2) 잠실펌프장 건너편 전망대,,공공WiFi,127.08012,37.50187
송파구,송파둘레길,가락동 533(탄천4) 탄천펌프장 건너편 전망대,,공공WiFi,127.1035,37.494114
송파구,송파둘레길,가락동 632-1(탄천5) 장지천길 합류구간 쉼터,,공공WiFi,127.10895,37.48941
송파구,송파구청 광장,올림픽로 326,송파구청 광장,공공WiFi,127.106384,37.514885
송파구,올림픽공원,방이동 위례성대로 71,(한성백제 박물관)옥상정원,공공WiFi,127.120735,37.51563
송파구,올림픽공원,방이동 위례성대로 71,(한성백제박물관)주차장 입구,공공WiFi,127.11997,37.515354
송파구,올림픽공원,방이동 위례성대로 71,(한성백제박물관) 뒤 공원,공공WiFi,127.12145,37.515137
중구,회현동주민센터,퇴계로8길 46,회현동 2층,공공WiFi,126.979355,37.55724
중구,장충동주민센터,장충단로8길 22,장충동 2층,공공WiFi,127.00783,37.561867
중구,광희동주민센터,퇴계로 303-9,광희동 2층,공공WiFi,127.00501,37.56441
중구,신당동주민센터,다산로33가길 3,신당누리센터 3F 동정부팀,공공WiFi,127.01454,37.562088
중구,신당동주민센터,다산로33가길 3,신당누리센터 3F 민원대,공공WiFi,127.01454,37.562088
중구,다산동주민센터,동호로15길 50,다산동 2층,공공WiFi,127.00825,37.554306
노원구,노원 우주학교,중계동 507-2 노원천문우주과학관,중간복도 천장 2층,공공WiFi,127.0652,37.640675
노원구,노원 우주학교,중계동 507-2 노원천문우주과학관,전시관 입구 천장 4층,공공WiFi,127.0652,37.640675
노원구,노원 우주학교,중계동 507-2 노원천문우주과학관,사무실 천장 지하1층,공공WiFi,127.0652,37.640675
노원구,수학문화관,중계동 453,주정차 59,공공WiFi,127.072464,37.65817
노원구,수학문화관,중계동 453,카페 앞 전등,공공WiFi,127.072464,37.65817
노원구,상상이룸센터,노해로 502 KT신관 4층,중간 복도 천장 4층,공공WiFi,127.063644,37.654385
노원구,상상이룸센터,노해로 502 KT신관 4층,카페 내부 천장 4층,공공WiFi,127.063644,37.654385
노원구,상계두산형아이휴센터,상계동 1110,센터 내 천장 2층,공공WiFi,127.05316,37.677376
노원구,노원아이돌봄센터,상계동 1110 (상계동 두산아파트) 관리사무소 2층,쉼터 천장 3층,공공WiFi,127.05316,37.677376
노원구,노원아이돌봄센터,상계동 1110 (상계동 두산아파트) 관리사무소 2층,꿈터 천장 3층,공공WiFi,127.05316,37.677376
노원구,불암산종합스타디움,공릉동 141,야구장 쪽 공원 030(3),공공WiFi,127.08394,37.6391
노원구,불암산종합스타디움,공릉동 141,축구장 쪽 공원 030(4),공공WiFi,127.08394,37.6391
노원구,공릉동 다목적구장,공릉동 111,미니축구장 옆,공공WiFi,127.088425,37.623413
노원구,노원구민체육센터 노해근린공원,중계동 360-18,노해근린공원 축구장옆(공원264),공공WiFi,127.07065,37.648132
노원구,초안산근린공원,창동 677,풋살장 앞 가로등,공공WiFi,127.040474,37.64806
노원구,화랑대역 기차카페,공릉동 29-62,화랑대역기차카페 1층,공공WiFi,127.09328,37.62428
노원구,화랑대역 기차카페,공릉동 29-62,화랑대역기차카페 1층,공공WiFi,127.09328,37.62428
노원구,화랑대역 기차카페,공릉동 29-62,화랑대역기차카페 2층,공공WiFi,127.09328,37.62428
노원구,노원구민체육센터,노원로 22길 1,노원구민체육센터 1층,공공WiFi,127.07065,37.648132
노원구,노원구청,노해로 437,노원구청본관 옥상,공공WiFi,127.056435,37.65434
노원구,상계1동주민센터,동일로 1697,상계1동주민센터 2층,공공WiFi,127.055,37.679867
노원구,중계본동주민센터,중계로 143,중계본동주민센터 지하1층,공공WiFi,127.08029,37.647724
노원구,한내행복발전소 도서관,마들로3길 15,한내행복발전소 3층강당,공공WiFi,127.06349,37.627525
노원구,무지개 공원,공릉동 89,공원074,공공WiFi,127.083244,37.620525
노원구,화랑대역 기차카페,공릉동 29-62,화랑대역기차카페3층,공공WiFi,127.09328,37.62428
노원구,노원구청,노해로 437,노원구청본관4층 국장실 내부,공공WiFi,127.056435,37.65434
노원구,당현1교,상계동 711-2 미도APT 101동앞,미도아파트앞 당현천,공공WiFi,127.06095,37.648495
노원구,당현3교,상계동 711-2 미도APT 101동 앞,미도아파트앞 당현천,공공WiFi,127.06487,37.64851
노원구,월계문화체육센터,월계로 298,월계문화체육센터 4층,공공WiFi,127.05486,37.62659
노원구,가재울 지혜마루 도서관,한글비석로 97,가재울지혜마루도서관,공공WiFi,127.072556,37.64049
노원구,불암산나비정원,한글비석로 12길 51-27,불암산 쉼터(장애인충전소),공공WiFi,127.08114,37.65637
노원구,불암산나비정원,한글비석로 12길 51-27,평상(정원지원센터 아래),공공WiFi,127.08107,37.656006
노원구,불암산나비정원,한글비석로 12길 51-27,힐링쉼터,공공WiFi,127.08159,37.65541
노원구,불암산나비정원,한글비석로 12길 51-27,주민쉼터공간(전화박스),공공WiFi,127.08159,37.65541
노원구,불암산나비정원,한글비석로 12길 51-27,철쭉동산(공원330),공공WiFi,127.07975,37.654922
노원구,불암산나비정원,한글비석로 12길 51-27,철쭉동산(신동아아파트 116동 방향),공공WiFi,127.07975,37.654922
노원구,불암산나비정원,한글비석로 12길 51-27,전망대와 산림치유센터 사잇길,공공WiFi,127.079704,37.653515
노원구,불암산나비정원,한글비석로 12길 51-27,산림치유센터앞,공공WiFi,127.08035,37.654156
노원구,불암산나비정원,한글비석로 12길 51-27,유아숲체험장,공공WiFi,127.08104,37.6538
노원구,불암산나비정원,한글비석로 12길 51-27,불암산 전망대,공공WiFi,127.082954,37.65522
노원구,불암산나비정원,한글비석로 12길 51-27,나비정원관리소앞,공공WiFi,127.08308,37.65511
노원구,노원 어울림극장,노해로 502,노원어울림극장 내부,공공WiFi,127.06368,37.65447
노원구,월계3동주민센터,마들로 57,월계3동주민센터3층,공공WiFi,127.069244,37.62102
노원구,월계3동주민센터,마들로 57,월계3동주민센터1층,공공WiFi,127.069244,37.62102
노원구,월계헬스케어센터,월계로 378,1층,공공WiFi,127.06164,37.63144
노원구,공릉보건지소,공릉로 166-1,공릉보건지소2층,공공WiFi,127.079994,37.624794
노원구,공릉보건지소,공릉로 166-1,공릉보건지소B1층,공공WiFi,127.079994,37.624794
노원구,공릉보건지소,공릉로 166-1,공릉보건지소1층,공공WiFi,127.079994,37.624794
노원구,공릉보건지소,공릉로 166-1,공릉보건지소3층,공공WiFi,127.079994,37.624794
노원구,공릉보건지소,공릉로 166-1,공릉보건지소4층,공공WiFi,127.079994,37.624794
노원구,공릉종합사회복지관,공릉1동 708,입구 천장 1층,공공WiFi,127.06943,37.63023
노원구,공릉종합사회복지관,공릉1동 708,강당 내부 문 위 천장 3층,공공WiFi,127.06943,37.63023
노원구,공릉종합사회복지관,공릉1동 708,아름드리실 내부 천장 3층,공공WiFi,127.06943,37.63023
노원구,공릉종합사회복지관,공릉1동 708,중간복도 천장 3층,공공WiFi,127.06943,37.63023
노원구,공릉종합사회복지관,공릉1동 708,배움누리실 천장 4층,공공WiFi,127.06943,37.63023
노원구,공릉종합사회복지관,공릉1동 708,식당 내부 천장 B1층,공공WiFi,127.06943,37.63023
노원구,공릉종합사회복지관,공릉1동 708,강의실 천장 B1층,공공WiFi,127.06943,37.63023
노원구,하계1동주민센터,노원로 261,하계1동주민센터1층,공공WiFi,127.07256,37.640568
노원구,하계어울림센터,공릉로58가길13,하계어울림센터 1층,공공WiFi,127.07233,37.63605
노원구,하계어울림센터,공릉로58가길13,하계어울림센터 2층,공공WiFi,127.07233,37.63605
노원구,하계어울림센터,공릉로58가길13,하계어울림센터 2층,공공WiFi,127.07233,37.63605
노원구,하계어울림센터,공릉로58가길13,하계어울림센터 3층,공공WiFi,127.07233,37.63605
노원구,하계어울림센터,공릉로58가길13,하계어울림센터 3층,공공WiFi,127.07233,37.63605
노원구,하계어울림센터,공릉로58가길13,하계어울림센터 4층,공공WiFi,127.07233,37.63605
노원구,하계어울림센터,공릉로58가길13,하계어울림센터 4층,공공WiFi,127.07233,37.63605
노원구,하계어울림센터,공릉로58가길13,하계어울림센터옥상,공공WiFi,127.07233,37.63605
노원구,중계온마을센터,중계동 606-2,중계온마을센터1층,공공WiFi,37.658752,127.073654
노원구,중계온마을센터,중계동 606-2,중계온마을센터1층,공공WiFi,127.073654,37.658
노원구,중계온마을센터,중계동 606-2,중계온마을센터1층,공공WiFi,127.073654,37.658752
노원구,중계온마을센터,중계동 606-2,중계온마을센터2층,공공WiFi,127.073654,37.658752
노원구,중계온마을센터,중계동 606-2,중계온마을센터2층,공공WiFi,127.073654,37.658752
노원구,중계온마을센터,중계동 606-2,중계온마을센터2층,공공WiFi,127.073654,37.658752
노원구,중계온마을센터,중계동 606-2,중계온마을센터3층,공공WiFi,127.073654,37.658752
노원구,중계온마을센터,중계동 606-2,중계온마을센터3층,공공WiFi,127.073654,37.658752
노원구,중계온마을센터,중계동 606-2,중계온마을센터3층,공공WiFi,127.073654,37.658752
노원구,중계온마을센터,중계동 606-2,중계온마을센터3층,공공WiFi,127.073654,37.658752
노원구,중계온마을센터,중계동 606-2,중계온마을센터4층,공공WiFi,127.073654,37.658752
노원구,중계온마을센터,중계동 606-2,중계온마을센터4층,공공WiFi,127.073654,37.658752
노원구,중계온마을센터,중계동 606-2,중계온마을센터4층,공공WiFi,127.073654,37.658752
노원구,중계2.3동주민센터,노원로17길 56,1층,공공WiFi,127.06878,37.642113
노원구,상계67동주민센터,노원로 429,1층,공공WiFi,127.066986,37.65486
노원구,노원구 보건소,노해로 437,노원구보건소 지하1층,공공WiFi,127.057014,37.65456
노원구,노원구 보건소,노해로 437,노원구보건소 지하1층,공공WiFi,127.057014,37.65456
노원구,노원구 보건소,노해로 437,노원구보건소 지하1층,공공WiFi,127.057014,37.65456
중구,숭례문,,02-008,공공WiFi,126.973785,37.55863
서대문구,아현역,,13-044,공공WiFi,126.95918,37.55731
마포구,합정역,,14-011,공공WiFi,126.912834,37.548843
마포구,합정역,,14-012,공공WiFi,126.91372,37.549515
마포구,서교동,,14-013,공공WiFi,126.91961,37.553616
마포구,서교동,,14-014,공공WiFi,126.92018,37.554295
마포구,홍대입구역,,14-015,공공WiFi,126.9233,37.556396
마포구,홍대입구역,,14-016,공공WiFi,126.92452,37.557533
마포구,0,,14-019,공공WiFi,0,0
마포구,동교동삼거리,,14-061,공공WiFi,126.92843,37.55801
마포구,신촌오거리.현대백화점,,14-062,공공WiFi,126.93587,37.55535
마포구,웨딩타운,,14-067,공공WiFi,126.95152,37.55703
마포구,아현역,,14-068,공공WiFi,126.95475,37.557262
송파구,잠실역.잠실대교.남단,,24-002,공공WiFi,127.099556,37.513668
송파구,석촌호수.한솔병원,,24-003,공공WiFi,127.10577,37.506763
송파구,석촌호수.한솔병원,,24-004,공공WiFi,127.1052,37.507072
송파구,석촌역,,24-005,공공WiFi,127.108864,37.503365
송파구,석촌역,,24-006,공공WiFi,127.10833,37.503593
송파구,송파역,,24-007,공공WiFi,127.111855,37.50022
송파구,송파역,,24-008,공공WiFi,127.11117,37.50056
송파구,가락시장.가락시장역,,24-009,공공WiFi,127.117165,37.494385
송파구,가락시장.가락시장역,,24-010,공공WiFi,127.116486,37.494736
송파구,문정법조단지.건영아파트,,24-013,공공WiFi,127.1247,37.48162
송파구,문정법조단지.건영아파트,,24-014,공공WiFi,127.12373,37.48299
송파구,장지역.가든파이브,,24-015,공공WiFi,127.12608,37.47903
송파구,장지역.가든파이브,,24-016,공공WiFi,127.12558,37.47946
강동구,상일초교,,25-001,공공WiFi,127.17141,37.54616
강동구,상일초교,,25-002,공공WiFi,127.17063,37.54568
강동구,초이동,,25-003,공공WiFi,127.16178,37.542137
강동구,초이동,,25-004,공공WiFi,127.16102,37.5417
강동구,강동자이.프라자아파트,,25-005,공공WiFi,127.14883,37.53676
강동구,강동자이&middot;프라자아파트,,25-006,공공WiFi,127.1479,37.536167
강동구,둔촌2동주민센터,,25-007,공공WiFi,127.14291,37.534325
강동구,둔촌2동주민센터,,25-008,공공WiFi,127.142265,37.533882
강동구,길동사거리.강동세무서,,25-009,공공WiFi,127.13668,37.534573
강동구,길동사거리.강동세무서,,25-010,공공WiFi,127.135956,37.534584
강동구,강동역,,25-011,공공WiFi,127.13259,37.535885
강동구,강동역,,25-012,공공WiFi,127.13178,37.535908
관악구,신림사거리.신림역,,21-350,공공WiFi,126.92828,37.484154
서초구,양재역,,22-289,공공WiFi,127.034996,37.483383
강남구,수서역,,23-408,공공WiFi,127.101875,37.486908
송파구,잠실역.롯데월드,,24-146,공공WiFi,127.09809,37.512634
용산구,순천향대학병원,,03-162,공공WiFi,127.005615,37.53639
관악구,패션문화의거리입구,,21-149,공공WiFi,126.92948,37.48599
구로구,온수역,,17-185,공공WiFi,126.82471,37.49296
송파구,잠실역1번.11번출구,,24-134,공공WiFi,127.103134,37.514187
송파구,잠실역1번.11번출구,,24-134,공공WiFi,127.103134,37.514187
송파구,잠실역1번.11번출구,,24-134,공공WiFi,127.103134,37.514187
송파구,잠실역1번.11번출구,,24-134,공공WiFi,127.103134,37.514187
송파구,잠실역1번.11번출구,,24-134,공공WiFi,127.103134,37.514187
용산구,순천향대학병원.한남오거리,,03-165,공공WiFi,127.006065,37.535248
양천구,목동역.홍익병원,,15-160,공공WiFi,126.864235,37.52734
구로구,신도림역,,17-102,공공WiFi,126.89164,37.507053
강남구,봉은사역3번출구.삼성1파출소,,23-192,공공WiFi,127.059944,37.515038
송파구,잠실역.롯데월드,,24-138,공공WiFi,127.09798,37.51284
송파구,잠실역.롯데월드,,24-138,공공WiFi,127.09798,37.51284
송파구,잠실역.롯데월드,,24-138,공공WiFi,127.09798,37.51284
동대문구,장한평역,,06-252,공공WiFi,127.06535,37.562473
영등포구,당산역,,19-172,공공WiFi,126.90069,37.53455
광진구,건대입구역사거리.건대병원,,05-232,공공WiFi,127.07119,37.540997
송파구,잠실종합운동장,,24-154,공공WiFi,127.07277,37.51065
관악구,영광메디컬센터,,21-145,공공WiFi,126.93349,37.473286
강남구,삼호물산,,23-370,공공WiFi,127.04505,37.47712
강서구,까치산역4번출구,,16-192,공공WiFi,126.8463,37.53228
도봉구,창동역동측,,10-265,공공WiFi,127.05001,37.653873
강서구,가양역.마포중고등학교,,16-136,공공WiFi,126.85431,37.559525
관악구,신대방역,,21-225,공공WiFi,126.91308,37.486824
동작구,숭실대입구역,,20-165,공공WiFi,126.953476,37.496235
성북구,종암경찰서,,08-151,공공WiFi,127.03365,37.60101
서초구,양재2동주민센터.양재꽃시장,,22-293,공공WiFi,127.03921,37.4695
양천구,목동대학학원,,15-167,공공WiFi,126.87342,37.524826
관악구,신림사거리.신림역,,21-117,공공WiFi,126.927444,37.483856
은평구,구파발역2번출구,,12-111,공공WiFi,126.91889,37.63676
성동구,성동구청,,04-111,공공WiFi,127.03623,37.563213
강남구,삼성역,,23-244,공공WiFi,127.06354,37.507732
도봉구,쌍문역.쌍문역골목시장,,10-124,공공WiFi,127.03425,37.64797
은평구,연서시장,,12-185,공공WiFi,126.92259,37.61924
중구,동대문역사문화공원,,02-174,공공WiFi,127.00898,37.567627
성북구,숭례초교,,08-154,공공WiFi,127.03578,37.594822
송파구,잠실역,,24-133,공공WiFi,127.09921,37.5145
송파구,잠실역,,24-133,공공WiFi,127.09921,37.5145
송파구,잠실역,,24-133,공공WiFi,127.09921,37.5145
강남구,프리마호텔,,23-167,공공WiFi,127.05142,37.524635
송파구,천호역.풍납시장,,24-101,공공WiFi,127.122765,37.537148
금천구,모두의학교.금천문화예술정보학교,,18-197,공공WiFi,126.90556,37.48005
강서구,목동사거리,,16-179,공공WiFi,126.86375,37.53164
동작구,숭실대입구역,,20-166,공공WiFi,126.95359,37.496384
관악구,서울대입구역5번출구,,21-104,공공WiFi,126.951,37.481514
중구,동대문역사문화공원,,02-173,공공WiFi,127.00842,37.56732
성북구,정릉길음시장,,08-121,공공WiFi,127.01917,37.60236
강남구,역삼역.GS타워,,23-281,공공WiFi,127.03675,37.50138
관악구,난곡입구,,21-115,공공WiFi,126.915596,37.48189
종로구,혜화역.동성중고(장면총리가옥),,01-229,공공WiFi,127.001526,37.58454
강남구,신사사거리,,23-111,공공WiFi,127.02177,37.516876
서초구,코트라,,22-302,공공WiFi,127.0454,37.463516
영등포구,당산역삼성래미안아파트,,19-174,공공WiFi,126.90345,37.53307
강남구,강남구청역,,23-178,공공WiFi,127.04095,37.518284
영등포구,국회의사당역,,19-133,공공WiFi,126.91761,37.52823
관악구,봉원중학교.행운동우성아파트,,21-132,공공WiFi,126.955765,37.484978
영등포구,대방역,,19-307,공공WiFi,126.92595,37.513527
금천구,디지털3단지사거리,,18-112,공공WiFi,126.881294,37.475883
동작구,공군회관,,20-107,공공WiFi,126.92438,37.51005
광진구,광진구청,,05-148,공공WiFi,127.08339,37.538975
도봉구,쌍문역,,10-126,공공WiFi,127.03409,37.647404
은평구,선진운수종점,,12-148,공공WiFi,126.91081,37.61399
강남구,신사사거리.가로수길,,23-108,공공WiFi,127.021866,37.517155
동대문구,서울성심병원,,06-114,공공WiFi,127.05079,37.58467
관악구,대학동고시촌입구,,21-157,공공WiFi,126.93816,37.47058
동작구,서울특별시.보라매병원,,20-217,공공WiFi,126.92405,37.492825
강남구,포스코건너편,,23-217,공공WiFi,127.055466,37.506603
강남구,프리마호텔,,23-166,공공WiFi,127.049446,37.524582
강서구,강서구청,,16-139,공공WiFi,126.850586,37.552628
광진구,건대역,,05-204,공공WiFi,127.07005,37.5386
구로구,개봉역,,17-233,공공WiFi,126.85637,37.493828
서대문구,사천교,,13-109,공공WiFi,126.91821,37.567608
강남구,한양아파트.압구정로데오역,,23-159,공공WiFi,127.03931,37.52806
강남구,한양아파트.압구정로데오역,,23-159,공공WiFi,127.03931,37.52806
양천구,목동이대병원.목동6단지앞,,15-154,공공WiFi,126.88415,37.536884
강서구,가양역.마포중고등학교,,16-135,공공WiFi,126.85419,37.558933
영등포구,공군회관,,19-255,공공WiFi,126.92418,37.50984
금천구,범일운수종점,,18-219,공공WiFi,126.91083,37.45058
성북구,숭례초등학교,,08-155,공공WiFi,127.03605,37.59438
성북구,숭례초등학교,,08-155,공공WiFi,127.03605,37.59438
도봉구,창동역서측,,10-234,공공WiFi,127.04617,37.652348
관악구,서울대입구역,,21-252,공공WiFi,126.952576,37.479946
강서구,강서구청,,16-140,공공WiFi,126.85034,37.552574
관악구,패션문화의거리입구,,21-152,공공WiFi,126.92907,37.486652
강남구,신사중학교,,23-102,공공WiFi,127.02109,37.523487
관악구,남서울중학교.성보중고등학교,,21-116,공공WiFi,126.9208,37.48287
강남구,학동역,,23-114,공공WiFi,127.03024,37.51481
관악구,봉천사거리,,21-121,공공WiFi,126.95477,37.48039
은평구,구파발역.롯데몰,,12-112,공공WiFi,126.91881,37.63642
은평구,구파발역.롯데몰,,12-112,공공WiFi,126.91881,37.63642
은평구,구파발역.롯데몰,,12-112,공공WiFi,126.91881,37.63642
은평구,구파발역.롯데몰,,12-112,공공WiFi,126.91881,37.63642
강서구,영일고등학교.강서도서관,,16-173,공공WiFi,126.86347,37.548965
강남구,한티역7번출구,,23-310,공공WiFi,127.05141,37.49581
관악구,관악구보훈회관.신림푸르지오,,21-112,공공WiFi,126.91126,37.481274
양천구,목3동주민센터.현대아이파크.실로암안과,,15-127,공공WiFi,126.862305,37.544853
구로구,구로역.AK플라자,,17-144,공공WiFi,126.88302,37.500145
용산구,서울시중부기술교육원.블루스퀘어,,03-161,공공WiFi,127.0034,37.541344
금천구,관악구보훈회관.신림푸르지오,,18-198,공공WiFi,126.909134,37.4807
영등포구,샛강역4번출구.여의도자이,,19-154,공공WiFi,126.92673,37.51878
용산구,한남5거리,,03-166,공공WiFi,127.009315,37.5314
동작구,사당역9번출구앞,,20-253,공공WiFi,126.98152,37.477238
동작구,사당역9번출구앞,,20-253,공공WiFi,126.98152,37.477238
강남구,학동역,,23-132,공공WiFi,127.03027,37.51513
강남구,진흥아파트청담역,,23-186,공공WiFi,127.052315,37.5191
영등포구,63빌딩.가톨릭대학교여의도성모병원,,19-143,공공WiFi,126.93744,37.51928
성동구,무학여고,,04-132,공공WiFi,127.03392,37.5579
중랑구,중랑구청사거리,,07-273,공공WiFi,127.09525,37.605507
서대문구,기업은행홍은동지점,,13-159,공공WiFi,126.93624,37.58257
성북구,삼선동주민센터,,08-176,공공WiFi,127.01462,37.59062
관악구,낙성대입구,,21-102,공공WiFi,126.961815,37.477818
성북구,돈암동삼성아파트입구,,08-123,공공WiFi,127.024475,37.60203
강서구,우장산역,,16-214,공공WiFi,126.83625,37.549805
성북구,숭덕초교,,08-119,공공WiFi,127.014725,37.603535
관악구,봉천역.관악초등학교,,21-119,공공WiFi,126.943275,37.482143
양천구,목동5단지B상가.목5동주민센터,,15-153,공공WiFi,126.88113,37.535828
송파구,잠실역8번출구,,24-132,공공WiFi,127.101524,37.513798
관악구,행운동주민센터,,21-103,공공WiFi,126.956825,37.479774
양천구,목운초등학교.목운중학교,,15-164,공공WiFi,126.87326,37.52618
관악구,봉원중학교.행운동우성아파트,,21-137,공공WiFi,126.9554,37.48467
양천구,목동사거리,,15-111,공공WiFi,126.86376,37.533268
양천구,영도중.강서고입구.기아양서대리점,,15-112,공공WiFi,126.86354,37.536175
구로구,구로구청,,17-293,공공WiFi,126.88838,37.495876
마포구,마포구청역,,14-194,공공WiFi,126.90265,37.562756
강서구,우장산역,,16-213,공공WiFi,126.836426,37.54924
관악구,KT구로지사,,21-114,공공WiFi,126.90517,37.48015
양천구,강서초등학교,,15-221,공공WiFi,126.84166,37.521835
강남구,국악고교사거리,,23-369,공공WiFi,127.04786,37.474403
강동구,천호사거리.천호역6번출구,,25-130,공공WiFi,127.125946,37.53769
영등포구,당산푸르지오아파트,,19-126,공공WiFi,126.905815,37.528988
송파구,송파경찰서.오금역,,24-369,공공WiFi,127.12688,37.50279
마포구,홀트아동복지회,,14-218,공공WiFi,126.91221,37.54893
마포구,홀트아동복지회,,14-218,공공WiFi,126.91221,37.54893
송파구,종합운동장사거리,,24-157,공공WiFi,127.07956,37.511814
관악구,인헌중고.서울미술고,,21-124,공공WiFi,126.96654,37.47571
영등포구,안양천입구,,19-217,공공WiFi,126.88459,37.54696
성북구,정릉우체국앞,,08-169,공공WiFi,127.01145,37.60518
성북구,정릉우체국앞,,08-169,공공WiFi,127.01145,37.60518
강동구,암사역2번출구.암사종합시장,,25-156,공공WiFi,127.12738,37.549633
서대문구,명지대,,13-195,공공WiFi,126.92439,37.579914
서초구,서초역.서울중앙지법등기국,,22-135,공공WiFi,127.00726,37.49288
강남구,압구정파출소,,23-157,공공WiFi,127.036095,37.52885
강서구,화곡역,,16-148,공공WiFi,126.837135,37.540813
강남구,신사동사거리.신사역,,23-110,공공WiFi,127.01993,37.515255
동작구,봉천고개.관악현대아파트,,20-168,공공WiFi,126.95653,37.491737
은평구,연신초등학교,,12-199,공공WiFi,126.92884,37.625614
서초구,우면주공아파트.양재1동주민센터,,22-280,공공WiFi,127.025826,37.470753
관악구,서울산업정보학교.삼성교,,21-158,공공WiFi,126.94202,37.47065
노원구,수락산역3번출구,,11-196,공공WiFi,127.05539,37.677174
강서구,우장초등학교,,16-142,공공WiFi,126.847725,37.549397
서초구,양재역.양재1동민원분소,,22-270,공공WiFi,127.03739,37.4849
강서구,우장초등학교,,16-141,공공WiFi,126.84833,37.550274
관악구,보라매삼성아파트.모자원고개,,21-263,공공WiFi,126.92728,37.494534
동대문구,동경호텔현대벤처빌,,06-246,공공WiFi,127.06941,37.568916
강남구,현대아파트,,23-148,공공WiFi,127.03058,37.528446
관악구,성현동동아아파트,,21-136,공공WiFi,126.957924,37.488434
은평구,서부병원,,12-133,공공WiFi,126.92355,37.600628
성북구,숭덕초교,,08-120,공공WiFi,127.0151,37.60356
노원구,중계1동주민센터,,11-398,공공WiFi,127.07742,37.651947
양천구,월촌중학교,,15-148,공공WiFi,126.88212,37.53786
강남구,봉은사.삼성1파출소앞,,23-189,공공WiFi,127.05959,37.515022
강남구,강남구청.강남세무서,,23-176,공공WiFi,127.04739,37.518314
영등포구,신길새마을금고,,19-226,공공WiFi,126.9201,37.513794
강남구,도곡1차아이파크.역삼청소년수련관,,23-312,공공WiFi,127.04182,37.492752
성북구,아리랑고개.아리랑시네미디어센터,,08-265,공공WiFi,127.01377,37.60064
관악구,봉천사거리.위버폴리스,,21-368,공공WiFi,126.95377,37.48269
구로구,씨티월드,,17-173,공공WiFi,126.84042,37.49445
송파구,잠실엘스아파트앞,,24-142,공공WiFi,127.08339,37.51188
관악구,예술인마을.사당초등학교,,21-125,공공WiFi,126.97393,37.47609
송파구,송파구민회관구의회,,24-169,공공WiFi,127.094635,37.502598
강남구,강남경찰서면허시험장,,23-196,공공WiFi,127.065956,37.509766
동작구,상도동중앙하이츠빌.상도전통시장,,20-163,공공WiFi,126.951645,37.49862
강남구,수서역KT수서지점,,23-404,공공WiFi,127.10076,37.487144
강남구,포스코사거리,,23-202,공공WiFi,127.05619,37.50778
강남구,은마아파트,,23-233,공공WiFi,127.06274,37.495552
강남구,삼성동서광아파트,,23-205,공공WiFi,127.04258,37.51733
마포구,공덕시장,,14-142,공공WiFi,126.95395,37.544464
도봉구,쌍문동삼익금호1차아파트,,10-214,공공WiFi,127.035126,37.658043
양천구,목3동시장.강서도서관,,15-128,공공WiFi,126.86384,37.549713
관악구,관악푸르지오아파트,,21-133,공공WiFi,126.95798,37.487743
성북구,월곡역,,08-133,공공WiFi,127.042305,37.602844
영등포구,신풍역.백악관웨딩문화원앞,,19-241,공공WiFi,126.909454,37.500893
강북구,삼양동사거리,,09-166,공공WiFi,127.0214,37.618107
금천구,벽산아파트1단지.호압사입구,,18-137,공공WiFi,126.92106,37.452785
강남구,서울상록회관.한국기술센터,,23-277,공공WiFi,127.04397,37.50308
강서구,발산역2번출구,,16-219,공공WiFi,126.83861,37.560024
강남구,씨네시티.앞,,23-161,공공WiFi,127.03786,37.522858
강남구,청담역.경기고교,,23-187,공공WiFi,127.0565,37.519897
마포구,성산119안전센터,,14-161,공공WiFi,126.90363,37.569805
동대문구,신이문역,,06-253,공공WiFi,127.067856,37.60264
강남구,진선여자중고등학교,,23-307,공공WiFi,127.04993,37.50228
서초구,논현사거리.논현역5번출구,,22-183,공공WiFi,127.01939,37.51053
동대문구,동대문우체국.서울풍물시장,,06-163,공공WiFi,127.024605,37.574818
은평구,불광역.불광1동주민센터,,12-249,공공WiFi,126.93224,37.60916
영등포구,63빌딩.가톨릭대학교여의도성모병원,,19-144,공공WiFi,126.93762,37.519253
영등포구,대신시장,,19-228,공공WiFi,126.91639,37.51189
성북구,미아초교,,08-171,공공WiFi,127.02208,37.611538
성북구,미아초교,,08-171,공공WiFi,127.02208,37.611538
성동구,마장축산물시장,,04-119,공공WiFi,127.03762,37.5697
영등포구,당산동진로아파트,,19-163,공공WiFi,126.89702,37.52111
마포구,공항철도디지털미디어시티역,,14-358,공공WiFi,126.8989,37.5767
동작구,예술인마을,,20-142,공공WiFi,126.972855,37.47603
금천구,금천패션아울렛사거리.W몰,,18-114,공공WiFi,126.88784,37.477737
금천구,금천패션아울렛사거리.W몰,,18-114,공공WiFi,126.88784,37.477737
은평구,대림시장,,12-166,공공WiFi,126.916985,37.58869
송파구,남천초교마천동우방아파트앞,,24-296,공공WiFi,127.151886,37.499847
관악구,관악우체국(양지병원),,21-261,공공WiFi,126.933174,37.48476
강남구,진흥아파트,,23-173,공공WiFi,127.05212,37.519196
마포구,성산2동주민센터,,14-158,공공WiFi,126.90836,37.567852
관악구,남서울농협남현동지점,,21-126,공공WiFi,126.97729,37.476505
강남구,세곡중학교.세명초등학교,,23-448,공공WiFi,127.09247,37.470398
강남구,압구정파출소,,23-156,공공WiFi,127.03652,37.528873
양천구,목동2단지,,15-106,공공WiFi,126.8779,37.536377
노원구,중계역2번출구,,11-376,공공WiFi,127.064865,37.645794
강남구,한티역3번출구.서울강남고용노동지청,,23-222,공공WiFi,127.0541,37.496525
동작구,서울공업고등학교,,20-144,공공WiFi,126.92157,37.499924
성북구,성가복지병원,,08-148,공공WiFi,127.0313,37.605915
성북구,성가복지병원,,08-148,공공WiFi,127.0313,37.605915
광진구,자양동잠실대교북단,,05-188,공공WiFi,127.08496,37.533012
강동구,상일동역4번출구,,25-134,공공WiFi,127.16469,37.55643
영등포구,전경련회관,,19-161,공공WiFi,126.91876,37.522015
영등포구,신길역,,19-279,공공WiFi,126.91498,37.51854
강동구,강동아트센터.강동경희대병원,,25-178,공공WiFi,127.1563,37.552334
양천구,국민은행신월동지점,,15-337,공공WiFi,126.828865,37.535873
강서구,화곡푸르지오,,16-149,공공WiFi,126.835396,37.54023
양천구,목동성원아파트,,15-126,공공WiFi,126.8631,37.542267
서대문구,서대문자연사박물관입구,,13-155,공공WiFi,126.935265,37.575188
서대문구,북가좌2동주민센터,,13-175,공공WiFi,126.911476,37.58029
송파구,올림픽공원역,,24-245,공공WiFi,127.131165,37.516457
강동구,강동공영차고지,,25-101,공공WiFi,127.173874,37.56405
성동구,마장축산물시장,,04-120,공공WiFi,127.03761,37.57024
관악구,남부초등학교,,21-109,공공WiFi,126.9223,37.483322
성동구,응봉사거리,,04-140,공공WiFi,127.034294,37.555283
강남구,역삼럭키아파트.역삼월드메르디앙아파트,,23-291,공공WiFi,127.03874,37.49179
강남구,그랑프리백화점,,23-456,공공WiFi,127.055595,37.490025
송파구,마천동사거리,,24-299,공공WiFi,127.14679,37.49862
강남구,논현동사거리.학동역,,23-118,공공WiFi,127.03009,37.5137
은평구,불광지구대,,12-200,공공WiFi,126.926575,37.621826
동작구,흑석역.명수대현대아파트,,20-126,공공WiFi,126.965126,37.507595
구로구,오류동역,,17-171,공공WiFi,126.84319,37.495644
강남구,영동교입구,,23-169,공공WiFi,127.056404,37.520832
중구,만리동고개,,02-101,공공WiFi,126.962524,37.551704
중랑구,상봉터미널,,07-309,공공WiFi,127.0929,37.59623
동대문구,경동시장앞,,06-167,공공WiFi,127.03863,37.582005
영등포구,교보앞,,19-166,공공WiFi,126.892105,37.521885
마포구,상암초등학교,,14-166,공공WiFi,126.89334,37.576546
동작구,서울지방병무청앞,,20-106,공공WiFi,126.92309,37.50689
강남구,청담역.경기고교,,23-170,공공WiFi,127.056404,37.520832
송파구,한양 삼익아파트,,24-224,공공WiFi,127.12156,37.50585
서대문구,세브란스병원,,13-116,공공WiFi,126.937836,37.559975
영등포구,국회의사당역.국민은행,,19-132,공공WiFi,126.91791,37.528133
동작구,노들역,,20-121,공공WiFi,126.95089,37.512745
강서구,화곡역,,16-147,공공WiFi,126.83881,37.541126
강남구,삼성역,,23-438,공공WiFi,127.06378,37.507286
중랑구,국민은행중화동지점,,07-109,공공WiFi,127.079926,37.598835
송파구,송파구민회관구의회,,24-168,공공WiFi,127.09476,37.5027
동대문구,장안2동주민센터,,06-212,공공WiFi,127.07041,37.5788
은평구,은평세무서,,12-134,공공WiFi,126.92663,37.601295
강남구,한국무역센터.삼성역,,23-251,공공WiFi,127.06157,37.508286
강남구,도곡1동주민센터.역삼럭키아파트,,23-314,공공WiFi,127.03897,37.491695
노원구,노일초등학교,,11-198,공공WiFi,127.0554,37.673534
강남구,은곡마을입구.리엔파크2단지,,23-537,공공WiFi,127.10248,37.46517
동대문구,떡전교앞,,06-187,공공WiFi,127.052704,37.584675
송파구,영파여고.강동구청역,,24-109,공공WiFi,127.12073,37.53128
구로구,오류동역,,17-172,공공WiFi,126.842575,37.49555
광진구,신성시장앞,,05-118,공공WiFi,127.08776,37.558327
도봉구,국민은행방학지점,,10-191,공공WiFi,127.034325,37.662376
동대문구,외대앞,,06-126,공공WiFi,127.05966,37.595604
서대문구,정원여중,,13-161,공공WiFi,126.93521,37.587383
관악구,서울산업정보학교.삼성교,,21-143,공공WiFi,126.94117,37.470963
구로구,오류1동주민센터.오류문화센터,,17-170,공공WiFi,126.844696,37.496464
강남구,대치아파트,,23-395,공공WiFi,127.07229,37.492344
영등포구,당산역,,19-173,공공WiFi,126.899506,37.534992
동작구,보라매병원입구,,20-188,공공WiFi,126.92718,37.494675
양천구,신트리아파트,,15-226,공공WiFi,126.85445,37.51306
서초구,뱅뱅사거리,,22-125,공공WiFi,127.02942,37.48894
중랑구,지하철7호선중화역,,07-107,공공WiFi,127.079185,37.602627
동대문구,청솔우성아파트.답십리시장,,06-195,공공WiFi,127.05743,37.57411
동대문구,동대문구청.용신동주민센터,,06-166,공공WiFi,127.038124,37.575497
서초구,언남고교,,22-295,공공WiFi,127.038635,37.47328
송파구,송파구청.방이맛골,,24-136,공공WiFi,127.10696,37.514126
강남구,한티역,,23-252,공공WiFi,127.05205,37.498085
강남구,신사중학교,,23-101,공공WiFi,127.02044,37.522995
강북구,북부수도사업소,,09-154,공공WiFi,127.03599,37.634426
중구,을지로입구.로얄호텔,,02-156,공공WiFi,126.985374,37.565987
양천구,동방아파트.신월종합사회복지관,,15-214,공공WiFi,126.84622,37.52149
영등포구,당산역삼성래미안아파트,,19-175,공공WiFi,126.903564,37.53316
동작구,비계,,20-129,공공WiFi,126.968094,37.506416
종로구,세검정초등학교,,01-133,공공WiFi,126.96128,37.60249
관악구,관악구청,,21-130,공공WiFi,126.95234,37.47797
서대문구,DMC래미안e.편한세상2.4단지,,13-183,공공WiFi,126.911026,37.576767
관악구,서울대학교,,21-128,공공WiFi,126.94912,37.467278
강북구,미아사거리역,,09-261,공공WiFi,127.0304,37.61177
강남구,강남구청.강남세무서,,23-206,공공WiFi,127.04798,37.5183
서초구,하나로마트.코트라,,22-301,공공WiFi,127.04462,37.46397
송파구,삼익아파트미성아파트,,24-206,공공WiFi,127.12043,37.506165
은평구,아이파크708동앞,,12-457,공공WiFi,126.92685,37.645412
금천구,남문시장.청춘빌딩,,18-149,공공WiFi,126.898415,37.472984
서대문구,홍은현대아파트,,13-162,공공WiFi,126.93618,37.588448
영등포구,영등포시장,,19-120,공공WiFi,126.90487,37.521263
강북구,오현초등학교,,09-186,공공WiFi,127.04812,37.62332
종로구,구기동,,01-152,공공WiFi,126.958595,37.607044
서초구,구립서초어린이도서관,,22-120,공공WiFi,127.028946,37.49264
양천구,목동3단지,,15-115,공공WiFi,126.86977,37.53403
강남구,개포동역.개포시장,,23-354,공공WiFi,127.066345,37.4885
양천구,신월5동주민센터.신월중학교,,15-347,공공WiFi,126.82736,37.539303
동대문구,동답한신동아아파트,,06-150,공공WiFi,127.064285,37.569714
양천구,신정네거리역,,15-251,공공WiFi,126.85334,37.519253
강동구,길동역1번출구,,25-240,공공WiFi,127.139946,37.53797
노원구,노원우체국,,11-408,공공WiFi,127.081856,37.646133
노원구,어린이교통공원,,11-372,공공WiFi,127.062706,37.645237
용산구,순천향대학병원,,03-164,공공WiFi,127.005684,37.535873
서대문구,충정로역2호선,,13-137,공공WiFi,126.96616,37.56087
은평구,구산역1번출구,,12-182,공공WiFi,126.91747,37.611664
강남구,새마을운동중앙회,,23-511,공공WiFi,127.067116,37.501823
송파구,풍납동극동.쌍용아파트,,24-110,공공WiFi,127.118004,37.526573
동대문구,고려대역.고대앞삼거리,,06-174,공공WiFi,127.0368,37.588806
은평구,연신내역,,12-119,공공WiFi,126.92232,37.617577
은평구,서서울농협본점,,12-307,공공WiFi,126.918076,37.593452
강서구,양천향교역,,16-309,공공WiFi,126.84081,37.56684
구로구,구로구청,,17-112,공공WiFi,126.887634,37.49472
양천구,신정사거리,,15-211,공공WiFi,126.85143,37.521812
강남구,래미안포레아파트,,23-424,공공WiFi,127.10636,37.475334
양천구,오목교역.청학스포츠타운,,15-261,공공WiFi,126.87537,37.5236
관악구,난곡입구,,21-111,공공WiFi,126.915565,37.482067
은평구,신사초등학교,,12-158,공공WiFi,126.91353,37.593124
영등포구,한신아파트.선유도역,,19-210,공공WiFi,126.89318,37.538292
성동구,용답동동부시장답십리역,,04-218,공공WiFi,127.05387,37.565792
영등포구,관악고등학교,,19-205,공공WiFi,126.88484,37.52313
성북구,브라운호텔,,08-181,공공WiFi,127.02032,37.583385
영등포구,삼환아파트,,19-125,공공WiFi,126.90571,37.52903
서초구,방배역.방배서리풀이편한세상,,22-229,공공WiFi,126.99641,37.483395
강남구,역삼중학교.강남세브란스병원,,23-311,공공WiFi,127.04775,37.494606
강남구,매봉역,,23-323,공공WiFi,127.04491,37.486034
영등포구,여의도순복음교회,,19-136,공공WiFi,126.92498,37.53094
양천구,신월3동주민센터.신월3동우체국,,15-334,공공WiFi,126.82891,37.5347
강동구,강일중선사고.양지종합시장,,25-149,공공WiFi,127.137146,37.554752
구로구,대원주유소,,17-208,공공WiFi,126.856255,37.487362
송파구,종합운동장사거리,,24-143,공공WiFi,127.07969,37.512028
강동구,암사3동주민센터(강동롯데캐슬퍼스트),,25-147,공공WiFi,127.139275,37.554745
강남구,못골마을,,23-464,공공WiFi,127.10181,37.473965
노원구,월계헬스케어센터,,11-340,공공WiFi,127.06157,37.631702
구로구,고척시장,,17-225,공공WiFi,126.861946,37.503685
은평구,은평세무서,,12-127,공공WiFi,126.926346,37.60138
양천구,목동5단지C상가.목동운동장북문,,15-151,공공WiFi,126.87737,37.532795
성북구,돌곶이역,,08-209,공공WiFi,127.05757,37.6102
성북구,돌곶이역,,08-209,공공WiFi,127.05757,37.6102
양천구,신정현대아파트,,15-320,공공WiFi,126.841736,37.508717
노원구,은행사거리,,11-349,공공WiFi,127.07665,37.64994
강서구,화곡본동시장,,16-145,공공WiFi,126.84269,37.543144
강남구,한서병원,,23-305,공공WiFi,127.03893,37.5013
동작구,상도초등학교입구,,20-150,공공WiFi,126.93578,37.50295
서초구,서초중학교,,22-146,공공WiFi,127.00856,37.483543
광진구,광진경찰서,,05-145,공공WiFi,127.08382,37.5415
강남구,제일은행.호림아트센터앞,,23-125,공공WiFi,127.03488,37.521687
강남구,아가방빌딩.하나은행,,23-280,공공WiFi,127.03867,37.501457
강서구,개화검문소,,16-170,공공WiFi,126.799866,37.57853
구로구,한국산업단지공단.이마트구로점,,17-122,공공WiFi,126.8966,37.484047
영등포구,우신초등학교,,19-238,공공WiFi,126.91084,37.50923
동대문구,동대문구청.용신동주민센터,,06-165,공공WiFi,127.03833,37.576584
서대문구,KT가좌지사,,13-176,공공WiFi,126.91293,37.58191
강동구,강일리버파크9단지.10단지,,25-328,공공WiFi,127.17923,37.559555
은평구,서부병원,,12-128,공공WiFi,126.923706,37.600796
마포구,신촌로터리,,14-204,공공WiFi,126.93487,37.553993
은평구,연신내역.로데오거리,,12-184,공공WiFi,126.919914,37.617855
은평구,응암오거리,,12-157,공공WiFi,126.91652,37.59071
용산구,한강중학교앞,,03-156,공공WiFi,126.992584,37.524574
강서구,경복비즈니스고등학교,,16-137,공공WiFi,126.85339,37.55755
강남구,강남경찰서.강남운전면허시험장,,23-473,공공WiFi,127.06599,37.50956
은평구,구산역2번출구.예일여고,,12-151,공공WiFi,126.91792,37.61081
양천구,파리공원,,15-152,공공WiFi,126.87826,37.534668
강남구,신사동교회,,23-151,공공WiFi,127.03067,37.5206
양천구,신정동현대아파트,,15-317,공공WiFi,126.84314,37.508404
양천구,목동우성아파트,,15-203,공공WiFi,126.863846,37.508213
강남구,대치현대아파트,,23-247,공공WiFi,127.05974,37.500996
강남구,래미안블레스티지아파트,,23-345,공공WiFi,127.06355,37.480183
서초구,뉴코아아울렛,,22-207,공공WiFi,127.00787,37.509247
강남구,대치역1번출구,,23-226,공공WiFi,127.06154,37.49381
강북구,송천초등학교.미아뉴타운입구,,09-168,공공WiFi,127.022095,37.61546
송파구,오금동상아아파트,,24-251,공공WiFi,127.1359,37.497612
강남구,논현동사거리.학동역,,23-115,공공WiFi,127.02972,37.51372
종로구,평창동주민센터,,01-157,공공WiFi,126.96957,37.60661
양천구,신화중학교,,15-352,공공WiFi,126.83048,37.539406
송파구,잠실5단지,,24-139,공공WiFi,127.09392,37.51217
강동구,천호역현대백화점,,25-161,공공WiFi,127.123825,37.54024
양천구,목동역.홍익병원,,15-284,공공WiFi,126.86401,37.528053
은평구,역촌역역촌오거리,,12-138,공공WiFi,126.92243,37.606934
용산구,보광동신동아아파트,,03-277,공공WiFi,127.00146,37.52559
용산구,보광동신동아아파트,,03-277,공공WiFi,127.00146,37.52559
강동구,천호역,,25-163,공공WiFi,127.12251,37.536026
종로구,세검정초등학교,,01-144,공공WiFi,126.961334,37.60229
성북구,정릉2동주민센터,,08-117,공공WiFi,127.011024,37.60476
용산구,신용산역,,03-253,공공WiFi,126.96763,37.529987
강남구,도곡1차아이파크.도곡중학교,,23-315,공공WiFi,127.04236,37.492718
동대문구,동아.위더스빌아파트,,06-153,공공WiFi,127.061554,37.566116
강서구,양천초등학교.겸재정선미술관,,16-269,공공WiFi,126.8403,37.56902
강남구,도곡렉슬아파트.강남세브란스병원,,23-330,공공WiFi,127.04814,37.494526
동대문구,장한평역,,06-251,공공WiFi,127.0653,37.56261
중랑구,새솔초등학교입구,,07-455,공공WiFi,127.10979,37.617226
강남구,쌍용아파트,,23-240,공공WiFi,127.06918,37.498016
동대문구,용두동,,06-162,공공WiFi,127.03179,37.573837
서대문구,서대문구청서대문보건소,,13-156,공공WiFi,126.93621,37.579742
영등포구,신화병원,,19-121,공공WiFi,126.90521,37.524525
강동구,강동경희대병원.명일동이마트,,25-177,공공WiFi,127.15655,37.554558
동대문구,우리은행장안지점앞,,06-249,공공WiFi,127.06748,37.565666
도봉구,초당초등학교,,10-204,공공WiFi,127.02314,37.657356
은평구,연신내역,,12-106,공공WiFi,126.92206,37.61813
동작구,서울공업고등학교,,20-143,공공WiFi,126.92243,37.499798
강남구,강남구청역,,23-128,공공WiFi,127.04009,37.51689
영등포구,여의도지하차도입구,,19-290,공공WiFi,126.92304,37.523083
은평구,신진과학기술고등학교,,12-308,공공WiFi,126.92055,37.59788
은평구,증산역.증산동주민센터,,12-364,공공WiFi,126.90939,37.58371
강서구,등촌2동주민센터.등촌동대림아파트,,16-175,공공WiFi,126.86312,37.541996
강남구,수서역,,23-402,공공WiFi,127.10054,37.48815
강동구,강동역1번출구.동신중학교,,25-125,공공WiFi,127.1321,37.536034
양천구,푸른마을2단지아파트,,15-323,공공WiFi,126.8342,37.514248
중구,서대문역사거리.농협중앙회,,02-281,공공WiFi,126.968765,37.56782
서대문구,한성화교중고교.서대문소방서,,13-153,공공WiFi,126.93523,37.572468
양천구,국립과학수사연구소입구,,15-298,공공WiFi,126.83647,37.523094
영등포구,양평동한솔아파트,,19-218,공공WiFi,126.890434,37.544025
서대문구,동신병원,,13-158,공공WiFi,126.93607,37.5811
동대문구,동대문구청.용두역3번출구,,06-164,공공WiFi,127.038246,37.57523
강서구,화곡중고등학교,,16-211,공공WiFi,126.83625,37.54718
중랑구,지하철7호선사가정역,,07-179,공공WiFi,127.088524,37.581215
용산구,전쟁기념관,,03-185,공공WiFi,126.97733,37.534576
노원구,노원구민회관,,11-367,공공WiFi,127.066605,37.639442
강남구,한티역2번출구.서울강남고용노동지청,,23-265,공공WiFi,127.05398,37.49668
서초구,신사역4번출구,,22-185,공공WiFi,127.01942,37.51602
송파구,석촌고분역.올림픽병원,,24-179,공공WiFi,127.098526,37.502476
강서구,대일고교.임광아파트.배광교회,,16-176,공공WiFi,126.86369,37.539783
중랑구,신내교회.신내데시앙아파트,,07-303,공공WiFi,127.10107,37.61054
강서구,화곡역1번출구,,16-207,공공WiFi,126.8396,37.54255
강남구,무역센터,,23-199,공공WiFi,127.06223,37.510193
영등포구,영등포기계상가,,19-202,공공WiFi,126.88876,37.52252
강남구,영동119.안전센터,,23-126,공공WiFi,127.03804,37.52267
동대문구,장안동현대아파트앞,,06-144,공공WiFi,127.06842,37.579746
강서구,발산역3번출구,,16-220,공공WiFi,126.83884,37.560196
강동구,고덕주공6단지,,25-111,공공WiFi,127.17258,37.551613
송파구,풍납동극동.쌍용아파트,,24-232,공공WiFi,127.118416,37.526783
용산구,원효로3가,,03-146,공공WiFi,126.958176,37.534054
동대문구,청솔우성아파트.답십리시장,,06-194,공공WiFi,127.05752,37.573715
동대문구,청솔우성아파트.답십리시장,,06-194,공공WiFi,127.05752,37.573715
동대문구,전농동SK아파트,,06-304,공공WiFi,127.06171,37.578014
관악구,낙성대입구,,21-123,공공WiFi,126.96097,37.47797
영등포구,대신시장,,19-230,공공WiFi,126.91623,37.511974
은평구,대림시장,,12-165,공공WiFi,126.91661,37.58774
서초구,수협서초지점,,22-131,공공WiFi,127.02962,37.493385
종로구,신설동로터리,,01-243,공공WiFi,127.02295,37.575855
구로구,고척파크푸르지오아파트,,17-223,공공WiFi,126.85958,37.507214
강남구,영동교입구.청담자이아파트,,23-168,공공WiFi,127.05575,37.522697
용산구,한강중학교,,03-155,공공WiFi,126.99207,37.52538
관악구,관악산입구.관악문화관도서관,,21-159,공공WiFi,126.94651,37.468212
서대문구,연세대학교앞,,13-114,공공WiFi,126.93513,37.55999
강남구,청담초등학교앞,,23-182,공공WiFi,127.04511,37.526516
동대문구,안암오거리,,06-177,공공WiFi,127.02991,37.58244
관악구,신림사거리.신원시장,,21-604,공공WiFi,126.927444,37.483856
동작구,봉현초등학교,,20-167,공공WiFi,126.95638,37.49172
성동구,코스모타워.서울신용보증재단성동지점,,04-110,공공WiFi,127.03284,37.562893
강남구,한국자산신탁.르네상스호텔,,23-306,공공WiFi,127.044136,37.502888
영등포구,태양의집.KT대방지사,,19-247,공공WiFi,126.90881,37.4948
영등포구,영등포기계상가,,19-203,공공WiFi,126.88738,37.522587
중랑구,한국전력동부지사,,07-105,공공WiFi,127.07831,37.607147
영등포구,영등포농협.신길2동새마을금고,,19-231,공공WiFi,126.913445,37.511375
강남구,푸른마을아파트앞,,23-382,공공WiFi,127.079865,37.482742
강남구,신사동고개,,23-112,공공WiFi,127.02594,37.518665
용산구,해방촌,,03-151,공공WiFi,126.986595,37.53771
성북구,홍익대부속중고등학교입구,,08-230,공공WiFi,127.000656,37.593243
노원구,중계주공10단지,,11-354,공공WiFi,127.07397,37.647644
서대문구,북가좌삼호.가재울아이파크아파트,,13-185,공공WiFi,126.91333,37.575336
양천구,푸른마을1단지앞,,15-399,공공WiFi,126.83551,37.51272
동대문구,떡전교앞,,06-186,공공WiFi,127.05267,37.584892
양천구,과학수사연구소입구,,15-315,공공WiFi,126.8369,37.522076
영등포구,당중초등학교,,19-207,공공WiFi,126.891174,37.5266
서초구,서울지방조달청.서울성모병원,,22-212,공공WiFi,127.00129,37.504406
강남구,은곡마을.LH이편한세상,,23-412,공공WiFi,127.10184,37.465378
송파구,잠실트리지움아파트앞,,24-145,공공WiFi,127.09118,37.51168
용산구,한남역.용산노인종합복지관,,03-286,공공WiFi,127.00767,37.530716
은평구,래미안909동앞,,12-436,공공WiFi,126.92158,37.641148
양천구,신곡시장.금빛새마을금고,,15-216,공공WiFi,126.843704,37.519375
광진구,구의사거리,,05-154,공공WiFi,127.0863,37.54585
광진구,구의사거리,,05-154,공공WiFi,127.0863,37.54585
동작구,비계,,20-130,공공WiFi,126.96858,37.506428
강남구,구룡사입구,,23-368,공공WiFi,127.05064,37.47184
서대문구,명지전문대.충암중고등학교,,13-220,공공WiFi,126.923485,37.584835
도봉구,창동서울탁주앞,,10-251,공공WiFi,127.037,37.637543
강서구,염창동관음삼성아파트,,16-250,공공WiFi,126.869415,37.552982
관악구,신림복지관앞,,21-211,공공WiFi,126.91963,37.465195
도봉구,방학사거리,,10-195,공공WiFi,127.0405,37.662712
강남구,도성초등학교,,23-253,공공WiFi,127.0511,37.500088
강동구,암사역선사현대아파트,,25-155,공공WiFi,127.12767,37.55083
동대문구,휘경여중고휘경주공아파트앞,,06-142,공공WiFi,127.06828,37.582382
은평구,은평경찰서,,12-198,공공WiFi,126.92929,37.628067
양천구,신월1동주민센터.신월보건지소,,15-333,공공WiFi,126.83105,37.53198
용산구,용산경찰서,,03-140,공공WiFi,126.96902,37.540207
성동구,한양대정문앞,,04-130,공공WiFi,127.04322,37.55674
은평구,역말사거리,,12-207,공공WiFi,126.91529,37.60622
관악구,신림청소년독서실.신림체육센터,,21-219,공공WiFi,126.914825,37.48034
강동구,천호동공원,,25-157,공공WiFi,127.125916,37.545967
강남구,강남보건소.강남구립국제교육원,,23-200,공공WiFi,127.041916,37.515343
중구,시청앞.덕수궁,,02-286,공공WiFi,126.977005,37.566216
중랑구,신내9단지아파트.서울의료원,,07-280,공공WiFi,127.09655,37.612625
은평구,신진과학기술고등학교,,12-304,공공WiFi,126.92054,37.598106
영등포구,양평한신아파트.선유도공원입구,,19-214,공공WiFi,126.894684,37.5417
동작구,흑석역.명수대현대아파트,,20-127,공공WiFi,126.965576,37.507565
광진구,어린이대공원역3번출구,,05-231,공공WiFi,127.07532,37.5468
노원구,월계주공108동앞롯데캐슬루나아파트,,11-310,공공WiFi,127.052574,37.626205
관악구,호림박물관,,21-110,공공WiFi,126.91858,37.48263
영등포구,샛강역.앙카라공원,,19-151,공공WiFi,126.93004,37.51807
은평구,응암시장,,12-305,공공WiFi,126.91808,37.5943
종로구,롯데아파트,,01-159,공공WiFi,126.976494,37.610394
용산구,용산구청.크라운호텔,,03-153,공공WiFi,126.991104,37.53025
송파구,경찰병원.서울동부고용노동지청,,24-379,공공WiFi,127.12232,37.494476
은평구,푸르지오621동앞,,12-432,공공WiFi,126.93055,37.648457
강남구,KT강남지사,,23-278,공공WiFi,127.041855,37.504715
양천구,서서울호수공원,,15-339,공공WiFi,126.8328,37.529205
양천구,정랑고개.양천벤처타운,,15-227,공공WiFi,126.85034,37.511646
관악구,KT&G관악지점,,21-107,공공WiFi,126.937256,37.484394
성북구,길음뉴타운10단지.라온유아파트,,08-400,공공WiFi,127.01804,37.602795
노원구,월계주공1단지,,11-307,공공WiFi,127.05393,37.628246
종로구,창경궁.서울대학교병원,,01-224,공공WiFi,126.996735,37.57882
광진구,화양리,,05-250,공공WiFi,127.07135,37.547966
중랑구,사가정역,,07-247,공공WiFi,127.087654,37.580757
송파구,잠실119안전센터,,24-153,공공WiFi,127.09475,37.507023
서초구,지하철2호선방배역,,22-233,공공WiFi,126.99663,37.481266
서초구,방배사이길,,22-222,공공WiFi,126.99029,37.493053
양천구,진명여고,,15-258,공공WiFi,126.864975,37.52392
강남구,농협앞,,23-180,공공WiFi,127.044655,37.524014
강동구,둔촌종합상가,,25-249,공공WiFi,127.13525,37.524815
성동구,서울숲,,04-177,공공WiFi,127.044586,37.54295
광진구,국민은행자양지점앞,,05-185,공공WiFi,127.0814,37.531483
은평구,푸르지오530동앞,,12-351,공공WiFi,126.93447,37.63671
성북구,정릉2동주민센터,,08-118,공공WiFi,127.01124,37.604736
서초구,종로교회앞,,22-251,공공WiFi,126.988594,37.47824
동대문구,동답초교.대림아파트,,06-779,공공WiFi,127.0652,37.57109
강남구,차병원,,23-269,공공WiFi,127.0345,37.506054
은평구,상신초등학교,,12-160,공공WiFi,126.91005,37.595676
노원구,상계주공15단지,,11-267,공공WiFi,127.056725,37.668316
노원구,하계장미아파트,,11-448,공공WiFi,127.06895,37.634117
노원구,대림아파트상가,,11-184,공공WiFi,127.05884,37.66037
노원구,하계극동아파트,,11-452,공공WiFi,127.06478,37.63384
서초구,일동제약사거리,,22-291,공공WiFi,127.038246,37.47887
도봉구,창동주공4단지,,10-242,공공WiFi,127.048096,37.64525
강남구,뱅뱅사거리기쁨병원,,23-294,공공WiFi,127.033615,37.490223
강동구,길동사거리.강동세무서,,25-124,공공WiFi,127.13705,37.53426
강서구,블루나인비지니스센터.이마트,,16-253,공공WiFi,126.86381,37.556324
강남구,역삼e-편한세상아파트,,23-308,공공WiFi,127.051346,37.499268
노원구,광운대역,,11-279,공공WiFi,127.06203,37.622303
강남구,강남경찰서.강남운전면허시험장,,23-243,공공WiFi,127.06712,37.509865
송파구,마천동금호어울림1차아파트,,24-293,공공WiFi,127.15411,37.497063
노원구,중계1동주민센터,,11-348,공공WiFi,127.07728,37.651966
동대문구,전농래미안크레시티아파트,,06-206,공공WiFi,127.05571,37.57628
양천구,서서울호수공원,,15-338,공공WiFi,126.83264,37.52906
송파구,잠실중학교.장미종합상가,,24-130,공공WiFi,127.10089,37.517235
성북구,정릉동풍림상가앞,,08-260,공공WiFi,127.00772,37.616703
구로구,구로디지털단지역,,17-229,공공WiFi,126.901726,37.483448
강남구,래미안강남힐즈,,23-446,공공WiFi,127.097206,37.47309
동대문구,동아제약앞,,06-184,공공WiFi,127.03052,37.572598
강동구,강동역.강풀만화거리입구,,25-126,공공WiFi,127.13079,37.536213
광진구,어린이대공원역.화양천주교회,,05-234,공공WiFi,127.07352,37.545925
성북구,안암오거리,,08-158,공공WiFi,127.02911,37.582615
도봉구,쌍문동청한빌라,,10-200,공공WiFi,127.01503,37.657513
송파구,잠실파크리오아파트상가.올림픽회관,,24-123,공공WiFi,127.11471,37.521
용산구,한남역.용산노인종합복지관,,03-285,공공WiFi,127.00671,37.531223
강남구,매봉역양재최의원,,23-317,공공WiFi,127.044586,37.48613
송파구,보인고교.오금동삼성아파트,,24-252,공공WiFi,127.13831,37.496307
서대문구,명지전문대.충암중고등학교,,13-221,공공WiFi,126.92402,37.584473
강남구,삼성중앙역.플래티넘아파트,,23-210,공공WiFi,127.05156,37.5126
강남구,개포1단지연금매장,,23-344,공공WiFi,127.0606,37.48262
강남구,역삼초등학교,,23-295,공공WiFi,127.03049,37.49215
송파구,올림픽회관,,24-231,공공WiFi,127.11498,37.520977
중구,시청앞,,02-132,공공WiFi,126.97632,37.56272
동대문구,동아제약앞,,06-185,공공WiFi,127.03068,37.57272
성북구,돌곶이역,,08-142,공공WiFi,127.05628,37.6105
성북구,돌곶이역,,08-142,공공WiFi,127.05628,37.6105
성북구,돌곶이역,,08-142,공공WiFi,127.05628,37.6105
성북구,월계2교.참누리아파트,,08-185,공공WiFi,127.05043,37.623253
성북구,월계2교.참누리아파트,,08-185,공공WiFi,127.05043,37.623253
서초구,내방역2번출구,,22-230,공공WiFi,126.99426,37.48673
마포구,성미약수터,,14-188,공공WiFi,126.91409,37.562477
강서구,염창동새마을금고,,16-248,공공WiFi,126.87288,37.55026
마포구,공덕오거리,,14-150,공공WiFi,126.95301,37.54294
노원구,도봉면허시험장,,11-186,공공WiFi,127.05966,37.65736
구로구,고척중학교,,17-228,공공WiFi,126.86336,37.5008
동대문구,롯데캐슬노블레스,,06-218,공공WiFi,127.04828,37.575657
노원구,월계주공1단지상가,,11-302,공공WiFi,127.05131,37.62659
강남구,청담초등학교,,23-165,공공WiFi,127.04506,37.52666
송파구,잠실진주아파트,,24-216,공공WiFi,127.10951,37.51636
동대문구,답십리촬영소.우성그린아파트,,06-147,공공WiFi,127.066956,37.57435
강남구,우리은행청담지점.청담삼익아파트,,23-171,공공WiFi,127.056694,37.52099
용산구,서빙고역1번출구,,03-157,공공WiFi,126.98947,37.52005
강서구,국민은행방화동지점,,16-127,공공WiFi,126.81142,37.572662
금천구,가산디지털단지역,가산디지털단지역1호선,18-240,공공WiFi,126.88104,37.481785
종로구,하림각,,01-136,공공WiFi,126.96183,37.59827
용산구,용산한신아파트,,03-150,공공WiFi,126.98718,37.539787
중랑구,동서그랜드맨션,,07-222,공공WiFi,127.07819,37.586178
동대문구,서울시동부병원,,06-183,공공WiFi,127.03063,37.576187
은평구,증산종합시장.증산중학교입구,,12-173,공공WiFi,126.90635,37.580616
양천구,양천구청역,,15-192,공공WiFi,126.865364,37.512505
금천구,독산1동한신코아,,18-127,공공WiFi,126.88809,37.45687
노원구,중계역,,11-366,공공WiFi,127.06457,37.643898
용산구,원효로3가,,03-147,공공WiFi,126.95824,37.53394
강북구,강북노인종합복지관,,09-143,공공WiFi,127.018974,37.6343
영등포구,우성5차아파트,,19-324,공공WiFi,126.902985,37.50734
송파구,송파동한양1차아파트,,24-201,공공WiFi,127.11551,37.505974
강남구,일원본동주민센터,,23-381,공공WiFi,127.08476,37.483448
동대문구,휘경2동주민센터,,06-257,공공WiFi,127.068,37.59066
강남구,군인공제회관,,23-327,공공WiFi,127.052055,37.489246
동대문구,답십리초등학교.현대시장,,06-198,공공WiFi,127.05706,37.56839
강남구,세곡푸르지오,,23-482,공공WiFi,127.093956,37.467773
강서구,방화역,,16-131,공공WiFi,126.8125,37.576878
중랑구,신내동성1.2차아파트,,07-276,공공WiFi,127.09605,37.609695
관악구,현대시장앞,,21-194,공공WiFi,126.947815,37.486786
강동구,강동구청역농협중앙회,,25-313,공공WiFi,127.11984,37.529087
성동구,서울숲,,04-178,공공WiFi,127.04456,37.543297
동대문구,동아.위더스빌아파트,,06-152,공공WiFi,127.062164,37.566742
노원구,서울과학기술대입구,,11-160,공공WiFi,127.071556,37.628323
마포구,마포구청.성산자동차검사소,,14-101,공공WiFi,126.90224,37.564804
양천구,신정1동주민센터,,15-302,공공WiFi,126.853905,37.517597
동작구,신대방역,,20-207,공공WiFi,126.91226,37.487488
송파구,잠실우성4차현대아파트,,24-161,공공WiFi,127.08556,37.505013
강남구,차병원,,23-268,공공WiFi,127.03456,37.505554
성동구,청계벽산아파트.텐즈힐아파트,,04-106,공공WiFi,127.03035,37.56873
금천구,금천패션아울렛사거리.현대아울렛,,18-115,공공WiFi,126.88833,37.477947
동작구,상도터널노량진동,,20-157,공공WiFi,126.95368,37.512012
송파구,현대아파트앞,,24-468,공공WiFi,127.11942,37.528736
성북구,국민대학교앞,,08-110,공공WiFi,126.99472,37.610664
서초구,창신교회앞.서리풀노리학교,,22-105,공공WiFi,127.02137,37.490513
서초구,서초문화예술정보학교,,22-132,공공WiFi,127.03214,37.488064
노원구,중계주공2단지,,11-395,공공WiFi,127.07794,37.656803
양천구,신한은행신월동지점,,15-217,공공WiFi,126.841545,37.51793
성북구,대광초교,,08-159,공공WiFi,127.025085,37.57965
영등포구,국회의사당,,19-280,공공WiFi,126.91922,37.53058
중구,청구역,,02-212,공공WiFi,127.01427,37.560005
강동구,예닮요양병원,,25-242,공공WiFi,127.139046,37.5355
동대문구,장안사거리,,06-234,공공WiFi,127.07048,37.572407
마포구,월드컵파크2단지.에스플렉스센터,,14-117,공공WiFi,126.89057,37.575268
송파구,몽촌토성역.한성백제역,,24-396,공공WiFi,127.11348,37.516994
광진구,화양시장앞,,05-247,공공WiFi,127.07063,37.548706
노원구,수락산역,,11-197,공공WiFi,127.055214,37.677353
마포구,성산2교,,14-198,공공WiFi,126.91317,37.56564
동작구,동작역.국립현충원,,20-133,공공WiFi,126.97699,37.50248
관악구,관악드림타운북문,,21-242,공공WiFi,126.95079,37.49161
구로구,한국SGI,,17-105,공공WiFi,126.88967,37.502422
서초구,서울고등학교,,22-148,공공WiFi,127.00502,37.482872
강동구,신암중학교,,25-151,공공WiFi,127.13136,37.55477
광진구,광진경찰서,,05-146,공공WiFi,127.08459,37.543102
중랑구,KT중랑지점,,07-149,공공WiFi,127.078285,37.59073
강남구,베스티안병원,,23-264,공공WiFi,127.0567,37.497585
강남구,중대부고,,23-220,공공WiFi,127.055016,37.491863
관악구,서원동승리교앞,,21-369,공공WiFi,126.92983,37.4816
송파구,잠실중학교,,24-131,공공WiFi,127.1001,37.51679
성북구,성북우체국현대백화점,,08-327,공공WiFi,127.029305,37.60786
양천구,서부여성발전센터,,15-335,공공WiFi,126.82888,37.535107
관악구,신우초등학교,,21-177,공공WiFi,126.93183,37.462402
동대문구,전곡시장앞,,06-145,공공WiFi,127.06786,37.577225
서초구,방배동래미안아트힐.국립국악원,,22-253,공공WiFi,127.00609,37.4773
송파구,잠실트리지움,,24-152,공공WiFi,127.090256,37.507637
양천구,서부트럭터미널.신정동일하이빌아파트,,15-306,공공WiFi,126.84244,37.510445
동작구,동작역.국립현충원,,20-134,공공WiFi,126.97654,37.503117
강남구,개포주공5단지경기여고,,23-353,공공WiFi,127.0673,37.486652
양천구,신정학마을아파트,,15-228,공공WiFi,126.843994,37.507088
마포구,아현동가구단지,,14-100,공공WiFi,126.960724,37.558083
강남구,언북중학교입구,,23-124,공공WiFi,127.03077,37.520397
강남구,대치동은마아파트,,23-236,공공WiFi,127.06851,37.498474
송파구,훼미리근린공원,,24-334,공공WiFi,127.11484,37.491325
양천구,신월5동주민센터.신월중학교,,15-346,공공WiFi,126.82754,37.539444
강남구,현대아파트경남아파트,,23-340,공공WiFi,127.052925,37.48263
강동구,명일동현대아파트,,25-260,공공WiFi,127.15332,37.54918
강서구,태영.삼성한사랑아파트,,16-251,공공WiFi,126.86553,37.555122
구로구,구로구청,,17-111,공공WiFi,126.88783,37.49467
영등포구,태양의집,,19-258,공공WiFi,126.90831,37.496304
서대문구,서대문자연사박물관입구,,13-154,공공WiFi,126.93541,37.575043
중구,퇴계로6가,,02-206,공공WiFi,127.003296,37.56343
서초구,서초포레스타입구,,22-398,공공WiFi,127.05993,37.457214
송파구,문정동래미안아파트,,24-325,공공WiFi,127.1292,37.491856
중구,성동공업고등학교(무궁화회관),,02-179,공공WiFi,127.01589,37.568356
성동구,옥수동삼성아파트,,04-161,공공WiFi,127.01476,37.543755
강북구,북부시장입구,,09-150,공공WiFi,127.03202,37.635365
강동구,서울시동부기술교육원,,25-145,공공WiFi,127.14344,37.55475
성동구,금호역,,04-156,공공WiFi,127.015564,37.548542
중랑구,중랑경찰서정문.우디안101동앞,,07-458,공공WiFi,127.10536,37.617786
송파구,오금동사거리,,24-268,공공WiFi,127.13789,37.502743
강동구,강일고등학교.강일리버파크7단지,,25-323,공공WiFi,127.17834,37.564693
용산구,숙대입구역.청파동주민센터,,03-129,공공WiFi,126.97041,37.545433
동대문구,동대문구청.용두역4번출구,,06-160,공공WiFi,127.03933,37.57365
서초구,신반포자이아파트,,22-208,공공WiFi,127.00793,37.509453
은평구,진관중고교.약수사앞,,12-430,공공WiFi,126.92314,37.6434
강남구,우성아파트,,23-436,공공WiFi,127.06827,37.501183
송파구,송파중학교,,24-346,공공WiFi,127.13153,37.496353
종로구,사직단,,01-128,공공WiFi,126.96807,37.574947
광진구,자양우성아파트앞,,05-211,공공WiFi,127.07341,37.53396
노원구,노원초등학교,,11-199,공공WiFi,127.05573,37.672905
금천구,가산디지털단지역,,18-106,공공WiFi,126.88121,37.48114
서초구,안골마을,,22-330,공공WiFi,127.06233,37.4562
은평구,역촌중앙시장,,12-150,공공WiFi,126.91431,37.61275
성동구,옥정중학교입구,,04-169,공공WiFi,127.01121,37.540894
은평구,녹번역,,12-381,공공WiFi,126.93481,37.600834
송파구,오금공원앞,,24-250,공공WiFi,127.133064,37.49912
송파구,오금동대림아파트,,24-264,공공WiFi,127.12781,37.507885
강서구,신방화사거리,,16-432,공공WiFi,126.816635,37.572765
관악구,중앙동성당앞,,21-197,공공WiFi,126.95559,37.485744
송파구,가락시장.가락시장역,,24-363,공공WiFi,127.11717,37.49438
노원구,노원구청,,11-251,공공WiFi,127.05728,37.654285
강서구,서울호서전문학교.등촌주공3단지아파트,,16-221,공공WiFi,126.83955,37.56284
금천구,홈플러스금천점,,18-152,공공WiFi,126.89778,37.468727
강동구,예닮요양병원,,25-243,공공WiFi,127.13906,37.53517
영등포구,한신아파트.선유도역,,19-211,공공WiFi,126.89306,37.53824
서초구,삼호가든사거리.반포도서관,,22-199,공공WiFi,127.01153,37.502777
서초구,방배동삼호아파트,,22-223,공공WiFi,126.98824,37.496315
양천구,양천구청역,,15-209,공공WiFi,126.86646,37.512775
서대문구,이대부고,,13-121,공공WiFi,126.94658,37.56627
금천구,금천우체국.독산1동주민센터,,18-150,공공WiFi,126.89795,37.470425
강북구,번동주공3단지,,09-182,공공WiFi,127.04355,37.62908
마포구,합정역,,14-119,공공WiFi,126.91432,37.54865
광진구,중곡동종점,,05-116,공공WiFi,127.08712,37.562077
도봉구,쌍문동성원아파트,,10-210,공공WiFi,127.02893,37.657646
중랑구,용마산역,,07-208,공공WiFi,127.08661,37.573414
성동구,서울숲 까페거리,서울숲4길 10,,공공WiFi,127.04216,37.54753
성동구,사근초등학교 정문,사근동11길 15,,공공WiFi,127.048035,37.562305
성동구,달맞이공원(1),독서당로44길 25,,공공WiFi,127.02042,37.5443
성동구,달맞이공원(2),독서당로44길 25,,공공WiFi,127.0209,37.54317
성동구,독서당공원,금호동1가 37-7,,공공WiFi,127.02866,37.552128
성동구,성수마을마당,성수동2가 595,,공공WiFi,127.0562,37.53595
성동구,상원삼거리,송정동 77-16,,공공WiFi,127.052216,37.55085
성동구,성동세무서 앞,송정동 67-6,,공공WiFi,127.062614,37.54813
성동구,성동장애인복지회관 앞,마장동 527-2,,공공WiFi,127.033646,37.570534
성동구,마장역 인근,마장로40길 14,,공공WiFi,127.043816,37.564884
성동구,마장국민체육센터 앞,행당동 1-93,,공공WiFi,127.0411,37.56189
성동구,옥정초 주변 등하굣길,옥수동 233-16,,공공WiFi,127.01582,37.54241
성동구,대현산공원,금호동1가 산37-1,,공공WiFi,127.02938,37.554268
성동구,뚝도시장 인근,성수동2가 335-224,,공공WiFi,127.05427,37.53759
송파구,위례동 트램구간,장지동 881-4,위례아이파크 2차 205동 앞,공공WiFi,127.14316,37.480778
송파구,위례동 트램구간,장지동 881-4,위례아이파크 2차 205동 앞,공공WiFi,127.14316,37.480778
송파구,위례동 트램구간,장지동 917-20,송파와이즈더샵 105동 앞,공공WiFi,127.14296,37.47739
송파구,위례동 트램구간,장지동 917-20,송파와이즈더샵 105동 앞,공공WiFi,127.14296,37.47739
송파구,위례동 트램구간,장지동 917-20,송파와이즈더샵 105동 앞,공공WiFi,127.14296,37.47739
송파구,위례동 트램구간,장지동 917-22,위례1지하차도,공공WiFi,127.1422,37.47419
송파구,송파구청,올림픽로 326,본관 7층 위기가정센터,공공WiFi,127.10588,37.514664
송파구,송파구청,올림픽로 326,악기도서관,공공WiFi,127.10655,37.514572
송파구,송파구청,올림픽로 326,악기도서관 B1F,공공WiFi,127.10655,37.514572
송파구,송파구청,올림픽로 326,본관 4층 스마트도시과 2,공공WiFi,127.10588,37.514664
중구,서울시청,세종대로 110 서울시청,지하식당안 B2층,공공WiFi,126.978355,37.56689
동대문구,용두교육장,한빛로 62,용두교육장(1층 교육실),공공WiFi,127.029686,37.578667
동대문구,용두교육장,한빛로 62,용두교육장(2층 교육실),공공WiFi,127.029686,37.578667
동대문구,장안1동문화센터,장한로26가길 113,3층 교육실,공공WiFi,127.066246,37.567932
서대문구,서대문구청,연희로 248,4층 정보통신실안,공공WiFi,126.936516,37.578907
서대문구,서대문구청,연희로 248,4층 정보통신실안,공공WiFi,126.936516,37.578907
도봉구,학마을다사랑센터,방학동 446-5(시루봉로 128),1층-평생학습실/운영사무실,공공WiFi,127.02785,37.662193
도봉구,학마을다사랑센터,방학동 446-5(시루봉로 128),1층-유아 어린이 자료실,공공WiFi,127.02785,37.662193
도봉구,학마을다사랑센터,방학동 446-5(시루봉로 128),2층 2F,공공WiFi,127.02785,37.662193
도봉구,학마을다사랑센터,방학동 446-5(시루봉로 128),3층-자유열람실 앞 복도,공공WiFi,127.02785,37.662193
도봉구,학마을다사랑센터,방학동 446-5(시루봉로 128),4층-공간플러스,공공WiFi,127.02785,37.662193
도봉구,학마을다사랑센터,방학동 446-5(시루봉로 128),5층-종합자료실/대출반납 데스크,공공WiFi,127.02785,37.662193
동대문구,이문체육센터,한천로58길 81-49,이문2동 189 1층로비,공공WiFi,127.06871,37.60226
동대문구,이문체육센터,한천로58길 81-49,이문2동 189 2층로비,공공WiFi,127.06871,37.60226
동대문구,이문체육센터,한천로58길 81-49,이문2동 189 3층로비,공공WiFi,127.06871,37.60226
동대문구,휘경1정보교육장,외대역동로6길 3,휘경1동 135-9 3층 로비,공공WiFi,127.06575,37.592888
도봉구,모퉁이63,덕릉로 63길 53,지하1층 강당,공공WiFi,127.04029,37.643703
도봉구,모퉁이63,덕릉로 63길 53,1층 로비,공공WiFi,127.04029,37.643703
도봉구,모퉁이63,덕릉로 63길 53,1층 운영사무실,공공WiFi,127.04029,37.643703
도봉구,모퉁이63,덕릉로 63길 53,2층 강사대기실,공공WiFi,127.04029,37.643703
도봉구,모퉁이63,덕릉로 63길 53,2층 마을배움터1,공공WiFi,127.04029,37.643703
도봉구,모퉁이63,덕릉로 63길 53,2층 마을배움터2,공공WiFi,127.04029,37.643703
도봉구,모퉁이63,덕릉로 63길 53,3층 공동육아나눔터,공공WiFi,127.04029,37.643703
도봉구,모퉁이63,덕릉로 63길 53,4층 창동메이커 스페이스,공공WiFi,127.04029,37.643703
도봉구,모퉁이63,덕릉로 63길 53,4층 메이커스페이스 장비실,공공WiFi,127.04029,37.643703
도봉구,모퉁이63,덕릉로 63길 53,5층 작은도서관,공공WiFi,127.04029,37.643703
동작구,동작문화복지센터,상도로 202,장승배기로 10길 42(3층 홀),공공WiFi,126.941,37.505
동작구,동작문화복지센터,상도로 202,장승배기로 10길 42(보건소),공공WiFi,126.941,37.505
동작구,동작문화복지센터,상도로 202,장승배기로 10길 42(4층 홀),공공WiFi,126.941,37.505
중랑구,면목2동주민센터,봉우재로16길 17,면목2동 주민센터 1F 민원실,공공WiFi,127.079,37.59
중랑구,면목4동주민센터,면목로28길 9-4,면목4동 주민센터 1F 민원실,공공WiFi,127.086,37.575
중랑구,면목5동주민센터,동일로 622,면목5동 주민센터 1F 민원실,공공WiFi,127.08,37.586
중랑구,상봉1동주민센터,상봉중앙로3길 12,상봉1동 주민센터 2F 휴게실,공공WiFi,127.087,37.6
중랑구,신내1동주민센터,용마산로129나길 35,신내1동 주민센터 1F 민원실,공공WiFi,127.099464,37.60587
중랑구,신내2동주민센터,봉화산로 190,신내2동 주민센터 3F 민원실,공공WiFi,127.094,37.606
중랑구,신내2동주민센터,봉화산로 190,신내2동 주민센터 2F 북카페,공공WiFi,127.094,37.606
동대문구,장안1동문화센터,장한로26가길 113,1층 헬스장,공공WiFi,127.06639,37.567802
동대문구,장안1동문화센터,장한로26가길 113,지하1층 열린문고,공공WiFi,127.06639,37.567802
동대문구,장안1동문화센터,장한로26가길 113,2층,공공WiFi,127.06639,37.567802
마포구,에스플렉스,매봉산로 31,스마티움 15층,공공WiFi,126.89058,37.57596
마포구,에스플렉스,매봉산로 31,스마티움 15층(세미나실),공공WiFi,126.89058,37.57596
마포구,에스플렉스,매봉산로 31,스마티움 21층,공공WiFi,126.89058,37.57596
마포구,에스플렉스,매봉산로 31,외곽 시너지움 01층,공공WiFi,126.89058,37.57596
마포구,에스플렉스,매봉산로 31,외곽 시너지움 01층,공공WiFi,126.89058,37.57596
마포구,에스플렉스,매봉산로 31,외곽 스마티움 01층,공공WiFi,126.89058,37.57596
마포구,에스플렉스,매봉산로 31,외곽 스마티움 01층,공공WiFi,126.89058,37.57596
동작구,노량진1동현장민원실,노량진로32길 10,노량진로 32길 10,공공WiFi,126.95606,37.51308
동작구,사당5동주민센터,사당로2가길 219 (사당동 228-11),2층 주민센터,공공WiFi,126.96693,37.48564
마포구,경의선숲길공원,성미산로138,마포구 연남동 252-13 (방범305) (경의선숲길공원),공공WiFi,126.92183,37.56345
마포구,경의선숲길공원,성미산로23길46,마포구 연남동 246-4 (방범307) (경의선숲길공원),공공WiFi,126.92034,37.565235
마포구,경의선숲길공원,성미산로32길51,마포구 연남동 256-8 (방범309) (경의선숲길공원),공공WiFi,126.92245,37.562714
마포구,대흥동주민센터-강당(1),신촌로26길 10,마포구 신촌로26길 10(1층 민원실),공공WiFi,126.94236,37.555817
마포구,도화동주민센터,도화길 37,마포구 도화길 37(1층 민원실),공공WiFi,126.94985,37.54152
마포구,도화동주민센터,도화길 37,마포구 도화길 37(3층 자치프로그램실),공공WiFi,126.94985,37.54152
마포구,도화동주민센터,도화길 37,마포구 도화길 37(3층 행정민원실),공공WiFi,126.94985,37.54152
마포구,도화동주민센터,도화길 37,마포구 도화길 37(4층강당(1)),공공WiFi,126.94985,37.54152
마포구,망원1동주민센터,포은로6길 10,마포구 포은로6길 10(지하1층 강의실),공공WiFi,126.905556,37.55557
마포구,망원1동주민센터,포은로6길 10,마포구 포은로6길 10(1층 민원실 1 ),공공WiFi,126.905556,37.55557
마포구,망원1동주민센터,포은로6길 10,마포구 포은로6길 10(1층 민원실 복도 ),공공WiFi,126.905556,37.55557
마포구,망원1동주민센터,포은로6길 10,마포구 포은로6길 10(2층 강당),공공WiFi,126.905556,37.55557
마포구,망원1동주민센터,포은로6길 10,마포구 포은로6길 10(2층 회의실),공공WiFi,126.905556,37.55557
마포구,망원1동주민센터,포은로6길 10,마포구 포은로6길 10(2층 동문고),공공WiFi,126.905556,37.55557
마포구,서교동주민센터,동교로15길 7,마포구 동교로 15길 7(1층 민원실),공공WiFi,126.91458,37.55509
마포구,서교동주민센터,동교로15길 7,마포구 동교로 15길 7(2층 동문고),공공WiFi,126.91458,37.55509
마포구,서교동주민센터,동교로15길 7,마포구 동교로 15길 7(3층 강의실),공공WiFi,126.91458,37.55509
마포구,서교동주민센터,동교로15길 7,마포구 동교로 15길 7(4층 강당),공공WiFi,126.91458,37.55509
마포구,신수동주민센터,독막로 192,마포구 독막로 192(2층 민원실),공공WiFi,126.935265,37.547005
마포구,신수동주민센터,독막로 192,마포구 독막로 192(3층 강의실 1 ),공공WiFi,126.935265,37.547005
마포구,신수동주민센터,독막로 192,마포구 독막로 192(3층 강의실 2 ),공공WiFi,126.935265,37.547005
마포구,신수동주민센터,독막로 192,마포구 독막로 192(4층강당),공공WiFi,126.935265,37.547005
마포구,염리동주민센터-동문고(1),숭문길 14,마포구 숭문길 14(2층 동문고),공공WiFi,126.94563,37.547016
마포구,용강동주민센터,토정로31길 31,마포구 토정로31길 31(1층 민원실),공공WiFi,126.94267,37.54215
마포구,용강동주민센터,토정로31길 31,마포구 토정로31길 31(2층 강의실),공공WiFi,126.94267,37.54215
마포구,용강동주민센터,토정로31길 31,마포구 토정로31길 31(2층 작은도서관),공공WiFi,126.94267,37.54215
마포구,에스플렉스,매봉산로 31,스마티움 15층,공공WiFi,126.89058,37.57596
중구,남산1청사,삼일대로 231 (예장동 산 5-85),지하1층 조경반휴게실앞 복도,공공WiFi,126.99222,37.55562
중구,남산1청사,삼일대로 231 (예장동 산 5-85),지하1층 환경미화원앞 복도,공공WiFi,126.99222,37.55562
도봉구,학마을다사랑센터,방학동 446-5(시루봉로 128),5층-종합자료실/서관,공공WiFi,127.02778,37.66213
도봉구,학마을다사랑센터,방학동 446-5(시루봉로 128),5층-이용자 휴게실,공공WiFi,127.02778,37.66213
도봉구,학마을다사랑센터,방학동 446-5(시루봉로 128),4층-복도,공공WiFi,127.02778,37.66213
도봉구,학마을다사랑센터,방학동 446-5(시루봉로 128),4층-디지털 자료실,공공WiFi,127.02778,37.66213
도봉구,학마을다사랑센터,방학동 446-5(시루봉로 128),3층-자유열람실,공공WiFi,127.02778,37.66213
서대문구,서대문소방서,연희동 76-12,3층,공공WiFi,126.935905,37.573215
서대문구,서대문소방서,연희동 76-12,1층,공공WiFi,126.935905,37.573215
양천구,내일그림진로직업체험센터,신정동 1032-12,양천구 중앙로 250(신정동 1032-12) (4층 북카페),공공WiFi,126.85371,37.518864
양천구,내일그림진로직업체험센터,신정동 1032-12,양천구 중앙로 250(신정동 1032-12) (3층 강의실),공공WiFi,126.85371,37.518864
양천구,안전재난체험실,신정동 322-13,양천구 신정동 322-13,공공WiFi,126.86397,37.516647
양천구,안전재난체험실,신정동 322-13,양천구 신정동 322-13,공공WiFi,126.86397,37.516647
양천구,목동보건지소,목동 717-28,양천구 목동중앙본로7가길 11(목동 717-28) (1층 민원실),공공WiFi,126.86699,37.54011
양천구,목동보건지소,목동 717-28,양천구 목동중앙본로7가길 11(목동 717-28) (1층 건강관리실),공공WiFi,126.86699,37.54011
양천구,목동보건지소,목동 717-28,양천구 목동중앙본로7가길 11(목동 717-28) (2층),공공WiFi,126.86699,37.54011
양천구,목동보건지소,목동 717-28,양천구 목동중앙본로7가길 11(목동 717-28) (3층),공공WiFi,126.86699,37.54011
동작구,사당5동주민센터,사당로2가길 219 (사당동 228-11),3층 자치회관,공공WiFi,126.97167,37.481174
동작구,사당5동주민센터,사당로2가길 219 (사당동 228-11),3층 북카페,공공WiFi,126.97167,37.481174
동작구,사육신공원,노량진동 152-3,노량진로 191(노량진동 152-3 역사관 건물 1층 복도),공공WiFi,126.94941,37.51346
동작구,사육신공원,노량진동 152-3,노량진로 191(노량진동 152-3 역사관 건물 1층 공부방),공공WiFi,126.94941,37.51346
동작구,문화복지센터,상도동 176-3,장승배기로 10길 42(상도동 176-3 1층 민원접수대 앞),공공WiFi,126.94107,37.50444
동작구,문화복지센터,상도동 176-3,장승배기로 10길 42(상도동 176-3 2층 한방진료실 앞 복도),공공WiFi,126.94107,37.50444
동작구,동작구복지상담실,장승배기로 161(구청 별관5층 복지상담실),,공공WiFi,126.93906,37.51237
서초구,반포1동주민센터,반포동 20-48,3층 작은도서관,공공WiFi,127.01337,37.50509
서초구,반포1동주민센터,반포동 20-48,2층 카페앞,공공WiFi,127.01337,37.50509
서초구,반포1동주민센터,반포동 20-48,2층 민원실-1,공공WiFi,127.01337,37.50509
서초구,반포1동주민센터,반포동 20-48,2층 민원실-2,공공WiFi,127.01337,37.50509
서초구,반포1동주민센터,반포동 20-48,3층 복도,공공WiFi,127.01337,37.50509
서초구,반포1동주민센터,반포동 20-48,4층 복도-3,공공WiFi,127.01337,37.50509
서초구,반포1동주민센터,반포동 20-48,4층 복도-1,공공WiFi,127.01337,37.50509
서초구,반포1동주민센터,반포동 20-48,4층 복도-2,공공WiFi,127.01337,37.50509
서초구,반포2동주민센터,반포동 4-15,1층 민원실,공공WiFi,126.99451,37.50455
서초구,반포2동주민센터,반포동 4-15,2층 컴퓨터교실,공공WiFi,126.99451,37.50455
서초구,반포2동주민센터,반포동 4-15,2층 작은도서관,공공WiFi,126.99451,37.50455
서초구,반포4동주민센터,반포동 74-7,4층 책사랑방,공공WiFi,127.00024,37.497467
서초구,반포4동주민센터,반포동 74-7,3층 소회의실,공공WiFi,127.00024,37.497467
서초구,반포4동주민센터,반포동 74-7,2층 민원실,공공WiFi,127.00024,37.497467
서초구,반포본동주민센터,반포동 1313 (311호),,공공WiFi,126.986855,37.502182
서초구,방배1동주민센터,방배1동 922-18,1층 민원실,공공WiFi,126.99446,37.483337
서초구,방배1동주민센터,방배1동 922-18,1층 행정실,공공WiFi,126.99446,37.483337
서초구,방배1동주민센터,방배1동 922-18,3층 문화사랑방,공공WiFi,126.99446,37.483337
서초구,방배1동주민센터,방배1동 922-18,4층 독서실,공공WiFi,126.99446,37.483337
서초구,방배1동주민센터,방배1동 922-18,2층 작은도서관,공공WiFi,126.99446,37.483337
서초구,방배3동주민센터,방배동 983-14,지하1층 예비군동대,공공WiFi,126.99902,37.4803
서초구,방배3동주민센터,방배동 983-14,지상1층,공공WiFi,126.99902,37.4803
서초구,방배3동주민센터,방배동 983-14,5층 복도,공공WiFi,126.99902,37.4803
서초구,방배3동주민센터,방배동 983-14,6층 복도,공공WiFi,126.99902,37.4803
서초구,방배3동주민센터,방배동 983-14,7층 강당,공공WiFi,126.99902,37.4803
서초구,방배3동주민센터,방배동 983-14,3층 복도,공공WiFi,126.99902,37.4803
서초구,방배3동주민센터,방배동 983-14,4층 복도,공공WiFi,126.99902,37.4803
서초구,방배4동주민센터,방배동 852-14,지하1층 교육장,공공WiFi,126.9923,37.48896
서초구,방배본동주민센터,방배동 774-9,1층 민원실,공공WiFi,126.98881,37.494106
서초구,방배본동주민센터,방배동 774-9,2층 복도,공공WiFi,126.98881,37.494106
서초구,서초1동주민센터,서초동 1649-5,2층문화교실,공공WiFi,127.0196,378.49002
서초구,서초1동주민센터,서초동 1649-5,1층민원실,공공WiFi,127.01948,37.49008
서초구,서초1동주민센터,서초동 1649-5,4층 프로그램실,공공WiFi,127.01948,37.49008
서초구,서초1동주민센터,서초동 1649-5,5층 서초교육지원센터,공공WiFi,127.01948,37.49008
서초구,서초1동주민센터,서초동 1649-5,3층복도,공공WiFi,127.01948,37.49008
서초구,서초2동주민센터,서초동 1332-6,2층 복도,공공WiFi,127.024925,37.492027
서초구,서초2동주민센터,서초동 1332-6,2층 쉼카페,공공WiFi,127.024925,37.492027
서초구,서초1동주민센터,서초동 1649-5,2층 작은도서관 안쪽,공공WiFi,127.01948,37.49008
서초구,양재1동주민센터,바우뫼로 41,1층민원실,공공WiFi,127.02671,37.4716
서초구,양재1동주민센터,바우뫼로 41,1층 복지2팀,공공WiFi,127.02671,37.4716
서초구,양재1동주민센터,바우뫼로 41,2층 작은도서관,공공WiFi,127.02671,37.4716
서초구,잠원동주민센터,잠원동 58-27,5층 강당,공공WiFi,127.01394,37.51489
서초구,잠원동주민센터,잠원동 58-27,민원실,공공WiFi,127.01394,37.51489
서초구,잠원동주민센터,잠원동 58-27,복도,공공WiFi,127.01394,37.51489
서초구,잠원동주민센터,잠원동 58-27,3층 작은도서관,공공WiFi,127.01394,37.51489
서초구,잠원동주민센터,잠원동 58-27,3층 PC 룸,공공WiFi,127.01394,37.51489
서초구,잠원동주민센터,잠원동 58-27,4층 문화원,공공WiFi,127.01394,37.51489
서초구,서초구립느티나무쉼터,염곡동 180-2,1층 갤러리아 앞,공공WiFi,127.050705,37.46182
서초구,서초구립느티나무쉼터,염곡동 180-2,2층 복도,공공WiFi,127.050705,37.46182
서초구,서초구립느티나무쉼터,염곡동 180-2,4층 중앙 쉼터,공공WiFi,127.050705,37.46182
서초구,서초구립느티나무쉼터,염곡동 180-2,지하1층 탁구장,공공WiFi,127.050705,37.46182
중구,서울시청,세종대로 110 서울시청,힐링센터 B2F,공공WiFi,126.978355,37.56689
동작구,남부장애인종합복지관,여의대방로20나길40 ( 1F 정보화센터 앞 복도 - 시스코6 ),02-829-7112 서울시립남부장애인종합복지관,공공WiFi,126.91688,37.490253
관악구,선우체육관,문성로16다길 133-70,AD026 앞 한전주,공공WiFi,126.91326,37.46757
중구,서울시청,세종대로 110,녹지시설과 B4F,공공WiFi,126.978355,37.56689
동작구,남부장애인종합복지관,여의대방로20나길40 ( 2F 통합사무실 앞 복도 - 시스코6 ),02-829-7112 서울시립남부장애인종합복지관,공공WiFi,126.91688,37.490253
동작구,남부장애인종합복지관,여의대방로20나길40 ( 2F 프로그램실 앞 복도 - 시스코6 ),02-829-7112 서울시립남부장애인종합복지관,공공WiFi,126.91688,37.490253
동작구,남부장애인종합복지관,여의대방로20나길40 ( 1F 성인물리치료실 앞 복도 - 시스코6 ),02-829-7112 서울시립남부장애인종합복지관,공공WiFi,126.91688,37.490253
동작구,남부장애인종합복지관,여의대방로20나길40 ( 1F 회의실_복도실 앞 복도 - 시스코6 ),02-829-7112 서울시립남부장애인종합복지관,공공WiFi,126.91688,37.490253
금천구,금천사이언스큐브,금하로 783,지하1층,공공WiFi,126.916504,37.450092
금천구,금천사이언스큐브,금하로 783,1층 우드랩,공공WiFi,126.916504,37.450092
금천구,금천사이언스큐브,금하로 783,2층 사무실,공공WiFi,126.916504,37.450092
금천구,금천사이언스큐브,금하로 783,2층 스마트스페이스,공공WiFi,126.916504,37.450092
금천구,금천사이언스큐브,금하로 783,3층 로비,공공WiFi,126.916504,37.450092
금천구,금천사이언스큐브,금하로 783,3층 휴게홀,공공WiFi,126.916504,37.450092
금천구,금천사이언스큐브,금하로 783,3층 3D교육실,공공WiFi,126.916504,37.450092
금천구,금천사이언스큐브,금하로 783,4층 3강의실,공공WiFi,126.916504,37.450092
금천구,금천사이언스큐브,금하로 783,4층 미디어랩,공공WiFi,126.916504,37.450092
금천구,금천사이언스큐브,금하로 783,1층 소잉랩,공공WiFi,126.916504,37.450092
도봉구,도봉여성센터,방학제3동 306-10 (방학로12길 28),1층 키즈여성공간(계단앞),공공WiFi,127.030334,37.663216
도봉구,도봉여성센터,방학제3동 306-10 (방학로12길 28),1층 새일센터(사무실),공공WiFi,127.030334,37.663216
도봉구,도봉여성센터,방학제3동 306-10 (방학로12길 28),2층 수강생 휴게공간,공공WiFi,127.030334,37.663216
도봉구,도봉여성센터,방학제3동 306-10 (방학로12길 28),2층 강의실1,공공WiFi,127.030334,37.663216
도봉구,도봉여성센터,방학제3동 306-10 (방학로12길 28),3층 창업보육실,공공WiFi,127.030334,37.663216
도봉구,도봉여성센터,방학제3동 306-10 (방학로12길 28),3층 강의실6,공공WiFi,127.030334,37.663216
도봉구,도봉여성센터,방학제3동 306-10 (방학로12길 28),4층 사무실,공공WiFi,127.030334,37.663216
도봉구,도봉여성센터,방학제3동 306-10 (방학로12길 28),4층 영유아놀이실,공공WiFi,127.030334,37.663216
도봉구,도봉여성센터,방학제3동 306-10 (방학로12길 28),4층 영유아놀이실,공공WiFi,127.030334,37.663216
중구,서울시청(서소문청사),덕수궁길 15 별관1동,14층,공공WiFi,126.97565,37.564327
마포구,마포주민편익시설,월드컵북로 44길 40,1F 독서실,공공WiFi,126.89539,37.576675
서초구,어린이병원,헌릉로 260,발달센터B2F 지하주차장 C1기둥,공공WiFi,127.068855,37.455467
서초구,어린이병원,헌릉로 260,지하2층입구-EV-좌-점검구,공공WiFi,127.068855,37.455467
서초구,어린이병원,헌릉로 260,발달센터B2F 지하주차장 C4기둥,공공WiFi,127.068855,37.455467
양천구,목동깨비시장,목3동 611-4,,공공WiFi,126.86516,37.548454
양천구,목동깨비시장,목3동 648-2,,공공WiFi,126.8639,37.54632
양천구,목동깨비시장,목3동 615-10,,공공WiFi,126.86353,37.548832
양천구,목동깨비시장,목3동 625-19,,공공WiFi,126.86594,37.54822
양천구,신정7동주민센터,목동동로 37(신정동),3층 다목적실,공공WiFi,126.85959,37.51436
